Name,Description,BranchType,DeliveryStatus,Circle,District,Division,Region,Block,State,Country,Pincode
Kohima,,Head Post Office,Delivery,North Eastern,Kohima,Nagaland,North Eastern,Kohima,Nagaland,India,797001
Jotsoma,,Branch Post Office,Delivery,North Eastern,Kohima,Nagaland,North Eastern,Kohima Science College,Nagaland,India,797002
Khonoma,,Branch Post Office,Delivery,North Eastern,Kohima,Nagaland,North Eastern,Kohima Science College,Nagaland,India,797002
Kohima Science College,,Sub Post Office,Delivery,North Eastern,Kohima,Nagaland,North Eastern,Kohima,Nagaland,India,797002
Mezoma,,Branch Post Office,Delivery,North Eastern,Kohima,Nagaland,North Eastern,Kohima Science College,Nagaland,India,797002
Poilwa,,Branch Post Office,Delivery,North Eastern,Kohima,Nagaland,North Eastern,Kohima Science College,Nagaland,India,797002
Chakhabama,,Branch Post Office,Delivery,North Eastern,Kohima,Nagaland,North Eastern,Kohima Village,Nagaland,India,797003
Chedema,,Branch Post Office,Delivery,North Eastern,Kohima,Nagaland,North Eastern,Kohima Village,Nagaland,India,797003
Ciesema,,Branch Post Office,Delivery,North Eastern,Kohima,Nagaland,North Eastern,Kohima Village,Nagaland,India,797003
Dihoma,,Branch Post Office,Delivery,North Eastern,Kohima,Nagaland,North Eastern,Kohima Village,Nagaland,India,797003
Kedima,,Branch Post Office,Delivery,North Eastern,Kohima,Nagaland,North Eastern,Kohima Village,Nagaland,India,797003
Kizocha,,Branch Post Office,Delivery,North Eastern,Kohima,Nagaland,North Eastern,Kohima Village,Nagaland,India,797003
Kohima Village,,Sub Post Office,Delivery,North Eastern,Kohima,Nagaland,North Eastern,Kohima,Nagaland,India,797003
Rusoma,,Branch Post Office,Delivery,North Eastern,Kohima,Nagaland,North Eastern,Kohima Village,Nagaland,India,797003
N.E.H.U.,,Branch Post Office,Delivery,North Eastern,Kohima,Nagaland,North Eastern,New Sectt Complex,Nagaland,India,797004
New Sectt Complex,,Sub Post Office,Delivery,North Eastern,Kohima,Nagaland,North Eastern,Kohima Sadar,Nagaland,India,797004
Thizama,,Branch Post Office,Delivery,North Eastern,Kohima,Nagaland,North Eastern,New Sectt. Complex,Nagaland,India,797004
Jakhama,,Branch Post Office,Delivery,North Eastern,Kohima,Nagaland,North Eastern,Kohima,Nagaland,India,797005
Khuzama,,Branch Post Office,Delivery,North Eastern,Kohima,Nagaland,North Eastern,Kohima,Nagaland,India,797005
Kigwema,,Branch Post Office,Delivery,North Eastern,Kohima,Nagaland,North Eastern,Kohima,Nagaland,India,797005
Kohima PWD,,Sub Post Office,Delivery,North Eastern,Kohima,Nagaland,North Eastern,Kohima Sadar,Nagaland,India,797005
Lalmati,,Branch Post Office,Delivery,North Eastern,Kohima,Nagaland,North Eastern,Kohima,Nagaland,India,797005
Mima,,Branch Post Office,Delivery,North Eastern,Kohima,Nagaland,North Eastern,Kohima,Nagaland,India,797005
Phesama,,Branch Post Office,Delivery,North Eastern,Kohima,Nagaland,North Eastern,Kohima,Nagaland,India,797005
Viswema,,Branch Post Office,Delivery,North Eastern,Kohima,Nagaland,North Eastern,Kohima,Nagaland,India,797005
Zubza,,Branch Post Office,Delivery,North Eastern,Kohima,Nagaland,North Eastern,Kohima,Nagaland,India,797005
Bhandari,,Sub Post Office,Delivery,North Eastern,Wokha,Nagaland,North Eastern,Bhandari,Nagaland,India,797099
Aitepyong,,Branch Post Office,Delivery,North Eastern,Wokha,Nagaland,North Eastern,Doyang H Project,Nagaland,India,797100
Doyang Hydel Project,,Sub Post Office,Delivery,North Eastern,Wokha,Nagaland,North Eastern,Wokha,Nagaland,India,797100
Longtsung,,Branch Post Office,Delivery,North Eastern,Wokha,Nagaland,North Eastern,Doyang H Project,Nagaland,India,797100
Lotsu,,Branch Post Office,Delivery,North Eastern,Wokha,Nagaland,North Eastern,Doyang H Project,Nagaland,India,797100
Moilan,,Branch Post Office,Delivery,North Eastern,Wokha,Nagaland,North Eastern,Doyang H Project,Nagaland,India,797100
Pangti,,Branch Post Office,Delivery,North Eastern,Wokha,Nagaland,North Eastern,Wokha,Nagaland,India,797100
Sanis,,Branch Post Office,Delivery,North Eastern,Wokha,Nagaland,North Eastern,Doyang H Project,Nagaland,India,797100
Sungro,,Branch Post Office,Delivery,North Eastern,Wokha,Nagaland,North Eastern,Wokha,Nagaland,India,797100
Yamhon,,Branch Post Office,Delivery,North Eastern,Wokha,Nagaland,North Eastern,Doyang H Project,Nagaland,India,797100
Mbaulwa,,Branch Post Office,Delivery,North Eastern,Peren,Nagaland,North Eastern,Peren,Nagaland,India,797101
N.Song,,Branch Post Office,Delivery,North Eastern,Peren,Nagaland,North Eastern,Peren,Nagaland,India,797101
Nchongram,,Branch Post Office,Delivery,North Eastern,Peren,Nagaland,North Eastern,Peren,Nagaland,India,797101
Peren,,Sub Post Office,Delivery,North Eastern,Kohima,Nagaland,North Eastern,Peren,Nagaland,India,797101
Tening,,Branch Post Office,Delivery,North Eastern,Peren,Nagaland,North Eastern,Peren,Nagaland,India,797101
Chizami,,Sub Post Office,Delivery,North Eastern,Phek,Nagaland,North Eastern,Phek,Nagaland,India,797102
Chizami Village,,Branch Post Office,Delivery,North Eastern,Phek,Nagaland,North Eastern,Chizami,Nagaland,India,797102
Middle Khomi,,Branch Post Office,Delivery,North Eastern,Phek,Nagaland,North Eastern,Chizami,Nagaland,India,797102
Thechulumi,,Branch Post Office,Delivery,North Eastern,Phek,Nagaland,North Eastern,Chizami,Nagaland,India,797102
Chumukedima,,Sub Post Office,Delivery,North Eastern,Dimapur,Nagaland,North Eastern,Dimapur,Nagaland,India,797103
Khopoanaula,,Branch Post Office,Delivery,North Eastern,Dimapur,Nagaland,North Eastern,Chumukedima,Nagaland,India,797103
Moaikam,,Branch Post Office,Delivery,North Eastern,Dimapur,Nagaland,North Eastern,Chumukedima,Nagaland,India,797103
Nihekhu,,Branch Post Office,Delivery,North Eastern,Dimapur,Nagaland,North Eastern,Chumukedima,Nagaland,India,797103
P C College,,Branch Post Office,Delivery,North Eastern,Dimapur,Nagaland,North Eastern,Chumukedima,Nagaland,India,797103
Pimla,,Branch Post Office,Delivery,North Eastern,Dimapur,Nagaland,North Eastern,Chumukedima,Nagaland,India,797103
Tenyiphe,,Branch Post Office,Delivery,North Eastern,Dimapur,Nagaland,North Eastern,Chumukedima,Nagaland,India,797103
Chetheba,,Branch Post Office,Delivery,North Eastern,Phek,Nagaland,North Eastern,Chozuba,Nagaland,India,797104
Chozuba,,Sub Post Office,Delivery,North Eastern,Phek,Nagaland,North Eastern,Phek,Nagaland,India,797104
Dzulhami,,Branch Post Office,Delivery,North Eastern,Phek,Nagaland,North Eastern,Chozuba,Nagaland,India,797104
Kilomi,,Branch Post Office,Delivery,North Eastern,Phek,Nagaland,North Eastern,Chozuba,Nagaland,India,797104
Phugwu,,Branch Post Office,Delivery,North Eastern,Phek,Nagaland,North Eastern,Chozuba,Nagaland,India,797104
Runguzumi,,Branch Post Office,Delivery,North Eastern,Phek,Nagaland,North Eastern,Chozoba,Nagaland,India,797104
Thenizumi,,Branch Post Office,Delivery,North Eastern,Phek,Nagaland,North Eastern,Chozuba,Nagaland,India,797104
Thvophisumi,,Branch Post Office,Delivery,North Eastern,Phek,Nagaland,North Eastern,Chozuba,Nagaland,India,797104
Yaribami,,Branch Post Office,Delivery,North Eastern,Phek,Nagaland,North Eastern,Chozuba,Nagaland,India,797104
Botsa,,Branch Post Office,Delivery,North Eastern,Kohima,Nagaland,North Eastern,Chiechama,Nagaland,India,797105
Chiechama,,Sub Post Office,Delivery,North Eastern,Kohima,Nagaland,North Eastern,Kohima,Nagaland,India,797105
Chiephobozou,,Branch Post Office,Delivery,North Eastern,Kohima,Nagaland,North Eastern,Chiechama,Nagaland,India,797105
Mishilimi,,Branch Post Office,Delivery,North Eastern,Kohima,Nagaland,North Eastern,Chiechama,Nagaland,India,797105
Tuophema,,Branch Post Office,Delivery,North Eastern,Kohima,Nagaland,North Eastern,Chiechama,Nagaland,India,797105
Zhadima,,Branch Post Office,Delivery,North Eastern,Kohima,Nagaland,North Eastern,Chiechama,Nagaland,India,797105
Agri College,,Branch Post Office,Delivery,North Eastern,Dimapur,Nagaland,North Eastern,Medziphema,Nagaland,India,797106
Jharnapani,,Branch Post Office,Delivery,North Eastern,Dimapur,Nagaland,North Eastern,Medziphema,Nagaland,India,797106
Khaibung,,Branch Post Office,Delivery,North Eastern,Dimapur,Nagaland,North Eastern,Medziphema,Nagaland,India,797106
Maova,,Branch Post Office,Delivery,North Eastern,Dimapur,Nagaland,North Eastern,Medziphema,Nagaland,India,797106
Medziphema,,Sub Post Office,Delivery,North Eastern,Dimapur,Nagaland,North Eastern,Dimapur,Nagaland,India,797106
Molvom,,Branch Post Office,Delivery,North Eastern,Dimapur,Nagaland,North Eastern,Medziphema,Nagaland,India,797106
Pherima,,Branch Post Office,Delivery,North Eastern,Dimapur,Nagaland,North Eastern,Medziphema,Nagaland,India,797106
Piphima,,Branch Post Office,Delivery,North Eastern,Dimapur,Nagaland,North Eastern,Medziphema,Nagaland,India,797106
Punglwa,,Branch Post Office,Delivery,North Eastern,Dimapur,Nagaland,North Eastern,Medziphema,Nagaland,India,797106
Sirhima,,Branch Post Office,Delivery,North Eastern,Dimapur,Nagaland,North Eastern,Medziphema,Nagaland,India,797106
Khezhakeno,,Branch Post Office,Delivery,North Eastern,Phek,Nagaland,North Eastern,Pfutsero,Nagaland,India,797107
Kikruma,,Branch Post Office,Delivery,North Eastern,Phek,Nagaland,North Eastern,Pfutsero,Nagaland,India,797107
Mesolumi,,Branch Post Office,Delivery,North Eastern,Phek,Nagaland,North Eastern,Pfutsero,Nagaland,India,797107
Pfutsero,,Sub Post Office,Delivery,North Eastern,Phek,Nagaland,North Eastern,Phek,Nagaland,India,797107
Phesachuduma,,Branch Post Office,Delivery,North Eastern,Phek,Nagaland,North Eastern,Pfutsero,Nagaland,India,797107
Porba,,Branch Post Office,Delivery,North Eastern,Phek,Nagaland,North Eastern,Pfutsero,Nagaland,India,797107
Sakraba,,Branch Post Office,Delivery,North Eastern,Phek,Nagaland,North Eastern,Pfutsero,Nagaland,India,797107
Tekhouba,,Branch Post Office,Delivery,North Eastern,Phek,Nagaland,North Eastern,Pfutsero,Nagaland,India,797107
Thipuzumi,,Branch Post Office,Delivery,North Eastern,Phek,Nagaland,North Eastern,Pfutsero,Nagaland,India,797107
Zaketsa,,Branch Post Office,Delivery,North Eastern,Phek,Nagaland,North Eastern,Pfutsero,Nagaland,India,797107
Zavame,,Branch Post Office,Delivery,North Eastern,Phek,Nagaland,North Eastern,Phek,Nagaland,India,797107
Zhamai,,Branch Post Office,Delivery,North Eastern,Phek,Nagaland,North Eastern,Pfutsero,Nagaland,India,797107
Ketsapo,,Branch Post Office,Delivery,North Eastern,Phek,Nagaland,North Eastern,Phek,Nagaland,India,797108
Khuzami,,Branch Post Office,Delivery,North Eastern,Phek,Nagaland,North Eastern,Phek Sadar,Nagaland,India,797108
Losami,,Branch Post Office,Delivery,North Eastern,Phek,Nagaland,North Eastern,Phek,Nagaland,India,797108
Luzaphuhu,,Branch Post Office,Delivery,North Eastern,Phek,Nagaland,North Eastern,Phek Sadar,Nagaland,India,797108
Old Phek,,Branch Post Office,Delivery,North Eastern,Phek,Nagaland,North Eastern,Phek,Nagaland,India,797108
Phek,,Sub Post Office,Delivery,North Eastern,Phek,Nagaland,North Eastern,Phek,Nagaland,India,797108
Asukika,,Branch Post Office,Delivery,North Eastern,Kohima,Nagaland,North Eastern,Tseminyu,Nagaland,India,797109
Chatashi,,Branch Post Office,Delivery,North Eastern,Kohima,Nagaland,North Eastern,Tseminyu,Nagaland,India,797109
Ghathashi,,Branch Post Office,Delivery,North Eastern,Zunhebotto,Nagaland,North Eastern,Ghathashi,Nagaland,India,797109
Kontsunyu,,Branch Post Office,Delivery,North Eastern,Kohima,Nagaland,North Eastern,Tseminyu,Nagaland,India,797109
Lazami,,Branch Post Office,Delivery,North Eastern,Kohima,Nagaland,North Eastern,Tseminyu,Nagaland,India,797109
Nisenyu,,Branch Post Office,Delivery,North Eastern,Kohima,Nagaland,North Eastern,Tseminyu,Nagaland,India,797109
Nyishunyu,,Branch Post Office,Delivery,North Eastern,Kohima,Nagaland,North Eastern,Tseminyu,Nagaland,India,797109
Phenshunyu,,Branch Post Office,Delivery,North Eastern,Kohima,Nagaland,North Eastern,Tseminyu,Nagaland,India,797109
Phenwhenyu,,Branch Post Office,Delivery,North Eastern,Kohima,Nagaland,North Eastern,Tseminyu,Nagaland,India,797109
Pughoboto,,Branch Post Office,Delivery,North Eastern,Kohima,Nagaland,North Eastern,Kohima,Nagaland,India,797109
Sendenyu,,Branch Post Office,Delivery,North Eastern,Kohima,Nagaland,North Eastern,Tseminyu,Nagaland,India,797109
Tesophenyu,,Branch Post Office,Delivery,North Eastern,Kohima,Nagaland,North Eastern,Tseminyu,Nagaland,India,797109
Tseminyu,,Sub Post Office,Delivery,North Eastern,Kohima,Nagaland,North Eastern,Kohima,Nagaland,India,797109
Tseminyu Old Town,,Branch Post Office,Delivery,North Eastern,Kohima,Nagaland,North Eastern,Tseminyu,Nagaland,India,797109
Tsosesunyu,,Branch Post Office,Delivery,North Eastern,Kohima,Nagaland,North Eastern,Tseminyu,Nagaland,India,797109
Zephenyu,,Branch Post Office,Delivery,North Eastern,Kohima,Nagaland,North Eastern,Tseminyu,Nagaland,India,797109
Athibung,,Branch Post Office,Delivery,North Eastern,Peren,Nagaland,North Eastern,Zalukie,Nagaland,India,797110
Bongkholong,,Branch Post Office,Delivery,North Eastern,Peren,Nagaland,North Eastern,Zalukie,Nagaland,India,797110
Gaili,,Branch Post Office,Delivery,North Eastern,Peren,Nagaland,North Eastern,Zalukie,Nagaland,India,797110
Jalukie 'B',,Branch Post Office,Delivery,North Eastern,Peren,Nagaland,North Eastern,Zalukie,Nagaland,India,797110
Khelma,,Branch Post Office,Delivery,North Eastern,Peren,Nagaland,North Eastern,Zalukie,Nagaland,India,797110
Lilen,,Branch Post Office,Delivery,North Eastern,Peren,Nagaland,North Eastern,Zalukie,Nagaland,India,797110
Mhainamtsi,,Branch Post Office,Delivery,North Eastern,Peren,Nagaland,North Eastern,Zalukie,Nagaland,India,797110
New Jalukie,,Branch Post Office,Delivery,North Eastern,Peren,Nagaland,North Eastern,Zalukie,Nagaland,India,797110
Samjiuram,,Branch Post Office,Delivery,North Eastern,Peren,Nagaland,North Eastern,Zalukie,Nagaland,India,797110
Zalukie,,Sub Post Office,Delivery,North Eastern,Peren,Nagaland,North Eastern,Peren,Nagaland,India,797110
Baghty,,Branch Post Office,Delivery,North Eastern,Wokha,Nagaland,North Eastern,Doyang H Project,Nagaland,India,797111
Bhandari,,Branch Post Office,Delivery,North Eastern,Wokha,Nagaland,North Eastern,Doyang H. Project,Nagaland,India,797111
Chukitong,,Branch Post Office,Delivery,North Eastern,Wokha,Nagaland,North Eastern,Wokha,Nagaland,India,797111
Elumnyu,,Branch Post Office,Delivery,North Eastern,Wokha,Nagaland,North Eastern,Wokha,Nagaland,India,797111
Englan,,Branch Post Office,Delivery,North Eastern,Wokha,Nagaland,North Eastern,Doyang H Project,Nagaland,India,797111
Humtsu,,Branch Post Office,Delivery,North Eastern,Wokha,Nagaland,North Eastern,Wokha,Nagaland,India,797111
Mekhukla,,Branch Post Office,Delivery,North Eastern,Wokha,Nagaland,North Eastern,Wokha,Nagaland,India,797111
N. Longidong,,Branch Post Office,Delivery,North Eastern,Wokha,Nagaland,North Eastern,Wokha,Nagaland,India,797111
Nyiro,,Branch Post Office,Delivery,North Eastern,Wokha,Nagaland,North Eastern,Wokha,Nagaland,India,797111
Pongitong,,Branch Post Office,Delivery,North Eastern,Wokha,Nagaland,North Eastern,Wokha,Nagaland,India,797111
Tsungtsutong,,Branch Post Office,Delivery,North Eastern,Wokha,Nagaland,North Eastern,Wokha,Nagaland,India,797111
Wokha,,Sub Post Office,Delivery,North Eastern,Wokha,Nagaland,North Eastern,Wokha,Nagaland,India,797111
Wokha Village,,Branch Post Office,Delivery,North Eastern,Wokha,Nagaland,North Eastern,Wokha,Nagaland,India,797111
Wozhru,,Branch Post Office,Delivery,North Eastern,Wokha,Nagaland,North Eastern,Wokha,Nagaland,India,797111
Yikhum,,Branch Post Office,Delivery,North Eastern,Wokha,Nagaland,North Eastern,Wokha,Nagaland,India,797111
Dimapur,,Sub Post Office,Delivery,North Eastern,Dimapur,Nagaland,North Eastern,Dimapur,Nagaland,India,797112
Doyapur,,Branch Post Office,Delivery,North Eastern,Dimapur,Nagaland,North Eastern,Dimapur Mdg,Nagaland,India,797112
Hening Kunglwa,,Branch Post Office,Delivery,North Eastern,Dimapur,Nagaland,North Eastern,Dimapur Mdg,Nagaland,India,797112
Jalukiekam,,Branch Post Office,Delivery,North Eastern,Dimapur,Nagaland,North Eastern,Dimapur Mdg,Nagaland,India,797112
Khermahal,,Branch Post Office,Non-Delivery,North Eastern,Dimapur,Nagaland,North Eastern,Dimapur Sadar,Nagaland,India,797112
Kuda,,Branch Post Office,Delivery,North Eastern,Dimapur,Nagaland,North Eastern,Dimapur Mdg,Nagaland,India,797112
Nuiland,,Branch Post Office,Delivery,North Eastern,Dimapur,Nagaland,North Eastern,Dimapur Mdg,Nagaland,India,797112
Phaipijan,,Branch Post Office,Delivery,North Eastern,Dimapur,Nagaland,North Eastern,Dimapur Mdg,Nagaland,India,797112
Ralan,,Branch Post Office,Delivery,North Eastern,Dimapur,Nagaland,North Eastern,Dimapur Mdg,Nagaland,India,797112
Razaphima,,Branch Post Office,Delivery,North Eastern,Dimapur,Nagaland,North Eastern,Dimapur Mdg,Nagaland,India,797112
Singrijan,,Branch Post Office,Delivery,North Eastern,Dimapur,Nagaland,North Eastern,Dimapur Mdg,Nagaland,India,797112
Yampha,,Branch Post Office,Delivery,North Eastern,Dimapur,Nagaland,North Eastern,Dimapur Mdg,Nagaland,India,797112
Duncan Basti,,Branch Post Office,Non-Delivery,North Eastern,Dimapur,Nagaland,North Eastern,Dimapur Sadar,Nagaland,India,797113
Industrial Estate,,Branch Post Office,Delivery,North Eastern,Dimapur,Nagaland,North Eastern,New Nepaligaon,Nagaland,India,797113
Lengrijan,,Branch Post Office,Delivery,North Eastern,Dimapur,Nagaland,North Eastern,Dimapur Sadar,Nagaland,India,797113
New Nepaligaon,,Sub Post Office,Delivery,North Eastern,Dimapur,Nagaland,North Eastern,Dimapur Sadar,Nagaland,India,797113
Nst Colony,,Branch Post Office,Non-Delivery,North Eastern,Dimapur,Nagaland,North Eastern,Dimapur Sadar,Nagaland,India,797113
Akhegwo,,Branch Post Office,Delivery,North Eastern,Phek,Nagaland,North Eastern,Meluri,Nagaland,India,797114
Hutsu,,Branch Post Office,Delivery,North Eastern,Phek,Nagaland,North Eastern,Meluri,Nagaland,India,797114
Lephori,,Branch Post Office,Delivery,North Eastern,Phek,Nagaland,North Eastern,Meluri,Nagaland,India,797114
Meluri,,Sub Post Office,Delivery,North Eastern,Phek,Nagaland,North Eastern,Phek,Nagaland,India,797114
Pungkhuri,,Branch Post Office,Delivery,North Eastern,Phek,Nagaland,North Eastern,Meluri,Nagaland,India,797114
Wazhiho,,Branch Post Office,Delivery,North Eastern,Phek,Nagaland,North Eastern,Meluri,Nagaland,India,797114
Aoyimti,,Branch Post Office,Delivery,North Eastern,Dimapur,Nagaland,North Eastern,Artc,Nagaland,India,797115
Artc,,Sub Post Office,Delivery,North Eastern,Dimapur,Nagaland,North Eastern,Dimapur,Nagaland,India,797115
Daroga Pathar,,Branch Post Office,Delivery,North Eastern,Dimapur,Nagaland,North Eastern,Artc,Nagaland,India,797115
Diphupar,,Branch Post Office,Delivery,North Eastern,Dimapur,Nagaland,North Eastern,Artc,Nagaland,India,797115
Eralibill,,Branch Post Office,Delivery,North Eastern,Dimapur,Nagaland,North Eastern,Artc,Nagaland,India,797115
Showba Old,,Branch Post Office,Delivery,North Eastern,Dimapur,Nagaland,North Eastern,Artc,Nagaland,India,797115
Suger Mill,,Branch Post Office,Delivery,North Eastern,Dimapur,Nagaland,North Eastern,Artc,Nagaland,India,797115
Sukhovi,,Branch Post Office,Delivery,North Eastern,Dimapur,Nagaland,North Eastern,Artc,Nagaland,India,797115
Dimapur Bazar,,Sub Post Office,Delivery,North Eastern,Dimapur,Nagaland,North Eastern,Chumukedima,Nagaland,India,797116
Khehekhu,,Branch Post Office,Delivery,North Eastern,Dimapur,Nagaland,North Eastern,Dimapur Bazar,Nagaland,India,797116
Kuhuboto,,Branch Post Office,Delivery,North Eastern,Dimapur,Nagaland,North Eastern,Dimapur Bazar,Nagaland,India,797116
Kushiabill,,Branch Post Office,Delivery,North Eastern,Dimapur,Nagaland,North Eastern,Dimapur Bazar,Nagaland,India,797116
Padampukhuri,,Branch Post Office,Delivery,North Eastern,Dimapur,Nagaland,North Eastern,Dimapur Bazar,Nagaland,India,797116
Vihokhu,,Branch Post Office,Delivery,North Eastern,Dimapur,Nagaland,North Eastern,Dimapur Bazar,Nagaland,India,797116
Circular Road,,Sub Post Office,Delivery,North Eastern,Dimapur,Nagaland,North Eastern,Dimapur Sadar,Nagaland,India,797117
Pwd Colony,,Branch Post Office,Non-Delivery,North Eastern,Dimapur,Nagaland,North Eastern,Dimapur Sadar,Nagaland,India,797117
Rangapahar,,Branch Post Office,Delivery,North Eastern,Dimapur,Nagaland,North Eastern,Dimapur Mdg,Nagaland,India,797117
Singal Village,,Branch Post Office,Delivery,North Eastern,Dimapur,Nagaland,North Eastern,Dimapur Mdg,Nagaland,India,797117
Thahekhu,,Branch Post Office,Delivery,North Eastern,Dimapur,Nagaland,North Eastern,Dimapur Mdg,Nagaland,India,797117
Zeliangrong,,Branch Post Office,Non-Delivery,North Eastern,Dimapur,Nagaland,North Eastern,Dimapur Sadar,Nagaland,India,797117
Signal Village,,Sub Post Office,Delivery,North Eastern,Dimapur,Nagaland,North Eastern,Dimapur,Nagaland,India,797118
P.R Hill,,Sub Post Office,Delivery,North Eastern,Kohima,Nagaland,North Eastern,kohima,Nagaland,India,797120
High School Junction,,Sub Post Office,Delivery,North Eastern,Kohima,Nagaland,North Eastern,Kohima Sadar,Nagaland,India,797121
Alichen,,Branch Post Office,Delivery,North Eastern,Mokokchung,Nagaland,North Eastern,Mokokchung,Nagaland,India,798601
Aolijen,,Branch Post Office,Delivery,North Eastern,Mokokchung,Nagaland,North Eastern,Mokokchung,Nagaland,India,798601
Arree Old,,Branch Post Office,Delivery,North Eastern,Mokokchung,Nagaland,North Eastern,Mokokchung,Nagaland,India,798601
Changki,,Branch Post Office,Delivery,North Eastern,Mokokchung,Nagaland,North Eastern,Mokokchung,Nagaland,India,798601
Chare,,Branch Post Office,Delivery,North Eastern,Mokokchung,Nagaland,North Eastern,Mokokchung,Nagaland,India,798601
Chungtia,,Branch Post Office,Delivery,North Eastern,Mokokchung,Nagaland,North Eastern,Mokokchung,Nagaland,India,798601
Fazl Ali College,,Branch Post Office,Delivery,North Eastern,Mokokchung,Nagaland,North Eastern,Ongpangkong,Nagaland,India,798601
Kubza,,Branch Post Office,Delivery,North Eastern,Mokokchung,Nagaland,North Eastern,Mokokchung,Nagaland,India,798601
Longkhum,,Branch Post Office,Delivery,North Eastern,Mokokchung,Nagaland,North Eastern,Mokokchung,Nagaland,India,798601
Longmisa,,Branch Post Office,Delivery,North Eastern,Mokokchung,Nagaland,North Eastern,Mokokchung,Nagaland,India,798601
Longsa,,Branch Post Office,Delivery,North Eastern,Mokokchung,Nagaland,North Eastern,Mokokchung,Nagaland,India,798601
Mangmentong,,Branch Post Office,Delivery,North Eastern,Mokokchung,Nagaland,North Eastern,Mokokchung,Nagaland,India,798601
Mokokchung,,Sub Post Office,Delivery,North Eastern,Mokokchung,Nagaland,North Eastern,Mokokchung,Nagaland,India,798601
Nst Colony,,Branch Post Office,Delivery,North Eastern,Mokokchung,Nagaland,North Eastern,Mokokchung,Nagaland,India,798601
S. E. Colony,,Branch Post Office,Delivery,North Eastern,Mokokchung,Nagaland,North Eastern,Mokokchung,Nagaland,India,798601
Tronger,,Branch Post Office,Delivery,North Eastern,Mokokchung,Nagaland,North Eastern,Mokokchung,Nagaland,India,798601
Ungma,,Branch Post Office,Delivery,North Eastern,Mokokchung,Nagaland,North Eastern,Mokokchung,Nagaland,India,798601
V. K. Town,,Branch Post Office,Delivery,North Eastern,Mokokchung,Nagaland,North Eastern,Mokokchung,Nagaland,India,798601
Namsa,,Branch Post Office,Delivery,North Eastern,Mon,Nagaland,North Eastern,Tizit,Nagaland,India,798602
Tizit,,Sub Post Office,Delivery,North Eastern,Mon,Nagaland,North Eastern,Mon,Nagaland,India,798602
Yannu,,Branch Post Office,Delivery,North Eastern,Mon,Nagaland,North Eastern,Tizit,Nagaland,India,798602
Zaboka,,Branch Post Office,Delivery,North Eastern,Mon,Nagaland,North Eastern,Tizit,Nagaland,India,798602
Zangkham,,Branch Post Office,Delivery,North Eastern,Mon,Nagaland,North Eastern,Tizit,Nagaland,India,798602
Angphang,,Branch Post Office,Delivery,North Eastern,Mon,Nagaland,North Eastern,Champang,Nagaland,India,798603
Champang,,Sub Post Office,Delivery,North Eastern,Mon,Nagaland,North Eastern,Mon,Nagaland,India,798603
Chengloisho,,Branch Post Office,Delivery,North Eastern,Mon,Nagaland,North Eastern,Champang,Nagaland,India,798603
Chenwetnyu,,Branch Post Office,Delivery,North Eastern,Mon,Nagaland,North Eastern,Champang,Nagaland,India,798603
Chingkao,,Branch Post Office,Delivery,North Eastern,Mon,Nagaland,North Eastern,Champang,Nagaland,India,798603
Chinglong,,Branch Post Office,Delivery,North Eastern,Mon,Nagaland,North Eastern,Champang,Nagaland,India,798603
Jakpang,,Branch Post Office,Delivery,North Eastern,Mon,Nagaland,North Eastern,Champang,Nagaland,India,798603
Longching,,Branch Post Office,Delivery,North Eastern,Mon,Nagaland,North Eastern,Champang,Nagaland,India,798603
Monyakshu,,Branch Post Office,Delivery,North Eastern,Mon,Nagaland,North Eastern,Champang,Nagaland,India,798603
Pessao,,Branch Post Office,Delivery,North Eastern,Mon,Nagaland,North Eastern,Champang,Nagaland,India,798603
Tobu,,Branch Post Office,Delivery,North Eastern,Mon,Nagaland,North Eastern,Champang,Nagaland,India,798603
Ukha,,Branch Post Office,Delivery,North Eastern,Mon,Nagaland,North Eastern,Champang,Nagaland,India,798603
Alungkima,,Branch Post Office,Delivery,North Eastern,Mokokchung,Nagaland,North Eastern,Mongkholemba,Nagaland,India,798604
Alungtaki,,Branch Post Office,Delivery,North Eastern,Mokokchung,Nagaland,North Eastern,Mongkholemba,Nagaland,India,798604
Chungtia Yimsen,,Branch Post Office,Delivery,North Eastern,Mokokchung,Nagaland,North Eastern,Mongkholemba,Nagaland,India,798604
Khari,,Branch Post Office,Delivery,North Eastern,Mokokchung,Nagaland,North Eastern,Mongkholemba,Nagaland,India,798604
Longchem,,Branch Post Office,Delivery,North Eastern,Mokokchung,Nagaland,North Eastern,Mongkholemba,Nagaland,India,798604
Longnak,,Branch Post Office,Delivery,North Eastern,Mokokchung,Nagaland,North Eastern,Mongkholemba,Nagaland,India,798604
Mongchen,,Branch Post Office,Delivery,North Eastern,Mokokchung,Nagaland,North Eastern,Mongkholemba,Nagaland,India,798604
Mongkholemba,,Sub Post Office,Delivery,North Eastern,Mokokchung,Nagaland,North Eastern,Mokokchung,Nagaland,India,798604
Waromung,,Branch Post Office,Delivery,North Eastern,Mokokchung,Nagaland,North Eastern,Mongkholemba,Nagaland,India,798604
Amahatore,,Branch Post Office,Delivery,North Eastern,Kiphire,Nagaland,North Eastern,Kiphire,Nagaland,India,798611
Anatongere,,Branch Post Office,Delivery,North Eastern,Kiphire,Nagaland,North Eastern,Kiphire,Nagaland,India,798611
Kiphire,,Sub Post Office,Delivery,North Eastern,Kiphire,Nagaland,North Eastern,Kiphire,Nagaland,India,798611
Kisethong,,Branch Post Office,Delivery,North Eastern,Kiphire,Nagaland,North Eastern,Kiphire,Nagaland,India,798611
Longmatra,,Branch Post Office,Delivery,North Eastern,Kiphire,Nagaland,North Eastern,Kiphire,Nagaland,India,798611
Moya,,Branch Post Office,Delivery,North Eastern,Kiphire,Nagaland,North Eastern,Kiphire,Nagaland,India,798611
Phalonger,,Branch Post Office,Delivery,North Eastern,Kiphire,Nagaland,North Eastern,Kiphire,Nagaland,India,798611
Pokhpur,,Branch Post Office,Delivery,North Eastern,Kiphire,Nagaland,North Eastern,Kiphire,Nagaland,India,798611
Pungro,,Branch Post Office,Delivery,North Eastern,Kiphire,Nagaland,North Eastern,Kiphire,Nagaland,India,798611
Seyochang,,Branch Post Office,Delivery,North Eastern,Kiphire,Nagaland,North Eastern,Kiphire,Nagaland,India,798611
Sikur,,Branch Post Office,Delivery,North Eastern,Kiphire,Nagaland,North Eastern,Kiphire,Nagaland,India,798611
Singrup,,Branch Post Office,Delivery,North Eastern,Kiphire,Nagaland,North Eastern,Kiphire,Nagaland,India,798611
Sitimi,,Branch Post Office,Delivery,North Eastern,Kiphire,Nagaland,North Eastern,Kiphire,Nagaland,India,798611
Chessore,,Branch Post Office,Delivery,North Eastern,Tuensang,Nagaland,North Eastern,Tuensang,Nagaland,India,798612
Chingmei,,Branch Post Office,Delivery,North Eastern,Tuensang,Nagaland,North Eastern,Tuensang,Nagaland,India,798612
Huker,,Branch Post Office,Delivery,North Eastern,Tuensang,Nagaland,North Eastern,Tuensang,Nagaland,India,798612
Kuthur,,Branch Post Office,Delivery,North Eastern,Tuensang,Nagaland,North Eastern,Tuensang,Nagaland,India,798612
Panso,,Branch Post Office,Delivery,North Eastern,Tuensang,Nagaland,North Eastern,Tuensang,Nagaland,India,798612
Sangsanyu,,Branch Post Office,Delivery,North Eastern,Tuensang,Nagaland,North Eastern,Tuensang,Nagaland,India,798612
Saramati,,Branch Post Office,Delivery,North Eastern,Tuensang,Nagaland,North Eastern,Tuensang,Nagaland,India,798612
Shamator,,Branch Post Office,Delivery,North Eastern,Tuensang,Nagaland,North Eastern,Tuensang,Nagaland,India,798612
Shampur,,Branch Post Office,Delivery,North Eastern,Tuensang,Nagaland,North Eastern,Tuensang,Nagaland,India,798612
Shiponger,,Branch Post Office,Delivery,North Eastern,Tuensang,Nagaland,North Eastern,Tuensang,Nagaland,India,798612
Sotokur,,Branch Post Office,Delivery,North Eastern,Tuensang,Nagaland,North Eastern,Tuensang,Nagaland,India,798612
Thonokhunyu,,Branch Post Office,Delivery,North Eastern,Tuensang,Nagaland,North Eastern,Tuensang,Nagaland,India,798612
Tuensang,,Sub Post Office,Delivery,North Eastern,Tuensang,Nagaland,North Eastern,Tuensang,Nagaland,India,798612
Tuensang Village,,Branch Post Office,Delivery,North Eastern,Tuensang,Nagaland,North Eastern,Tuensang,Nagaland,India,798612
Chantongia,,Sub Post Office,Delivery,North Eastern,Mokokchung,Nagaland,North Eastern,Changtongya,Nagaland,India,798613
Merangkong,,Branch Post Office,Delivery,North Eastern,Mokokchung,Nagaland,North Eastern,Changtogia,Nagaland,India,798613
Phangsang,,Branch Post Office,Delivery,North Eastern,Mokokchung,Nagaland,North Eastern,Chuchuyimlang,Nagaland,India,798613
Yaongyimsen,,Branch Post Office,Delivery,North Eastern,Mokokchung,Nagaland,North Eastern,Changtogia,Nagaland,India,798613
Chuchuyimlang,,Sub Post Office,Delivery,North Eastern,Mokokchung,Nagaland,North Eastern,Mokokchung,Nagaland,India,798614
Longkong,,Branch Post Office,Delivery,North Eastern,Mokokchung,Nagaland,North Eastern,Chuchuyimlang,Nagaland,India,798614
Mongsenyimti,,Branch Post Office,Delivery,North Eastern,Mokokchung,Nagaland,North Eastern,Chuchuyimlang,Nagaland,India,798614
Salulamang,,Branch Post Office,Delivery,North Eastern,Mokokchung,Nagaland,North Eastern,Chuchuyimlang,Nagaland,India,798614
Ungar,,Branch Post Office,Delivery,North Eastern,Mokokchung,Nagaland,North Eastern,Chuchulang,Nagaland,India,798614
Yisemyong,,Branch Post Office,Delivery,North Eastern,Mokokchung,Nagaland,North Eastern,Chuchuyimlang,Nagaland,India,798614
Impur,,Sub Post Office,Delivery,North Eastern,Mokokchung,Nagaland,North Eastern,Mokokchung,Nagaland,India,798615
Kubulong,,Branch Post Office,Delivery,North Eastern,Mokokchung,Nagaland,North Eastern,Impur,Nagaland,India,798615
Longchang,,Branch Post Office,Delivery,North Eastern,Mokokchung,Nagaland,North Eastern,Impur,Nagaland,India,798615
Sungratsu,,Branch Post Office,Delivery,North Eastern,Mokokchung,Nagaland,North Eastern,Impur,Nagaland,India,798615
Angangba,,Branch Post Office,Delivery,North Eastern,Tuensang,Nagaland,North Eastern,Longkhim,Nagaland,India,798616
Chimonger,,Branch Post Office,Delivery,North Eastern,Tuensang,Nagaland,North Eastern,Lonkhim,Nagaland,India,798616
Chungtore,,Branch Post Office,Delivery,North Eastern,Tuensang,Nagaland,North Eastern,Longkhim,Nagaland,India,798616
Kongsang,,Branch Post Office,Delivery,North Eastern,Tuensang,Nagaland,North Eastern,Longkhim,Nagaland,India,798616
Longkhim,,Sub Post Office,Delivery,North Eastern,Tuensang,Nagaland,North Eastern,Tuensang,Nagaland,India,798616
Noksen,,Branch Post Office,Delivery,North Eastern,Tuensang,Nagaland,North Eastern,Longkhim,Nagaland,India,798616
Yangli,,Branch Post Office,Delivery,North Eastern,Tuensang,Nagaland,North Eastern,Longkhim,Nagaland,India,798616
Khensa,,Branch Post Office,Delivery,North Eastern,Mokokchung,Nagaland,North Eastern,Ongpang Kong,Nagaland,India,798617
Opangkong,,Sub Post Office,Delivery,North Eastern,Mokokchung,Nagaland,North Eastern,Mokokchung,Nagaland,India,798617
Asangma,,Branch Post Office,Delivery,North Eastern,Mokokchung,Nagaland,North Eastern,Changtongya,Nagaland,India,798618
Barakangtsung,,Branch Post Office,Delivery,North Eastern,Mokokchung,Nagaland,North Eastern,Tuli,Nagaland,India,798618
Luyang Valley,,Branch Post Office,Delivery,North Eastern,Mokokchung,Nagaland,North Eastern,Tuli,Nagaland,India,798618
Molungkhimong,,Branch Post Office,Delivery,North Eastern,Mokokchung,Nagaland,North Eastern,Tuli,Nagaland,India,798618
Molungyimsen,,Branch Post Office,Delivery,North Eastern,Mokokchung,Nagaland,North Eastern,Tuli,Nagaland,India,798618
Tamlu,,Branch Post Office,Delivery,North Eastern,Mokokchung,Nagaland,North Eastern,Tuli,Nagaland,India,798618
Tuli,,Sub Post Office,Delivery,North Eastern,Mokokchung,Nagaland,North Eastern,Mokokchung,Nagaland,India,798618
Wamaken,,Branch Post Office,Delivery,North Eastern,Mokokchung,Nagaland,North Eastern,Tuli,Nagaland,India,798618
Aizuto,,Branch Post Office,Delivery,North Eastern,Zunhebotto,Nagaland,North Eastern,Akuluto,Nagaland,India,798619
Akuhaito,,Branch Post Office,Delivery,North Eastern,Zunhebotto,Nagaland,North Eastern,Atoizu,Nagaland,India,798619
Akuluto,,Sub Post Office,Delivery,North Eastern,Zunhebotto,Nagaland,North Eastern,Zunheboto,Nagaland,India,798619
Asukuto,,Branch Post Office,Delivery,North Eastern,Zunhebotto,Nagaland,North Eastern,Akuluto,Nagaland,India,798619
Aghunato,,Branch Post Office,Delivery,North Eastern,Zunhebotto,Nagaland,North Eastern,Aghunato,Nagaland,India,798620
Asukhomi,,Branch Post Office,Delivery,North Eastern,Zunhebotto,Nagaland,North Eastern,Zunheboto,Nagaland,India,798620
Asuto,,Branch Post Office,Delivery,North Eastern,Zunhebotto,Nagaland,North Eastern,Zunheboto,Nagaland,India,798620
Atoizu,,Branch Post Office,Delivery,North Eastern,Zunhebotto,Nagaland,North Eastern,Atoizu,Nagaland,India,798620
Hosephu,,Branch Post Office,Delivery,North Eastern,Zunhebotto,Nagaland,North Eastern,Zunheboto,Nagaland,India,798620
Kichilimi,,Branch Post Office,Delivery,North Eastern,Zunhebotto,Nagaland,North Eastern,Ghathashi,Nagaland,India,798620
Phisami,,Branch Post Office,Delivery,North Eastern,Zunhebotto,Nagaland,North Eastern,Zunheboto,Nagaland,India,798620
Saghemi,,Branch Post Office,Delivery,North Eastern,Zunhebotto,Nagaland,North Eastern,Zunheboto,Nagaland,India,798620
Satakha,,Branch Post Office,Delivery,North Eastern,Zunhebotto,Nagaland,North Eastern,Zunheboto,Nagaland,India,798620
Satami,,Branch Post Office,Delivery,North Eastern,Zunhebotto,Nagaland,North Eastern,Zunheboto,Nagaland,India,798620
Satoi,,Branch Post Office,Delivery,North Eastern,Zunhebotto,Nagaland,North Eastern,Zunheboto,Nagaland,India,798620
Suruhuto,,Branch Post Office,Delivery,North Eastern,Zunhebotto,Nagaland,North Eastern,Zunheboto,Nagaland,India,798620
Surumi,,Branch Post Office,Delivery,North Eastern,Zunhebotto,Nagaland,North Eastern,Zunheboto,Nagaland,India,798620
Tokiye,,Branch Post Office,Delivery,North Eastern,Zunhebotto,Nagaland,North Eastern,Zunheboto,Nagaland,India,798620
Zunheboto,,Sub Post Office,Delivery,North Eastern,Zunhebotto,Nagaland,North Eastern,Zunheboto,Nagaland,India,798620
Chui,,Branch Post Office,Delivery,North Eastern,Mon,Nagaland,North Eastern,Mon,Nagaland,India,798621
Longpong Senghe,,Branch Post Office,Delivery,North Eastern,Mon,Nagaland,North Eastern,Mon,Nagaland,India,798621
Longwa,,Branch Post Office,Delivery,North Eastern,Mon,Nagaland,North Eastern,Mon,Nagaland,India,798621
Mon,,Sub Post Office,Delivery,North Eastern,Mon,Nagaland,North Eastern,Mon,Nagaland,India,798621
Pongkong,,Branch Post Office,Delivery,North Eastern,Mon,Nagaland,North Eastern,Mon,Nagaland,India,798621
Singha Chingnyu,,Branch Post Office,Delivery,North Eastern,Mon,Nagaland,North Eastern,Mon,Nagaland,India,798621
Tang,,Branch Post Office,Delivery,North Eastern,Mon,Nagaland,North Eastern,Mon,Nagaland,India,798621
Totak,,Branch Post Office,Delivery,North Eastern,Mon,Nagaland,North Eastern,Mon,Nagaland,India,798621
Waunching,,Branch Post Office,Delivery,North Eastern,Mon,Nagaland,North Eastern,Mon,Nagaland,India,798621
Baranamsang,,Branch Post Office,Delivery,North Eastern,Mon,Nagaland,North Eastern,Naginimora,Nagaland,India,798622
Kongon,,Branch Post Office,Delivery,North Eastern,Mon,Nagaland,North Eastern,Naginimora,Nagaland,India,798622
Naginimora,,Sub Post Office,Delivery,North Eastern,Mon,Nagaland,North Eastern,Mon,Nagaland,India,798622
Wakching,,Branch Post Office,Delivery,North Eastern,Mon,Nagaland,North Eastern,Naginimora,Nagaland,India,798622
Paper Nagar,,Sub Post Office,Delivery,North Eastern,Mokokchung,Nagaland,North Eastern,Tuli,Nagaland,India,798623
Hukpang,,Branch Post Office,Delivery,North Eastern,Longleng,Nagaland,North Eastern,Longleng,Nagaland,India,798625
Longleng,,Sub Post Office,Delivery,North Eastern,Longleng,Nagaland,North Eastern,Longleng,Nagaland,India,798625
Nian,,Branch Post Office,Delivery,North Eastern,Longleng,Nagaland,North Eastern,Longleng,Nagaland,India,798625
Phomching,,Branch Post Office,Delivery,North Eastern,Longleng,Nagaland,North Eastern,Longleng,Nagaland,India,798625
Sakchi,,Branch Post Office,Delivery,North Eastern,Longleng,Nagaland,North Eastern,Longleng,Nagaland,India,798625
Yachem,,Branch Post Office,Delivery,North Eastern,Longleng,Nagaland,North Eastern,Longleng,Nagaland,India,798625
Yongyak,,Branch Post Office,Delivery,North Eastern,Longleng,Nagaland,North Eastern,Longleng,Nagaland,India,798625
Choklangan,,Branch Post Office,Delivery,North Eastern,Tuensang,Nagaland,North Eastern,Noklak,Nagaland,India,798626
Nokhu,,Branch Post Office,Delivery,North Eastern,Tuensang,Nagaland,North Eastern,Noklak,Nagaland,India,798626
Noklak,,Sub Post Office,Delivery,North Eastern,Tuensang,Nagaland,North Eastern,Tuensang,Nagaland,India,798626
Pangsha,,Branch Post Office,Delivery,North Eastern,Tuensang,Nagaland,North Eastern,Noklak,Nagaland,India,798626
Pessu,,Branch Post Office,Delivery,North Eastern,Tuensang,Nagaland,North Eastern,Noklak,Nagaland,India,798626
Sanglao,,Branch Post Office,Delivery,North Eastern,Tuensang,Nagaland,North Eastern,Noklak,Nagaland,India,798626
Lumami,,Sub Post Office,Delivery,North Eastern,Zunhebotto,Nagaland,North Eastern,Akuluto,Nagaland,India,798627
