Name,Description,BranchType,DeliveryStatus,Circle,District,Division,Region,Block,State,Country,Pincode
Pondicherry,,Head Post Office,Delivery,Tamilnadu,Pondicherry,Pondicherry,Chennai Region,Pondicherry,Pondicherry,India,605001
Sri Aurobindo Ashram,,Sub Post Office,Delivery,Tamilnadu,Pondicherry,Pondicherry,Chennai Region,Pondicherry,Pondicherry,India,605002
Muthialpet,,Sub Post Office,Delivery,Tamilnadu,Pondicherry,Pondicherry,Chennai Region,Pondicherry ,Pondicherry,India,605003
Mouroungapakkam,,Branch Post Office,Non-Delivery,Tamilnadu,Pondicherry,Pondicherry,Chennai Region,Pondicherry,Pondicherry,India,605004
Mudaliarpet,,Sub Post Office,Delivery,Tamilnadu,Pondicherry,Pondicherry,Chennai Region,Pondicherry ,Pondicherry,India,605004
Thengaithittu,,Branch Post Office,Non-Delivery,Tamilnadu,Pondicherry,Pondicherry,Chennai Region,Pondicherry,Pondicherry,India,605004
Nellithoppe,,Sub Post Office,Delivery,Tamilnadu,Pondicherry,Pondicherry,Chennai Region,Pondicherry ,Pondicherry,India,605005
Dhanvantry Nagar,,Sub Post Office,Delivery,Tamilnadu,Pondicherry,Pondicherry,Chennai Region,Pondicherry,Pondicherry,India,605006
Abishegapakkam,,Branch Post Office,Delivery,Tamilnadu,Pondicherry,Pondicherry,Chennai Region,Pondicherry,Pondicherry,India,605007
Ariyankuppam,,Sub Post Office,Delivery,Tamilnadu,Pondicherry,Pondicherry,Chennai Region,Pondicherry,Pondicherry,India,605007
Karikalambakkam,,Branch Post Office,Delivery,Tamilnadu,Pondicherry,Pondicherry,Chennai Region,Pondicherry,Pondicherry,India,605007
Mathalapattu,,Branch Post Office,Delivery,Tamilnadu,Cuddalore,Pondicherry,Chennai Region,Cuddalore,Tamil Nadu,India,605007
Nallavadu,,Branch Post Office,Delivery,Tamilnadu,Pondicherry,Pondicherry,Chennai Region,Pondicherry,Pondicherry,India,605007
Pooranankuppam,,Branch Post Office,Delivery,Tamilnadu,Pondicherry,Pondicherry,Chennai Region,Pondicherry,Pondicherry,India,605007
Singirikoil,,Branch Post Office,Delivery,Tamilnadu,Cuddalore,Pondicherry,Chennai Region,Cuddalore,Tamil Nadu,India,605007
Thimmanaickenpalayam,,Branch Post Office,Delivery,Tamilnadu,Pondicherry,Pondicherry,Chennai Region,Pondicherry,Pondicherry,India,605007
Veerampattinam,,Branch Post Office,Non-Delivery,Tamilnadu,Pondicherry,Pondicherry,Chennai Region,Pondicherry,Pondicherry,India,605007
Lawspet,,Sub Post Office,Delivery,Tamilnadu,Pondicherry,Pondicherry,Chennai Region,Pondicherry,Pondicherry,India,605008
Mottoupalayam,,Branch Post Office,Non-Delivery,Tamilnadu,Pondicherry,Pondicherry,Chennai Region,Pondicherry,Pondicherry,India,605009
Moutrepaleam,,Branch Post Office,Non-Delivery,Tamilnadu,Pondicherry,Pondicherry,Chennai Region,Pondicherry,Pondicherry,India,605009
Thattanchavady,,Sub Post Office,Delivery,Tamilnadu,Pondicherry,Pondicherry,Chennai Region,Pondicherry,Pondicherry,India,605009
Vimacoundinpaleam,,Branch Post Office,Non-Delivery,Tamilnadu,Pondicherry,Pondicherry,Chennai Region,Pondicherry,Pondicherry,India,605009
Ozhugarai,,Branch Post Office,Non-Delivery,Tamilnadu,Pondicherry,Pondicherry,Chennai Region,Pondicherry,Pondicherry,India,605010
Reddiyarpalayam,,Sub Post Office,Delivery,Tamilnadu,Pondicherry,Pondicherry,Chennai Region,Pondicherry,Pondicherry,India,605010
Venkata Nagar,,Sub Post Office,Delivery,Tamilnadu,Pondicherry,Pondicherry,Chennai Region,Pondicherry,Pondicherry,India,605011
Padmini Nagar S.O,Padmini Nagar S.O,Branch Post Office,Delivery,Goa,Pondicherry,Podicherry,Podicherry,Podicherry,Pondicherry,India,605012
Saram(Py),,Sub Post Office,Delivery,Tamilnadu,Pondicherry,Pondicherry,Chennai Region,Pondicherry,Pondicherry,India,605013
Calapet,,Branch Post Office,Non-Delivery,Tamilnadu,Pondicherry,Pondicherry,Chennai Region,Pondicherry,Pondicherry,India,605014
Kaluperumbakkam,,Branch Post Office,Delivery,Tamilnadu,Villupuram,Pondicherry,Chennai Region,Vanur,Tamil Nadu,India,605014
Kilpudupattu,,Branch Post Office,Delivery,Tamilnadu,Villupuram,Pondicherry,Chennai Region,Villupuram,Tamil Nadu,India,605014
Pondicherry University,,Sub Post Office,Delivery,Tamilnadu,Pondicherry,Pondicherry,Chennai Region,Pondicherry,Pondicherry,India,605014
Auroville,,Sub Post Office,Delivery,Tamilnadu,Villupuram,Pondicherry,Chennai Region,Vanur,Tamil Nadu,India,605101
Kuilapalayam,,Branch Post Office,Non-Delivery,Tamilnadu,Pondicherry,Pondicherry,Chennai Region,Pondicherry,Pondicherry,India,605101
Morattandi,,Branch Post Office,Non-Delivery,Tamilnadu,Villupuram,Pondicherry,Chennai Region,Villupuram,Tamil Nadu,India,605101
Ariyur,,Branch Post Office,Delivery,Tamilnadu,Pondicherry,Pondicherry,Chennai Region,Pondicherry,Pondicherry,India,605102
Chinnababusamudram,,Branch Post Office,Delivery,Tamilnadu,Villupuram,Pondicherry,Chennai Region,Villupuram,Tamil Nadu,India,605102
Kandamangalam,,Sub Post Office,Delivery,Tamilnadu,Villupuram,Pondicherry,Chennai Region,Villupuram,Tamil Nadu,India,605102
Pallithennal,,Branch Post Office,Delivery,Tamilnadu,Villupuram,Pondicherry,Chennai Region,Villupuram,Tamil Nadu,India,605102
Periyababusamudram,,Branch Post Office,Delivery,Tamilnadu,Villupuram,Pondicherry,Chennai Region,Villupuram,Tamil Nadu,India,605102
Thiruvandarkoil,,Branch Post Office,Delivery,Tamilnadu,Pondicherry,Pondicherry,Chennai Region,Pondicherry,Pondicherry,India,605102
Anangur,,Branch Post Office,Delivery,Tamilnadu,Villupuram,Pondicherry,Chennai Region,Villupuram,Tamil Nadu,India,605103
Koliyanur,,Sub Post Office,Delivery,Tamilnadu,Villupuram,Pondicherry,Chennai Region,Villupuram,Tamil Nadu,India,605103
Melpathi,,Branch Post Office,Delivery,Tamilnadu,Villupuram,Pondicherry,Chennai Region,Viluppuram,Tamil Nadu,India,605103
Panampattu,,Branch Post Office,Delivery,Tamilnadu,Villupuram,Pondicherry,Chennai Region,Villupuram,Tamil Nadu,India,605103
Pillur,,Branch Post Office,Delivery,Tamilnadu,Villupuram,Pondicherry,Chennai Region,Villupuram,Tamil Nadu,India,605103
Poyyapakkam,,Branch Post Office,Delivery,Tamilnadu,Villupuram,Pondicherry,Chennai Region,Villupuram,Tamil Nadu,India,605103
Serndanur,,Branch Post Office,Delivery,Tamilnadu,Villupuram,Pondicherry,Chennai Region,Viluppuram,Tamil Nadu,India,605103
Tirupachanur,,Branch Post Office,Delivery,Tamilnadu,Villupuram,Pondicherry,Chennai Region,Villupuram,Tamil Nadu,India,605103
Bommayarpalayam,,Branch Post Office,Delivery,Tamilnadu,Pondicherry,Pondicherry,Chennai Region,Pondichery,Pondicherry,India,605104
Kottakuppam,,Sub Post Office,Delivery,Tamilnadu,Pondicherry,Pondicherry,Chennai Region,Pondicherry,Pondicherry,India,605104
Kallipattu,,Branch Post Office,Delivery,Tamilnadu,Villupuram,Pondicherry,Chennai Region,Villupuram,Tamil Nadu,India,605105
Maducore,,Branch Post Office,Delivery,Tamilnadu,Pondicherry,Pondicherry,Chennai Region,Pondicherry,Pondicherry,India,605105
Mettupalayam,,Branch Post Office,Delivery,Tamilnadu,Villupuram,Pondicherry,Chennai Region,Viluppuram,Tamil Nadu,India,605105
Mokshakulam,,Sub Post Office,Delivery,Tamilnadu,Villupuram,Pondicherry,Chennai Region,Villupuram,Tamil Nadu,India,605105
P.Villiyanur,,Branch Post Office,Delivery,Tamilnadu,Villupuram,Pondicherry,Chennai Region,Viluppuram,Tamil Nadu,India,605105
Poovarasankuppam,,Branch Post Office,Delivery,Tamilnadu,Villupuram,Pondicherry,Chennai Region,Villupuram,Tamil Nadu,India,605105
Rampakkam,,Branch Post Office,Delivery,Tamilnadu,Villupuram,Pondicherry,Chennai Region,Villupuram,Tamil Nadu,India,605105
Venkatadri  Agaram,,Branch Post Office,Delivery,Tamilnadu,Villupuram,Pondicherry,Chennai Region,Villupuram,Tamil Nadu,India,605105
Chellanchery,,Branch Post Office,Delivery,Tamilnadu,Cuddalore,Pondicherry,Chennai Region,Cuddalore,Tamil Nadu,India,605106
Embalam,,Branch Post Office,Delivery,Tamilnadu,Pondicherry,Pondicherry,Chennai Region,Pondicherry,Pondicherry,India,605106
Karayamputhur,,Branch Post Office,Delivery,Tamilnadu,Pondicherry,Pondicherry,Chennai Region,Pondicherry,Pondicherry,India,605106
Kariyamanikam,,Branch Post Office,Delivery,Tamilnadu,Pondicherry,Pondicherry,Chennai Region,Pondicherry,Pondicherry,India,605106
Kijour,,Branch Post Office,Delivery,Tamilnadu,Pondicherry,Pondicherry,Chennai Region,Pondicherry,Pondicherry,India,605106
Mandagapet,,Branch Post Office,Delivery,Tamilnadu,Villupuram,Pondicherry,Chennai Region,Nettapakkam Commune Panchayat,Tamil Nadu,India,605106
Nallathur,,Branch Post Office,Delivery,Tamilnadu,Cuddalore,Pondicherry,Chennai Region,Cuddalore,Tamil Nadu,India,605106
Nettapakkam,,Sub Post Office,Delivery,Tamilnadu,Pondicherry,Pondicherry,Chennai Region,Pondicherry,Pondicherry,India,605106
Pakkam,,Branch Post Office,Delivery,Tamilnadu,Cuddalore,Pondicherry,Chennai Region,cuddalore,Tamil Nadu,India,605106
Viranam,,Branch Post Office,Delivery,Tamilnadu,Villupuram,Pondicherry,Chennai Region,Villupuram,Tamil Nadu,India,605106
Kumulam,,Branch Post Office,Delivery,Tamilnadu,Villupuram,Pondicherry,Chennai Region,Villupuram,Tamil Nadu,India,605107
Lingareddpalayam,,Branch Post Office,Delivery,Tamilnadu,Villupuram,Pondicherry,Chennai Region,Viluppuram,Tamil Nadu,India,605107
Madugadipet,,Branch Post Office,Delivery,Tamilnadu,Pondicherry,Pondicherry,Chennai Region,Pondicherry,Pondicherry,India,605107
Palayam,,Branch Post Office,Delivery,Tamilnadu,Villupuram,Pondicherry,Chennai Region,Viluppuram,Tamil Nadu,India,605107
Pallineliyanur,,Sub Post Office,Delivery,Tamilnadu,Villupuram,Pondicherry,Chennai Region,Villupuram,Tamil Nadu,India,605107
Puranasingupalayam,,Branch Post Office,Delivery,Tamilnadu,Pondicherry,Pondicherry,Chennai Region,Pondicherry,Pondicherry,India,605107
Thirubuvanai,,Branch Post Office,Delivery,Tamilnadu,Pondicherry,Pondicherry,Chennai Region,Pondicherry,Pondicherry,India,605107
V.Mathur,,Branch Post Office,Delivery,Tamilnadu,Villupuram,Pondicherry,Chennai Region,Viluppuram,Tamil Nadu,India,605107
Arpisampalayam,,Branch Post Office,Delivery,Tamilnadu,Villupuram,Pondicherry,Chennai Region,Villupuram,Tamil Nadu,India,605108
Gengarampalayam,,Branch Post Office,Delivery,Tamilnadu,Villupuram,Pondicherry,Chennai Region,Villupuram,Tamil Nadu,India,605108
Kallapattu,,Branch Post Office,Delivery,Tamilnadu,Villupuram,Pondicherry,Chennai Region,Villupuram,Tamil Nadu,India,605108
Kumarakuppam,,Branch Post Office,Non-Delivery,Tamilnadu,Villupuram,Pondicherry,Chennai Region,Villupuram,Tamil Nadu,India,605108
Naraiyur,,Branch Post Office,Delivery,Tamilnadu,Villupuram,Pondicherry,Chennai Region,Viluppuram,Tamil Nadu,India,605108
Salayampalayam,,Branch Post Office,Delivery,Tamilnadu,Villupuram,Pondicherry,Chennai Region,Viluppuram,Tamil Nadu,India,605108
V.Budur,,Branch Post Office,Delivery,Tamilnadu,Villupuram,Pondicherry,Chennai Region,Villupuram,Tamil Nadu,India,605108
Valavanur,,Sub Post Office,Delivery,Tamilnadu,Villupuram,Pondicherry,Chennai Region,Villupuram,Tamil Nadu,India,605108
Katrambakkam,,Branch Post Office,Delivery,Tamilnadu,Villupuram,Pondicherry,Chennai Region,Tindivanam,Tamil Nadu,India,605109
Olundiapet,,Branch Post Office,Delivery,Tamilnadu,Villupuram,Pondicherry,Chennai Region,Tindivanam,Tamil Nadu,India,605109
Pulichapllam,,Branch Post Office,Delivery,Tamilnadu,Villupuram,Pondicherry,Chennai Region,Vanur,Tamil Nadu,India,605109
Semangalam,,Branch Post Office,Delivery,Tamilnadu,Villupuram,Pondicherry,Chennai Region,Tindivanam,Tamil Nadu,India,605109
V.Parangani,,Branch Post Office,Delivery,Tamilnadu,Villupuram,Pondicherry,Chennai Region,Vanur,Tamil Nadu,India,605109
Vanur,,Sub Post Office,Delivery,Tamilnadu,Villupuram,Pondicherry,Chennai Region,Vanur,Tamil Nadu,India,605109
Arumbarthapuram,,Branch Post Office,Delivery,Tamilnadu,Pondicherry,Pondicherry,Chennai Region,Villianur Commune Panchayat,Pondicherry,India,605110
Kilinjikuppam,,Branch Post Office,Delivery,Tamilnadu,Villupuram,Pondicherry,Chennai Region,Vanur,Tamil Nadu,India,605110
Korkadu,,Branch Post Office,Delivery,Tamilnadu,Pondicherry,Pondicherry,Chennai Region,Pondicherry,Pondicherry,India,605110
Mangalam,,Branch Post Office,Delivery,Tamilnadu,Pondicherry,Pondicherry,Chennai Region,Pondicherry,Pondicherry,India,605110
Odiampet,,Branch Post Office,Delivery,Tamilnadu,Pondicherry,Pondicherry,Chennai Region,Villianur Commune Panchayat,Pondicherry,India,605110
Sulthanpet,,Branch Post Office,Delivery,Tamilnadu,Pondicherry,Pondicherry,Chennai Region,Villianur Commune Panchayat,Pondicherry,India,605110
Villiyanur,,Sub Post Office,Delivery,Tamilnadu,Pondicherry,Pondicherry,Chennai Region,Villianur Commune Panchayat,Pondicherry,India,605110
Hemerjickx Cente,,Branch Post Office,Delivery,Tamilnadu,Villupuram,Pondicherry,Chennai Region,Vanur,Tamil Nadu,India,605111
Irumbai,,Branch Post Office,Non-Delivery,Tamilnadu,Villupuram,Pondicherry,Chennai Region,Villupuram,Tamil Nadu,India,605111
Poothurai,,Branch Post Office,Delivery,Tamilnadu,Villupuram,Pondicherry,Chennai Region,Villupuram,Tamil Nadu,India,605111
Rayapudupakkam,,Branch Post Office,Delivery,Tamilnadu,Villupuram,Pondicherry,Chennai Region,Villupuram,Tamil Nadu,India,605111
Sedarapet,,Branch Post Office,Non-Delivery,Tamilnadu,Pondicherry,Pondicherry,Chennai Region,Pondicherry,Pondicherry,India,605111
Tiruchitambalam,,Sub Post Office,Delivery,Tamilnadu,Villupuram,Pondicherry,Chennai Region,Vanur,Tamil Nadu,India,605111
Anaiyeri,,Branch Post Office,Delivery,Tamilnadu,Villupuram,Pondicherry,Chennai Region,Tindivanam,Tamil Nadu,India,605201
Ananthapuram,,Sub Post Office,Delivery,Tamilnadu,Villupuram,Pondicherry,Chennai Region,Villupuram,Tamil Nadu,India,605201
Athiyur,,Branch Post Office,Delivery,Tamilnadu,Villupuram,Pondicherry,Chennai Region,Villupuram,Tamil Nadu,India,605201
Karai,,Branch Post Office,Delivery,Tamilnadu,Villupuram,Pondicherry,Chennai Region,Villupuram,Tamil Nadu,India,605201
Karuvakshi,,Branch Post Office,Delivery,Tamilnadu,Villupuram,Pondicherry,Chennai Region,Villupuram,Tamil Nadu,India,605201
Konalur,,Branch Post Office,Delivery,Tamilnadu,Villupuram,Pondicherry,Chennai Region,Villupuram,Tamil Nadu,India,605201
Panamalai,,Branch Post Office,Delivery,Tamilnadu,Villupuram,Pondicherry,Chennai Region,Villupuram,Tamil Nadu,India,605201
Ponnankuppam,,Branch Post Office,Delivery,Tamilnadu,Villupuram,Pondicherry,Chennai Region,Gingee,Tamil Nadu,India,605201
V.Mathur,,Branch Post Office,Delivery,Tamilnadu,Villupuram,Pondicherry,Chennai Region,Viluppuram,Tamil Nadu,India,605201
Anniyur,,Sub Post Office,Delivery,Tamilnadu,Villupuram,Pondicherry,Chennai Region,Villupuram,Tamil Nadu,India,605202
Kalayampoondi,,Branch Post Office,Delivery,Tamilnadu,Villupuram,Pondicherry,Chennai Region,Villupuram,Tamil Nadu,India,605202
Melkaranai,,Branch Post Office,Delivery,Tamilnadu,Villupuram,Pondicherry,Chennai Region,Viluppuram,Tamil Nadu,India,605202
Nangathur,,Branch Post Office,Delivery,Tamilnadu,Villupuram,Pondicherry,Chennai Region,Viluppuram,Tamil Nadu,India,605202
Porur,,Branch Post Office,Delivery,Tamilnadu,Villupuram,Pondicherry,Chennai Region,Villupuram,Tamil Nadu,India,605202
Sangeethamangalam,,Branch Post Office,Delivery,Tamilnadu,Villupuram,Pondicherry,Chennai Region,Villupuram,Tamil Nadu,India,605202
Asokapuri,,Branch Post Office,Delivery,Tamilnadu,Villupuram,Pondicherry,Chennai Region,Viluppuram,Tamil Nadu,India,605203
Brahmadesam,,Branch Post Office,Delivery,Tamilnadu,Villupuram,Pondicherry,Chennai Region,Villupuram,Tamil Nadu,India,605203
Kanjanur,,Sub Post Office,Delivery,Tamilnadu,Villupuram,Pondicherry,Chennai Region,Villupuram,Tamil Nadu,India,605203
Kottayampoondi,,Branch Post Office,Delivery,Tamilnadu,Villupuram,Pondicherry,Chennai Region,Villupuram,Tamil Nadu,India,605203
Kundalapuliyur,,Branch Post Office,Delivery,Tamilnadu,Villupuram,Pondicherry,Chennai Region,Villupuram,Tamil Nadu,India,605203
Muttathur,,Branch Post Office,Delivery,Tamilnadu,Villupuram,Pondicherry,Chennai Region,Viluppuram,Tamil Nadu,India,605203
Nemur,,Branch Post Office,Delivery,Tamilnadu,Villupuram,Pondicherry,Chennai Region,Viluppuram,Tamil Nadu,India,605203
Vembi,,Branch Post Office,Delivery,Tamilnadu,Villupuram,Pondicherry,Chennai Region,Villupuram,Tamil Nadu,India,605203
Kanai,,Sub Post Office,Delivery,Tamilnadu,Villupuram,Pondicherry,Chennai Region,Villupuram,Tamil Nadu,India,605301
Kappur,,Branch Post Office,Delivery,Tamilnadu,Villupuram,Pondicherry,Chennai Region,Villupuram,Tamil Nadu,India,605301
Kondangi,,Branch Post Office,Delivery,Tamilnadu,Villupuram,Pondicherry,Chennai Region,Villupuram,Tamil Nadu,India,605301
Konur,,Branch Post Office,Delivery,Tamilnadu,Villupuram,Pondicherry,Chennai Region,Villupuram,Tamil Nadu,India,605301
Nanndu,,Branch Post Office,Delivery,Tamilnadu,Villupuram,Pondicherry,Chennai Region,Viluppuram,Tamil Nadu,India,605301
Orukodi,,Branch Post Office,Delivery,Tamilnadu,Villupuram,Pondicherry,Chennai Region,Viluppuram,Tamil Nadu,India,605301
Perumbakkam,,Branch Post Office,Delivery,Tamilnadu,Villupuram,Pondicherry,Chennai Region,Villupuram,Tamil Nadu,India,605301
Kalpattu,,Branch Post Office,Delivery,Tamilnadu,Villupuram,Pondicherry,Chennai Region,Villupuram,Tamil Nadu,India,605302
Kangiyanur,,Branch Post Office,Delivery,Tamilnadu,Villupuram,Pondicherry,Chennai Region,Villupuram,Tamil Nadu,India,605302
Mambazhapattu,,Sub Post Office,Delivery,Tamilnadu,Villupuram,Pondicherry,Chennai Region,Viluppuram,Tamil Nadu,India,605302
Teli,,Branch Post Office,Delivery,Tamilnadu,Villupuram,Pondicherry,Chennai Region,Villupuram,Tamil Nadu,India,605302
Athiyur Thiruvadi,,Branch Post Office,Delivery,Tamilnadu,Villupuram,Pondicherry,Chennai Region,Viluppuram,Tamil Nadu,India,605401
Kandambakkam,,Branch Post Office,Delivery,Tamilnadu,Villupuram,Pondicherry,Chennai Region,Villupuram,Tamil Nadu,India,605401
Kandnamanadi,,Sub Post Office,Delivery,Tamilnadu,Villupuram,Pondicherry,Chennai Region,Villupuram,Tamil Nadu,India,605401
Maragadhapuram,,Branch Post Office,Delivery,Tamilnadu,Villupuram,Pondicherry,Chennai Region,Viluppuram,Tamil Nadu,India,605401
Pidagam,,Branch Post Office,Delivery,Tamilnadu,Villupuram,Pondicherry,Chennai Region,Viluppuram,Tamil Nadu,India,605401
Salamedu,,Branch Post Office,Delivery,Tamilnadu,Villupuram,Pondicherry,Chennai Region,Villupuram,Tamil Nadu,India,605401
Valudareddy,,Branch Post Office,Delivery,Tamilnadu,Villupuram,Pondicherry,Chennai Region,Villupuram,Tamil Nadu,India,605401
Adanur,,Branch Post Office,Delivery,Tamilnadu,Villupuram,Pondicherry,Chennai Region,Villupuram,Tamil Nadu,India,605402
Ariyalur Tirukkai,,Branch Post Office,Delivery,Tamilnadu,Villupuram,Pondicherry,Chennai Region,Villupuram,Tamil Nadu,India,605402
Kakkanur,,Branch Post Office,Delivery,Tamilnadu,Villupuram,Pondicherry,Chennai Region,Villupuram,Tamil Nadu,India,605402
Kedar,,Sub Post Office,Delivery,Tamilnadu,Villupuram,Pondicherry,Chennai Region,Villupuram,Tamil Nadu,India,605402
Palliandur,,Branch Post Office,Delivery,Tamilnadu,Villupuram,Pondicherry,Chennai Region,Villupuram,Tamil Nadu,India,605402
Siruvalai,,Branch Post Office,Delivery,Tamilnadu,Villupuram,Pondicherry,Chennai Region,Villupuram,Tamil Nadu,India,605402
Thiruvamathr,,Branch Post Office,Delivery,Tamilnadu,Villupuram,Pondicherry,Chennai Region,Villupuram,Tamil Nadu,India,605402
Vengandur,,Branch Post Office,Delivery,Tamilnadu,Villupuram,Pondicherry,Chennai Region,Villupurm,Tamil Nadu,India,605402
Viramur,,Branch Post Office,Delivery,Tamilnadu,Villupuram,Pondicherry,Chennai Region,Villupuram,Tamil Nadu,India,605402
Kodukkur,,Branch Post Office,Delivery,Tamilnadu,Villupuram,Pondicherry,Chennai Region,Tindivanam,Tamil Nadu,India,605501
Korakeni,,Branch Post Office,Delivery,Tamilnadu,Villupuram,Pondicherry,Chennai Region,Tindivanam,Tamil Nadu,India,605501
Madurapakkam,,Branch Post Office,Delivery,Tamilnadu,Villupuram,Pondicherry,Chennai Region,Tindivanam,Tamil Nadu,India,605501
Mannadipattu,,Branch Post Office,Delivery,Tamilnadu,Pondicherry,Pondicherry,Chennai Region,Pondicherry,Pondicherry,India,605501
Mutrampattu,,Branch Post Office,Delivery,Tamilnadu,Villupuram,Pondicherry,Chennai Region,Tindivanam,Tamil Nadu,India,605501
Radhhapuram,,Branch Post Office,Delivery,Tamilnadu,Villupuram,Pondicherry,Chennai Region,Tindivanam,Tamil Nadu,India,605501
Sellipet,,Branch Post Office,Delivery,Tamilnadu,Pondicherry,Pondicherry,Chennai Region,Pondicherry,Pondicherry,India,605501
Seshangur,,Branch Post Office,Delivery,Tamilnadu,Villupuram,Pondicherry,Chennai Region,Tindivanam,Tamil Nadu,India,605501
Sorapattu,,Branch Post Office,Delivery,Tamilnadu,Pondicherry,Pondicherry,Chennai Region,Pondicherry,Pondicherry,India,605501
Tirukkanur,,Sub Post Office,Delivery,Tamilnadu,Pondicherry,Pondicherry,Chennai Region,Pondicherry,Pondicherry,India,605501
Tirumangalam,,Branch Post Office,Delivery,Tamilnadu,Villupuram,Pondicherry,Chennai Region,Tindivanam,Tamil Nadu,India,605501
V.Nerkunam,,Branch Post Office,Delivery,Tamilnadu,Villupuram,Pondicherry,Chennai Region,Viluppuram,Tamil Nadu,India,605501
Vadhanur,,Branch Post Office,Delivery,Tamilnadu,Pondicherry,Pondicherry,Chennai Region,Pondicherry,Pondicherry,India,605501
Vakkur,,Branch Post Office,Delivery,Tamilnadu,Villupuram,Pondicherry,Chennai Region,Tindivanam,Tamil Nadu,India,605501
Coudapakkam,,Branch Post Office,Delivery,Tamilnadu,Pondicherry,Pondicherry,Chennai Region,Pondicherry,Pondicherry,India,605502
Kadaperikuppam,,Branch Post Office,Delivery,Tamilnadu,Villupuram,Pondicherry,Chennai Region,Villupuram,Tamil Nadu,India,605502
Katterikuppam,,Branch Post Office,Delivery,Tamilnadu,Pondicherry,Pondicherry,Chennai Region,Pondicherry,Pondicherry,India,605502
Suthukeni,,Branch Post Office,Delivery,Tamilnadu,Pondicherry,Pondicherry,Chennai Region,Pondicherry,Pondicherry,India,605502
Thondamanatham,,Branch Post Office,Delivery,Tamilnadu,Pondicherry,Pondicherry,Chennai Region,Pondicherry,Pondicherry,India,605502
Valudavur,,Sub Post Office,Delivery,Tamilnadu,Villupuram,Pondicherry,Chennai Region,Villupuram,Tamil Nadu,India,605502
Ayyur Agaram,,Branch Post Office,Delivery,Tamilnadu,Villupuram,Pondicherry,Chennai Region,Villupuram,Tamil Nadu,India,605601
Chinthamani,,Branch Post Office,Delivery,Tamilnadu,Villupuram,Pondicherry,Chennai Region,Viluppuram,Tamil Nadu,India,605601
Kappiyampuliyur,,Branch Post Office,Delivery,Tamilnadu,Villupuram,Pondicherry,Chennai Region,Villupuram,Tamil Nadu,India,605601
Mundiyambakkam,,Sub Post Office,Delivery,Tamilnadu,Villupuram,Pondicherry,Chennai Region,Viluppuram,Tamil Nadu,India,605601
Orathur,,Branch Post Office,Delivery,Tamilnadu,Villupuram,Pondicherry,Chennai Region,Viluppuram,Tamil Nadu,India,605601
Panayapuram,,Branch Post Office,Delivery,Tamilnadu,Villupuram,Pondicherry,Chennai Region,Villupuram,Tamil Nadu,India,605601
T.Mettupalayam,,Branch Post Office,Delivery,Tamilnadu,Villupuram,Pondicherry,Chennai Region,Viluppuram,Tamil Nadu,India,605601
Thoravi,,Branch Post Office,Delivery,Tamilnadu,Villupuram,Pondicherry,Chennai Region,Villupuram,Tamil Nadu,India,605601
Kamala Nagar (Villupuram),,Sub Post Office,Non-Delivery,Tamilnadu,Villupuram,Pondicherry,Chennai Region,Viluppuram,Tamil Nadu,India,605602
Kilperumbakkam,,Sub Post Office,Non-Delivery,Tamilnadu,Villupuram,Pondicherry,Chennai Region,Viluppuram,Tamil Nadu,India,605602
Maharajapuam,,Sub Post Office,Non-Delivery,Tamilnadu,Villupuram,Pondicherry,Chennai Region,Villupuram,Tamil Nadu,India,605602
Santhanagopalapuram,,Sub Post Office,Non-Delivery,Tamilnadu,Villupuram,Pondicherry,Chennai Region,Viluppuram,Tamil Nadu,India,605602
V.Marudur,,Sub Post Office,Non-Delivery,Tamilnadu,Villupuram,Pondicherry,Chennai Region,Viluppuram,Tamil Nadu,India,605602
Villupuram,,Head Post Office,Delivery,Tamilnadu,Villupuram,Pondicherry,Chennai Region,Villupuram,Tamil Nadu,India,605602
Villupuram Collectorate,,Sub Post Office,Non-Delivery,Tamilnadu,Villupuram,Pondicherry,Chennai Region,Villupuram,Tamil Nadu,India,605602
Villupuram East,,Sub Post Office,Non-Delivery,Tamilnadu,Villupuram,Pondicherry,Chennai Region,Viluppuram,Tamil Nadu,India,605602
Villupuram West,,Sub Post Office,Non-Delivery,Tamilnadu,Villupuram,Pondicherry,Chennai Region,Viluppuram,Tamil Nadu,India,605602
Anilady,,Branch Post Office,Delivery,Tamilnadu,Villupuram,Pondicherry,Chennai Region,Villupuram,Tamil Nadu,India,605651
Kilmambattu,,Branch Post Office,Delivery,Tamilnadu,Villupuram,Pondicherry,Chennai Region,Villupuram,Tamil Nadu,India,605651
Negandur,,Branch Post Office,Delivery,Tamilnadu,Villupuram,Pondicherry,Chennai Region,Tindivanam,Tamil Nadu,India,605651
Perani,,Branch Post Office,Delivery,Tamilnadu,Villupuram,Pondicherry,Chennai Region,Villupuram,Tamil Nadu,India,605651
Periyathatchur,,Sub Post Office,Delivery,Tamilnadu,Villupuram,Pondicherry,Chennai Region,Villupuram,Tamil Nadu,India,605651
Pidaripattu,,Branch Post Office,Delivery,Tamilnadu,Villupuram,Pondicherry,Chennai Region,Villupuram,Tamil Nadu,India,605651
Se.Kunnatur,,Branch Post Office,Delivery,Tamilnadu,Villupuram,Pondicherry,Chennai Region,Villupuram,Tamil Nadu,India,605651
V.Nallalam,,Branch Post Office,Delivery,Tamilnadu,Villupuram,Pondicherry,Chennai Region,Villupuram,Tamil Nadu,India,605651
Asur,,Branch Post Office,Delivery,Tamilnadu,Villupuram,Pondicherry,Chennai Region,Villupuram,Tamil Nadu,India,605652
Avadayarpattu,,Branch Post Office,Delivery,Tamilnadu,Villupuram,Pondicherry,Chennai Region,Villupuram,Tamil Nadu,India,605652
Melakondai,,Branch Post Office,Delivery,Tamilnadu,Villupuram,Pondicherry,Chennai Region,Villupuram,Tamil Nadu,India,605652
Pombur,,Branch Post Office,Delivery,Tamilnadu,Villupuram,Pondicherry,Chennai Region,Viluppuram,Tamil Nadu,India,605652
Sithani,,Branch Post Office,Delivery,Tamilnadu,Villupuram,Pondicherry,Chennai Region,Viluppuram,Tamil Nadu,India,605652
T.Pudupalayam,,Branch Post Office,Delivery,Tamilnadu,Villupuram,Pondicherry,Chennai Region,Viluppuram,Tamil Nadu,India,605652
V.Salai,,Branch Post Office,Delivery,Tamilnadu,Villupuram,Pondicherry,Chennai Region,Viluppuram,Tamil Nadu,India,605652
V.Sathanur,,Branch Post Office,Delivery,Tamilnadu,Villupuram,Pondicherry,Chennai Region,Villupuram,Tamil Nadu,India,605652
Vidur,,Branch Post Office,Delivery,Tamilnadu,Villupuram,Pondicherry,Chennai Region,Villupuram,Tamil Nadu,India,605652
Vidur Dam,,Branch Post Office,Delivery,Tamilnadu,Villupuram,Pondicherry,Chennai Region,Viluppuram,Tamil Nadu,India,605652
Vikravandi,,Sub Post Office,Delivery,Tamilnadu,Villupuram,Pondicherry,Chennai Region,Viluppuram,Tamil Nadu,India,605652
Vikravandi R.S.,,Branch Post Office,Non-Delivery,Tamilnadu,Villupuram,Pondicherry,Chennai Region,Viluppuram,Tamil Nadu,India,605652
Alambadi,,Branch Post Office,Delivery,Tamilnadu,Villupuram,Vriddhachalam,Tiruchy,Tirukkoyilur,Tamil Nadu,India,605701
Athiyur Thirukkai,,Branch Post Office,Delivery,Tamilnadu,Villupuram,Vriddhachalam,Tiruchy,Tirukkoyilur,Tamil Nadu,India,605701
Kandachipuram,,Sub Post Office,Delivery,Tamilnadu,Villupuram,Vriddhachalam,Tiruchy,Tirukkoyilur,Tamil Nadu,India,605701
Malavanthangal,,Branch Post Office,Delivery,Tamilnadu,Villupuram,Vriddhachalam,Tiruchy,Tirukkoyilur,Tamil Nadu,India,605701
Melvalai,,Branch Post Office,Delivery,Tamilnadu,Villupuram,Vriddhachalam,Tiruchy,Tirukkoyilur,Tamil Nadu,India,605701
Nallapalayam,,Branch Post Office,Delivery,Tamilnadu,Villupuram,Vriddhachalam,Tiruchy,Tirukkoyilur,Tamil Nadu,India,605701
Odiyathur,,Branch Post Office,Delivery,Tamilnadu,Villupuram,Vriddhachalam,Tiruchy,Tirukkoyilur,Tamil Nadu,India,605701
Pilrampattu,,Branch Post Office,Delivery,Tamilnadu,Villupuram,Vriddhachalam,Tiruchy,Tirukkoyilur,Tamil Nadu,India,605701
Sithathur,,Branch Post Office,Delivery,Tamilnadu,Villupuram,Vriddhachalam,Tiruchy,Tirukkoyilur,Tamil Nadu,India,605701
Vengamur,,Branch Post Office,Delivery,Tamilnadu,Villupuram,Vriddhachalam,Tiruchy,Tirukkoyilur,Tamil Nadu,India,605701
B. Arulambadi,,Branch Post Office,Delivery,Tamilnadu,Villupuram,Vriddhachalam,Tiruchy,Sankarapuram,Tamil Nadu,India,605702
Brammakundam,,Branch Post Office,Delivery,Tamilnadu,Villupuram,Vriddhachalam,Tiruchy,Sankarapuram,Tamil Nadu,India,605702
Irudayampattu,,Branch Post Office,Delivery,Tamilnadu,Villupuram,Vriddhachalam,Tiruchy,Sankarapuram,Tamil Nadu,India,605702
Melsiruvallur,,Branch Post Office,Delivery,Tamilnadu,Villupuram,Vriddhachalam,Tiruchy,Sankarapuram,Tamil Nadu,India,605702
Michaelpuram,,Branch Post Office,Delivery,Tamilnadu,Villupuram,Vriddhachalam,Tiruchy,Sankarapuram,Tamil Nadu,India,605702
Moongilthuraipattu,,Sub Post Office,Delivery,Tamilnadu,Tiruvannamalai,Vriddhachalam,Tiruchy,Tiruvannamalai,Tamil Nadu,India,605702
Porasapattu,,Branch Post Office,Delivery,Tamilnadu,Villupuram,Vriddhachalam,Tiruchy,Sankarapuram,Tamil Nadu,India,605702
Pounjipattu,,Branch Post Office,Delivery,Tamilnadu,Villupuram,Vriddhachalam,Tiruchy,Sankarapuram,Tamil Nadu,India,605702
Vadaponparappi,,Branch Post Office,Delivery,Tamilnadu,Villupuram,Vriddhachalam,Tiruchy,Sankarapuram,Tamil Nadu,India,605702
Ariyur (Villupuram),,Sub Post Office,Delivery,Tamilnadu,Villupuram,Vriddhachalam,Tiruchy,Tirukkoyilur,Tamil Nadu,India,605751
Cholavandipuram,,Branch Post Office,Delivery,Tamilnadu,Villupuram,Vriddhachalam,Tiruchy,Tirukkoyilur,Tamil Nadu,India,605751
Kattu Edaiyur,,Branch Post Office,Delivery,Tamilnadu,Villupuram,Vriddhachalam,Tiruchy,Tirukkoyilur,Tamil Nadu,India,605751
Memalur,,Branch Post Office,Delivery,Tamilnadu,Villupuram,Vriddhachalam,Tiruchy,Tirukkoyilur,Tamil Nadu,India,605751
Padiyandal,,Branch Post Office,Delivery,Tamilnadu,Villupuram,Vriddhachalam,Tiruchy,Tirukkoyilur,Tamil Nadu,India,605751
Pazhangur,,Branch Post Office,Delivery,Tamilnadu,Villupuram,Vriddhachalam,Tiruchy,Tirukkoyilur,Tamil Nadu,India,605751
Vengur,,Branch Post Office,Delivery,Tamilnadu,Villupuram,Vriddhachalam,Tiruchy,Tirukkoyilur,Tamil Nadu,India,605751
Arakandanallur,,Sub Post Office,Delivery,Tamilnadu,Villupuram,Vriddhachalam,Tiruchy,Tirukkoyilur,Tamil Nadu,India,605752
Devanur,,Branch Post Office,Delivery,Tamilnadu,Villupuram,Vriddhachalam,Tiruchy,Tirukkoyilur,Tamil Nadu,India,605752
V . Puthur,,Branch Post Office,Delivery,Tamilnadu,Villupuram,Vriddhachalam,Tiruchy,Tirukkoyilur,Tamil Nadu,India,605752
Vadakaraithayanur,,Branch Post Office,Delivery,Tamilnadu,Villupuram,Vriddhachalam,Tiruchy,Tirukkoyilur,Tamil Nadu,India,605752
Devaradiyarkuppam,,Branch Post Office,Delivery,Tamilnadu,Villupuram,Vriddhachalam,Tiruchy,Tirukkoyilur,Tamil Nadu,India,605754
Jambai,,Branch Post Office,Delivery,Tamilnadu,Villupuram,Vriddhachalam,Tiruchy,Tirukkoyilur,Tamil Nadu,India,605754
Kangeyanur,,Branch Post Office,Delivery,Tamilnadu,Villupuram,Vriddhachalam,Tiruchy,Tirukkoyilur,Tamil Nadu,India,605754
Kazhumalam,,Branch Post Office,Delivery,Tamilnadu,Villupuram,Vriddhachalam,Tiruchy,Tirukkoyilur,Tamil Nadu,India,605754
Manalurpet,,Sub Post Office,Delivery,Tamilnadu,Villupuram,Vriddhachalam,Tiruchy,Tirukkoyilur,Tamil Nadu,India,605754
Murukkambadi,,Branch Post Office,Delivery,Tamilnadu,Villupuram,Vriddhachalam,Tiruchy,Tirukkoyilur,Tamil Nadu,India,605754
Sangiyam,,Branch Post Office,Delivery,Tamilnadu,Villupuram,Vriddhachalam,Tiruchy,Tirukkoyilur,Tamil Nadu,India,605754
Arcadu,,Branch Post Office,Delivery,Tamilnadu,Villupuram,Vriddhachalam,Tiruchy,Tirukkoyilur,Tamil Nadu,India,605755
Arulavadi,,Branch Post Office,Delivery,Tamilnadu,Villupuram,Vriddhachalam,Tiruchy,Tirukkoyilur,Tamil Nadu,India,605755
Ayandur,,Branch Post Office,Delivery,Tamilnadu,Villupuram,Vriddhachalam,Tiruchy,Tirukkoyilur,Tamil Nadu,India,605755
Kadaganur,,Branch Post Office,Delivery,Tamilnadu,Villupuram,Vriddhachalam,Tiruchy,Tirukkoyilur,Tamil Nadu,India,605755
Karanai,,Branch Post Office,Delivery,Tamilnadu,Villupuram,Vriddhachalam,Tiruchy,Tirukkoyilur,Tamil Nadu,India,605755
Mogaiyur,,Sub Post Office,Delivery,Tamilnadu,Villupuram,Vriddhachalam,Tiruchy,Tirukkoyilur,Tamil Nadu,India,605755
Paranur,,Branch Post Office,Delivery,Tamilnadu,Villupuram,Vriddhachalam,Tiruchy,Tirukkoyilur,Tamil Nadu,India,605755
S.Kodungal,,Branch Post Office,Delivery,Tamilnadu,Villupuram,Vriddhachalam,Tiruchy,Tirukkoyilur,Tamil Nadu,India,605755
Sathiyakandanur,,Branch Post Office,Delivery,Tamilnadu,Villupuram,Vriddhachalam,Tiruchy,Tirukkoyilur,Tamil Nadu,India,605755
Sennakunam,,Branch Post Office,Delivery,Tamilnadu,Villupuram,Vriddhachalam,Tiruchy,Tirukkoyilur,Tamil Nadu,India,605755
Kottamarudur,,Branch Post Office,Delivery,Tamilnadu,Villupuram,Vriddhachalam,Tiruchy,Tirukkoyilur,Tamil Nadu,India,605756
Kuladeepamangalam,,Branch Post Office,Delivery,Tamilnadu,Villupuram,Vriddhachalam,Tiruchy,Tirukkoyilur,Tamil Nadu,India,605756
Thapovanam,,Sub Post Office,Delivery,Tamilnadu,Villupuram,Vriddhachalam,Tiruchy,Tirukkoyilur,Tamil Nadu,India,605756
Vilandai,,Branch Post Office,Delivery,Tamilnadu,Villupuram,Vriddhachalam,Tiruchy,Tirukkoyilur,Tamil Nadu,India,605756
Tirukkoyilur,,Head Post Office,Delivery,Tamilnadu,Villupuram,Vriddhachalam,Tiruchy,Tirukkoyilur,Tamil Nadu,India,605757
Tirukkoyilur Bazaar,,Sub Post Office,Non-Delivery,Tamilnadu,Villupuram,Vriddhachalam,Tiruchy,Tirukkoyilur,Tamil Nadu,India,605757
Adichanur,,Branch Post Office,Delivery,Tamilnadu,Villupuram,Vriddhachalam,Tiruchy,Tirukkoyilur,Tamil Nadu,India,605758
Oddampattu,,Branch Post Office,Delivery,Tamilnadu,Villupuram,Vriddhachalam,Tiruchy,Tirukkoyilur,Tamil Nadu,India,605758
Vasanthakrishnapuram,,Branch Post Office,Delivery,Tamilnadu,Villupuram,Vriddhachalam,Tiruchy,Tirukkoyilur,Tamil Nadu,India,605758
Virapandi,,Sub Post Office,Delivery,Tamilnadu,Villupuram,Vriddhachalam,Tiruchy,Tirukkoyilur,Tamil Nadu,India,605758
Manampoondi,,Sub Post Office,Delivery,Tamilnadu,Villupuram,Vriddhachalam,Tiruchy,Tirukkoyilur,Tamil Nadu,India,605759
Aruthangudi,,Branch Post Office,Delivery,Tamilnadu,Villupuram,Vriddhachalam,Tiruchy,Tirukkoyilur,Tamil Nadu,India,605766
Deviagaram,,Branch Post Office,Delivery,Tamilnadu,Villupuram,Vriddhachalam,Tiruchy,Tirukkoyilur,Tamil Nadu,India,605766
Karadi,,Branch Post Office,Delivery,Tamilnadu,Villupuram,Vriddhachalam,Tiruchy,Tirukkoyilur,Tamil Nadu,India,605766
Kattupaiyur,,Branch Post Office,Delivery,Tamilnadu,Villupuram,Vriddhachalam,Tiruchy,Tirukkoyilur,Tamil Nadu,India,605766
Keelathalanur,,Branch Post Office,Delivery,Tamilnadu,Villupuram,Vriddhachalam,Tiruchy,Tirukkoyilur,Tamil Nadu,India,605766
Kuvanur,,Branch Post Office,Delivery,Tamilnadu,Villupuram,Vriddhachalam,Tiruchy,Tirukkoyilur,Tamil Nadu,India,605766
Madam,,Branch Post Office,Delivery,Tamilnadu,Villupuram,Vriddhachalam,Tiruchy,Tirukkoyilur,Tamil Nadu,India,605766
Santhapettai,,Sub Post Office,Delivery,Tamilnadu,Villupuram,Vriddhachalam,Tiruchy,Tirukkoyilur,Tamil Nadu,India,605766
T Athipakkam,,Branch Post Office,Delivery,Tamilnadu,Villupuram,Vriddhachalam,Tiruchy,,Tamil Nadu,India,605766
Thagadi,,Branch Post Office,Delivery,Tamilnadu,Villupuram,Vriddhachalam,Tiruchy,Tirukkoyilur,Tamil Nadu,India,605766
Tiruppalapandal,,Branch Post Office,Delivery,Tamilnadu,Villupuram,Vriddhachalam,Tiruchy,Tirukkoyilur,Tamil Nadu,India,605766
Ariyalur (Villupuram),,Sub Post Office,Delivery,Tamilnadu,Villupuram,Vriddhachalam,Tiruchy,Tirukkoyilur,Tamil Nadu,India,605801
Endal,,Branch Post Office,Delivery,Tamilnadu,Villupuram,Vriddhachalam,Tiruchy,Tirukkoyilur,Tamil Nadu,India,605801
Kaduvanur,,Branch Post Office,Delivery,Tamilnadu,Villupuram,Vriddhachalam,Tiruchy,Tirukkoyilur,Tamil Nadu,India,605801
Maiyanur,,Branch Post Office,Delivery,Tamilnadu,Villupuram,Vriddhachalam,Tiruchy,Tirukkoyilur,Tamil Nadu,India,605801
Pakkam,,Branch Post Office,Delivery,Tamilnadu,Villupuram,Vriddhachalam,Tiruchy,Tirukkoyilur,Tamil Nadu,India,605801
Periyakolliyur,,Branch Post Office,Delivery,Tamilnadu,Villupuram,Vriddhachalam,Tiruchy,Tirukkoyilur,Tamil Nadu,India,605801
Tholuvanthangal,,Branch Post Office,Delivery,Tamilnadu,Villupuram,Vriddhachalam,Tiruchy,Tirukkoyilur,Tamil Nadu,India,605801
Eduthanur,,Branch Post Office,Delivery,Tamilnadu,Villupuram,Vriddhachalam,Tiruchy,Tirukkoyilur,Tamil Nadu,India,605802
Elayanarkuppam,,Branch Post Office,Delivery,Tamilnadu,Villupuram,Vriddhachalam,Tiruchy,Tirukkoyilur,Tamil Nadu,India,605802
Kadambur (Villupuram),,Sub Post Office,Delivery,Tamilnadu,Villupuram,Vriddhachalam,Tiruchy,Tirukkoyilur,Tamil Nadu,India,605802
Sirpadanallur,,Branch Post Office,Delivery,Tamilnadu,Villupuram,Vriddhachalam,Tiruchy,Tirukkoyilur,Tamil Nadu,India,605802
Sirpanandal,,Branch Post Office,Delivery,Tamilnadu,Villupuram,Vriddhachalam,Tiruchy,Tirukkoyilur,Tamil Nadu,India,605802
Tiruvarangam,,Branch Post Office,Delivery,Tamilnadu,Villupuram,Vriddhachalam,Tiruchy,Tirukkoyilur,Tamil Nadu,India,605802
Andrayanur,,Branch Post Office,Delivery,Tamilnadu,Villupuram,Vriddhachalam,Tiruchy,Tirukkoyilur,Tamil Nadu,India,605803
Arunkurukkai,,Branch Post Office,Delivery,Tamilnadu,Villupuram,Vriddhachalam,Tiruchy,Tirukkoyilur,Tamil Nadu,India,605803
C Meyyur,,Branch Post Office,Delivery,Tamilnadu,Villupuram,Vriddhachalam,Tiruchy,Tirukkoyilur,Tamil Nadu,India,605803
Edapalayam,,Branch Post Office,Delivery,Tamilnadu,Villupuram,Vriddhachalam,Tiruchy,Tirukkoyilur,Tamil Nadu,India,605803
Elrampattu,,Branch Post Office,Delivery,Tamilnadu,Villupuram,Vriddhachalam,Tiruchy,Tirukkoyilur,Tamil Nadu,India,605803
Sithalingamadam,,Sub Post Office,Delivery,Tamilnadu,Villupuram,Vriddhachalam,Tiruchy,Tirukkoyilur,Tamil Nadu,India,605803
T  . Kunnathur,,Branch Post Office,Delivery,Tamilnadu,Villupuram,Vriddhachalam,Tiruchy,Tirukkoyilur,Tamil Nadu,India,605803
T  . Pudupalayam,,Branch Post Office,Delivery,Tamilnadu,Villupuram,Vriddhachalam,Tiruchy,Tirukkoyilur,Tamil Nadu,India,605803
Vadamarudur,,Branch Post Office,Delivery,Tamilnadu,Villupuram,Vriddhachalam,Tiruchy,Tirukkoyilur,Tamil Nadu,India,605803
Vriddhachalam,,Head Post Office,Delivery,Tamilnadu,Cuddalore,Vriddhachalam,Tiruchy,Vriddhachalam,Tamil Nadu,India,606001
Vriddhachalam Bazaar,,Sub Post Office,Non-Delivery,Tamilnadu,Cuddalore,Vriddhachalam,Tiruchy,Virudhachalam,Tamil Nadu,India,606001
Vriddhachalam Cutchery,,Sub Post Office,Non-Delivery,Tamilnadu,Cuddalore,Vriddhachalam,Tiruchy,Virudhachalam,Tamil Nadu,India,606001
Budamur,,Sub Post Office,Delivery,Tamilnadu,Cuddalore,Vriddhachalam,Tiruchy,Vriddhachalam,Tamil Nadu,India,606003
Erumanur,,Branch Post Office,Delivery,Tamilnadu,Cuddalore,Vriddhachalam,Tiruchy,Vriddhachalam,Tamil Nadu,India,606003
Kargudal,,Branch Post Office,Delivery,Tamilnadu,Cuddalore,Vriddhachalam,Tiruchy,Vriddhachalam,Tamil Nadu,India,606003
Ko  Adhanur,,Branch Post Office,Delivery,Tamilnadu,Cuddalore,Vriddhachalam,Tiruchy,Vriddhachalam,Tamil Nadu,India,606003
Kuppanatham,,Branch Post Office,Delivery,Tamilnadu,Cuddalore,Vriddhachalam,Tiruchy,Vriddhachalam,Tamil Nadu,India,606003
Manavalanallur,,Branch Post Office,Delivery,Tamilnadu,Cuddalore,Vriddhachalam,Tiruchy,Vriddhachalam,Tamil Nadu,India,606003
Paravalur,,Branch Post Office,Delivery,Tamilnadu,Cuddalore,Vriddhachalam,Tiruchy,Vriddhachalam,Tamil Nadu,India,606003
Sathamangalam,,Branch Post Office,Delivery,Tamilnadu,Cuddalore,Vriddhachalam,Tiruchy,Vriddhachalam,Tamil Nadu,India,606003
T   Gopurapuram,,Branch Post Office,Delivery,Tamilnadu,Cuddalore,Vriddhachalam,Tiruchy,Vriddhachalam,Tamil Nadu,India,606003
Thoravalur,,Branch Post Office,Delivery,Tamilnadu,Cuddalore,Vriddhachalam,Tiruchy,Vriddhachalam,Tamil Nadu,India,606003
Adhanur,,Branch Post Office,Delivery,Tamilnadu,Villupuram,Vriddhachalam,Tiruchy,Ulundurpet,Tamil Nadu,India,606102
Attur,,Branch Post Office,Delivery,Tamilnadu,Villupuram,Vriddhachalam,Tiruchy,Ulundurpet,Tamil Nadu,India,606102
Kalamarudur,,Sub Post Office,Delivery,Tamilnadu,Villupuram,Vriddhachalam,Tiruchy,Ulundurpet,Tamil Nadu,India,606102
Kiliyur,,Branch Post Office,Delivery,Tamilnadu,Villupuram,Vriddhachalam,Tiruchy,Ulundurpet,Tamil Nadu,India,606102
Kuvagam,,Branch Post Office,Delivery,Tamilnadu,Villupuram,Vriddhachalam,Tiruchy,Ulundurpet,Tamil Nadu,India,606102
Ma-kunnathur,,Branch Post Office,Delivery,Tamilnadu,Villupuram,Vriddhachalam,Tiruchy,Ulundurpet,Tamil Nadu,India,606102
Nannaram,,Branch Post Office,Delivery,Tamilnadu,Villupuram,Vriddhachalam,Tiruchy,Ulundurpet,Tamil Nadu,India,606102
Nathamur,,Branch Post Office,Delivery,Tamilnadu,Villupuram,Vriddhachalam,Tiruchy,Ulundurpet,Tamil Nadu,India,606102
Orathur,,Branch Post Office,Delivery,Tamilnadu,Villupuram,Vriddhachalam,Tiruchy,Ulundurpet,Tamil Nadu,India,606102
Pandur,,Branch Post Office,Delivery,Tamilnadu,Villupuram,Vriddhachalam,Tiruchy,Ulundurpet,Tamil Nadu,India,606102
Velur,,Branch Post Office,Delivery,Tamilnadu,Villupuram,Vriddhachalam,Tiruchy,Ulundurpet,Tamil Nadu,India,606102
Dharmanallur,,Branch Post Office,Delivery,Tamilnadu,Cuddalore,Vriddhachalam,Tiruchy,Vriddhachalam,Tamil Nadu,India,606103
Gopalapuram,,Branch Post Office,Delivery,Tamilnadu,Cuddalore,Vriddhachalam,Tiruchy,Virudhachalam,Tamil Nadu,India,606103
Kammapuram,,Sub Post Office,Delivery,Tamilnadu,Cuddalore,Vriddhachalam,Tiruchy,Vriddhachalam,Tamil Nadu,India,606103
Kathazhai,,Branch Post Office,Delivery,Tamilnadu,Cuddalore,Vriddhachalam,Tiruchy,Vriddhachalam,Tamil Nadu,India,606103
Kilapalaiyur,,Branch Post Office,Delivery,Tamilnadu,Cuddalore,Vriddhachalam,Tiruchy,Vriddhachalam,Tamil Nadu,India,606103
Ottimedu,,Branch Post Office,Delivery,Tamilnadu,Cuddalore,Vriddhachalam,Tiruchy,Vriddhachalam,Tamil Nadu,India,606103
Periyakottumulai,,Branch Post Office,Delivery,Tamilnadu,Cuddalore,Vriddhachalam,Tiruchy,Vriddhachalam,Tamil Nadu,India,606103
Sathapadi,,Branch Post Office,Delivery,Tamilnadu,Cuddalore,Vriddhachalam,Tiruchy,Vriddhachalam,Tamil Nadu,India,606103
Chinnaparur,,Branch Post Office,Delivery,Tamilnadu,Cuddalore,Vriddhachalam,Tiruchy,Vriddhachalam,Tamil Nadu,India,606104
Idaichittur,,Branch Post Office,Delivery,Tamilnadu,Cuddalore,Vriddhachalam,Tiruchy,Vriddhachalam,Tamil Nadu,India,606104
Karnatham,,Branch Post Office,Delivery,Tamilnadu,Cuddalore,Vriddhachalam,Tiruchy,Vriddhachalam,Tamil Nadu,India,606104
Ko Pavalangudi,,Branch Post Office,Delivery,Tamilnadu,Cuddalore,Vriddhachalam,Tiruchy,Vriddhachalam,Tamil Nadu,India,606104
Konankuppam,,Branch Post Office,Delivery,Tamilnadu,Cuddalore,Vriddhachalam,Tiruchy,Virudhachalam,Tamil Nadu,India,606104
Mangalam (SA),,Sub Post Office,Delivery,Tamilnadu,Villupuram,Vriddhachalam,Tiruchy,Ulundurpettai,Tamil Nadu,India,606104
Mathur,,Branch Post Office,Delivery,Tamilnadu,Cuddalore,Vriddhachalam,Tiruchy,Vriddhachalam,Tamil Nadu,India,606104
Mukhasaparur,,Branch Post Office,Delivery,Tamilnadu,Villupuram,Vriddhachalam,Tiruchy,Ulundurpettai,Tamil Nadu,India,606104
Palayapattinam,,Branch Post Office,Delivery,Tamilnadu,Cuddalore,Vriddhachalam,Tiruchy,Vriddhachalam,Tamil Nadu,India,606104
Pali,,Branch Post Office,Delivery,Tamilnadu,Cuddalore,Vriddhachalam,Tiruchy,Vriddhachalam,Tamil Nadu,India,606104
Puvanur,,Branch Post Office,Delivery,Tamilnadu,Cuddalore,Vriddhachalam,Tiruchy,Vriddhachalam,Tamil Nadu,India,606104
Vijayamanagaram,,Branch Post Office,Delivery,Tamilnadu,Cuddalore,Vriddhachalam,Tiruchy,Vriddhachalam,Tamil Nadu,India,606104
Kilimangalam,,Branch Post Office,Delivery,Tamilnadu,Cuddalore,Vriddhachalam,Tiruchy,Tittagudi,Tamil Nadu,India,606105
Konur,,Branch Post Office,Delivery,Tamilnadu,Cuddalore,Vriddhachalam,Tiruchy,Tittakudi,Tamil Nadu,India,606105
Kosapallam,,Branch Post Office,Delivery,Tamilnadu,Cuddalore,Vriddhachalam,Tiruchy,Tittakudi,Tamil Nadu,India,606105
Murugangudi,,Branch Post Office,Delivery,Tamilnadu,Cuddalore,Vriddhachalam,Tiruchy,Tittagudi,Tamil Nadu,India,606105
Pelandurai,,Branch Post Office,Delivery,Tamilnadu,Cuddalore,Vriddhachalam,Tiruchy,Tittagudi,Tamil Nadu,India,606105
Pennadam,,Sub Post Office,Delivery,Tamilnadu,Cuddalore,Vriddhachalam,Tiruchy,Tittakudi,Tamil Nadu,India,606105
Akkanur,,Branch Post Office,Delivery,Tamilnadu,Cuddalore,Vriddhachalam,Tiruchy,Tittagudi,Tamil Nadu,India,606106
E.Keeranur,,Branch Post Office,Delivery,Tamilnadu,Cuddalore,Vriddhachalam,Tiruchy,Tittagudi,Tamil Nadu,India,606106
Kilacheruvoi,,Branch Post Office,Delivery,Tamilnadu,Cuddalore,Vriddhachalam,Tiruchy,Tittagudi,Tamil Nadu,India,606106
Perumulai,,Branch Post Office,Delivery,Tamilnadu,Cuddalore,Vriddhachalam,Tiruchy,Tittagudi,Tamil Nadu,India,606106
Sevveri,,Branch Post Office,Delivery,Tamilnadu,Cuddalore,Vriddhachalam,Tiruchy,Tittagudi,Tamil Nadu,India,606106
Sirumulai,,Branch Post Office,Delivery,Tamilnadu,Cuddalore,Vriddhachalam,Tiruchy,Tittagudi,Tamil Nadu,India,606106
Tittagudi,,Sub Post Office,Delivery,Tamilnadu,Cuddalore,Vriddhachalam,Tiruchy,Tittagudi,Tamil Nadu,India,606106
Vagaiyur,,Branch Post Office,Delivery,Tamilnadu,Cuddalore,Vriddhachalam,Tiruchy,Tittagudi,Tamil Nadu,India,606106
Anganur,,Branch Post Office,Delivery,Tamilnadu,Villupuram,Vriddhachalam,Tiruchy,Ulundurpet,Tamil Nadu,India,606107
Edaikkal,,Branch Post Office,Delivery,Tamilnadu,Villupuram,Vriddhachalam,Tiruchy,Ulundurpet,Tamil Nadu,India,606107
Kanaiyar,,Branch Post Office,Delivery,Tamilnadu,Villupuram,Vriddhachalam,Tiruchy,Ulundurpet,Tamil Nadu,India,606107
Madiyanur,,Branch Post Office,Delivery,Tamilnadu,Villupuram,Vriddhachalam,Tiruchy,Ulundurpet,Tamil Nadu,India,606107
Moolasamudram,,Branch Post Office,Delivery,Tamilnadu,Villupuram,Vriddhachalam,Tiruchy,Ulundurpet,Tamil Nadu,India,606107
Pu-killanur,,Branch Post Office,Delivery,Tamilnadu,Villupuram,Vriddhachalam,Tiruchy,Ulundurpet,Tamil Nadu,India,606107
Pu-konalavadi,,Branch Post Office,Delivery,Tamilnadu,Villupuram,Vriddhachalam,Tiruchy,Ulundurpet,Tamil Nadu,India,606107
Pu.Mambakkam,,Branch Post Office,Delivery,Tamilnadu,Villupuram,Vriddhachalam,Tiruchy,Ulundurpet,Tamil Nadu,India,606107
Puliyur,,Branch Post Office,Delivery,Tamilnadu,Villupuram,Vriddhachalam,Tiruchy,Ulundurpet,Tamil Nadu,India,606107
Semmanangur,,Branch Post Office,Delivery,Tamilnadu,Villupuram,Vriddhachalam,Tiruchy,Ulundurpettai,Tamil Nadu,India,606107
Ulundurpet,,Sub Post Office,Delivery,Tamilnadu,Villupuram,Vriddhachalam,Tiruchy,Ulundurpet,Tamil Nadu,India,606107
Ulundurpet Busstand,,Sub Post Office,Non-Delivery,Tamilnadu,Villupuram,Vriddhachalam,Tiruchy,Ulundurpettai,Tamil Nadu,India,606107
Vellaiyur,,Branch Post Office,Delivery,Tamilnadu,Villupuram,Vriddhachalam,Tiruchy,Ulundurpet,Tamil Nadu,India,606107
Alambadi,,Branch Post Office,Delivery,Tamilnadu,Cuddalore,Vriddhachalam,Tiruchy,Tittagudi,Tamil Nadu,India,606108
Avatti,,Branch Post Office,Delivery,Tamilnadu,Cuddalore,Vriddhachalam,Tiruchy,Tittagudi,Tamil Nadu,India,606108
Ma Podaiyur,,Branch Post Office,Delivery,Tamilnadu,Cuddalore,Vriddhachalam,Tiruchy,Tittagudi,Tamil Nadu,India,606108
Malayanur,,Branch Post Office,Delivery,Tamilnadu,Cuddalore,Vriddhachalam,Tiruchy,Tittagudi,Tamil Nadu,India,606108
Mangalur,,Sub Post Office,Delivery,Tamilnadu,Cuddalore,Vriddhachalam,Tiruchy,Tittagudi,Tamil Nadu,India,606108
Orangur,,Branch Post Office,Delivery,Tamilnadu,Cuddalore,Vriddhachalam,Tiruchy,Tittagudi,Tamil Nadu,India,606108
Sirupakkam,,Branch Post Office,Delivery,Tamilnadu,Cuddalore,Vriddhachalam,Tiruchy,Tittagudi,Tamil Nadu,India,606108
Vallimaduram,,Branch Post Office,Delivery,Tamilnadu,Cuddalore,Vriddhachalam,Tiruchy,Tittagudi,Tamil Nadu,India,606108
C  Keeranur,,Branch Post Office,Delivery,Tamilnadu,Cuddalore,Vriddhachalam,Tiruchy,Vriddhachalam,Tamil Nadu,India,606110
Deevalur,,Branch Post Office,Delivery,Tamilnadu,Cuddalore,Vriddhachalam,Tiruchy,Vriddhachalam,Tamil Nadu,India,606110
Karmangudi,,Branch Post Office,Delivery,Tamilnadu,Cuddalore,Vriddhachalam,Tiruchy,Vriddhachalam,Tamil Nadu,India,606110
Karuvepilankurichi,,Sub Post Office,Delivery,Tamilnadu,Cuddalore,Vriddhachalam,Tiruchy,Vriddhachalam,Tamil Nadu,India,606110
Sathiyavadi,,Branch Post Office,Delivery,Tamilnadu,Cuddalore,Vriddhachalam,Tiruchy,Vriddhachalam,Tamil Nadu,India,606110
Sathukudal,,Branch Post Office,Delivery,Tamilnadu,Cuddalore,Vriddhachalam,Tiruchy,Vriddhachalam,Tamil Nadu,India,606110
Therku Vadakku Puthur,,Branch Post Office,Delivery,Tamilnadu,Cuddalore,Vriddhachalam,Tiruchy,Vriddhachalam,Tamil Nadu,India,606110
Avinangudi,,Branch Post Office,Delivery,Tamilnadu,Cuddalore,Vriddhachalam,Tiruchy,Tittakudi,Tamil Nadu,India,606111
Gudalur,,Branch Post Office,Delivery,Tamilnadu,Cuddalore,Vriddhachalam,Tiruchy,Tittagudi,Tamil Nadu,India,606111
Kothattai,,Branch Post Office,Delivery,Tamilnadu,Cuddalore,Vriddhachalam,Tiruchy,Tittagudi,Tamil Nadu,India,606111
Melur,,Branch Post Office,Delivery,Tamilnadu,Cuddalore,Vriddhachalam,Tiruchy,Tittagudi,Tamil Nadu,India,606111
Pennadam R.S.,,Sub Post Office,Delivery,Tamilnadu,Cuddalore,Vriddhachalam,Tiruchy,Tittakudi,Tamil Nadu,India,606111
Pothiramangalam,,Branch Post Office,Delivery,Tamilnadu,Cuddalore,Vriddhachalam,Tiruchy,Tittagudi,Tamil Nadu,India,606111
Sathanatham,,Branch Post Office,Delivery,Tamilnadu,Cuddalore,Vriddhachalam,Tiruchy,Tittakudi,Tamil Nadu,India,606111
Tholar,,Branch Post Office,Delivery,Tamilnadu,Cuddalore,Vriddhachalam,Tiruchy,Tittagudi,Tamil Nadu,India,606111
Tiruvattathurai,,Branch Post Office,Delivery,Tamilnadu,Cuddalore,Vriddhachalam,Tiruchy,Tittagudi,Tamil Nadu,India,606111
Aladi,,Branch Post Office,Delivery,Tamilnadu,Villupuram,Vriddhachalam,Tiruchy,Ulundurpet,Tamil Nadu,India,606115
Irulakurichi,,Branch Post Office,Delivery,Tamilnadu,Villupuram,Vriddhachalam,Tiruchy,Ulundurpet,Tamil Nadu,India,606115
Koo-kallakurichi,,Branch Post Office,Delivery,Tamilnadu,Villupuram,Vriddhachalam,Tiruchy,Ulundurpet,Tamil Nadu,India,606115
Padur,,Sub Post Office,Delivery,Tamilnadu,Villupuram,Vriddhachalam,Tiruchy,Ulundurpet,Tamil Nadu,India,606115
Palakollai,,Branch Post Office,Delivery,Tamilnadu,Villupuram,Vriddhachalam,Tiruchy,Ulundurpet,Tamil Nadu,India,606115
Senkurichi,,Branch Post Office,Delivery,Tamilnadu,Villupuram,Vriddhachalam,Tiruchy,Ulundurpet,Tamil Nadu,India,606115
Ammaiagaram,,Branch Post Office,Delivery,Tamilnadu,Villupuram,Vriddhachalam,Tiruchy,Kallakurichi,Tamil Nadu,India,606201
Chinnasalem,,Sub Post Office,Delivery,Tamilnadu,Villupuram,Vriddhachalam,Tiruchy,Kallakurichi,Tamil Nadu,India,606201
Dagamtheerthapuram,,Branch Post Office,Delivery,Tamilnadu,Villupuram,Vriddhachalam,Tiruchy,Kallakurichi,Tamil Nadu,India,606201
Kaniyamur,,Branch Post Office,Delivery,Tamilnadu,Villupuram,Vriddhachalam,Tiruchy,Kallakurichi,Tamil Nadu,India,606201
Melnariyappanur,,Branch Post Office,Delivery,Tamilnadu,Villupuram,Vriddhachalam,Tiruchy,Kallakurichi,Tamil Nadu,India,606201
Melur,,Branch Post Office,Delivery,Tamilnadu,Villupuram,Vriddhachalam,Tiruchy,Kallakurichi,Tamil Nadu,India,606201
Moongilpadi,,Branch Post Office,Delivery,Tamilnadu,Villupuram,Vriddhachalam,Tiruchy,Kallakurichi,Tamil Nadu,India,606201
Paithanthurai,,Branch Post Office,Delivery,Tamilnadu,Villupuram,Vriddhachalam,Tiruchy,Kallakurichi,Tamil Nadu,India,606201
Pandiyankuppam,,Branch Post Office,Delivery,Tamilnadu,Villupuram,Vriddhachalam,Tiruchy,Kallakurichi,Tamil Nadu,India,606201
Pethanur,,Branch Post Office,Delivery,Tamilnadu,Villupuram,Vriddhachalam,Tiruchy,Kallakurichi,Tamil Nadu,India,606201
Siruvathur,,Branch Post Office,Delivery,Tamilnadu,Villupuram,Vriddhachalam,Tiruchy,Kallakurichi,Tamil Nadu,India,606201
Thengiyanatham,,Branch Post Office,Delivery,Tamilnadu,Villupuram,Vriddhachalam,Tiruchy,Kallakurichi,Tamil Nadu,India,606201
Thottiyam,,Branch Post Office,Delivery,Tamilnadu,Villupuram,Vriddhachalam,Tiruchy,Kallakurichi,Tamil Nadu,India,606201
Vettiperumalagaram,,Branch Post Office,Delivery,Tamilnadu,Villupuram,Vriddhachalam,Tiruchy,Kallakurichi,Tamil Nadu,India,606201
Kallakurichi,,Head Post Office,Delivery,Tamilnadu,Villupuram,Vriddhachalam,Tiruchy,Kallakurichi,Tamil Nadu,India,606202
Kongarayapalayam,,Branch Post Office,Delivery,Tamilnadu,Villupuram,Vriddhachalam,Tiruchy,Kallakurichi,Tamil Nadu,India,606203
Malaikottalam,,Branch Post Office,Delivery,Tamilnadu,Villupuram,Vriddhachalam,Tiruchy,Kallakurichi,Tamil Nadu,India,606203
Mudiyanur,,Branch Post Office,Delivery,Tamilnadu,Villupuram,Vriddhachalam,Tiruchy,Kallakurichi,Tamil Nadu,India,606203
Nagalur,,Sub Post Office,Delivery,Tamilnadu,Villupuram,Vriddhachalam,Tiruchy,Kallakurichi,Tamil Nadu,India,606203
Porasakurichi,,Branch Post Office,Delivery,Tamilnadu,Villupuram,Vriddhachalam,Tiruchy,Kallakurichi,Tamil Nadu,India,606203
Pudu Uchimedu,,Branch Post Office,Delivery,Tamilnadu,Villupuram,Vriddhachalam,Tiruchy,Kallakurichi,Tamil Nadu,India,606203
Sethuvarayankuppam,,Branch Post Office,Delivery,Tamilnadu,Villupuram,Vriddhachalam,Tiruchy,Kallakurichi,Tamil Nadu,India,606203
Varanjaram,,Branch Post Office,Delivery,Tamilnadu,Villupuram,Vriddhachalam,Tiruchy,Kallakurichi,Tamil Nadu,India,606203
Virugavur,,Branch Post Office,Delivery,Tamilnadu,Villupuram,Vriddhachalam,Tiruchy,Kallakurichi,Tamil Nadu,India,606203
Ammakalathur,,Branch Post Office,Delivery,Tamilnadu,Villupuram,Vriddhachalam,Tiruchy,Kallakurichi,Tamil Nadu,India,606204
Asakalathur,,Branch Post Office,Delivery,Tamilnadu,Villupuram,Vriddhachalam,Tiruchy,Kallakurichi,Tamil Nadu,India,606204
Eyyanur,,Branch Post Office,Delivery,Tamilnadu,Villupuram,Vriddhachalam,Tiruchy,Kallakurichi,Tamil Nadu,India,606204
Iriyur,,Branch Post Office,Delivery,Tamilnadu,Villupuram,Vriddhachalam,Tiruchy,Kallakurichi,Tamil Nadu,India,606204
Maligaimedu,,Branch Post Office,Delivery,Tamilnadu,Villupuram,Vriddhachalam,Tiruchy,Kallakurichi,Tamil Nadu,India,606204
Olagiyanallur,,Branch Post Office,Delivery,Tamilnadu,Villupuram,Vriddhachalam,Tiruchy,Kallakurichi,Tamil Nadu,India,606204
Perumangalam,,Branch Post Office,Delivery,Tamilnadu,Villupuram,Vriddhachalam,Tiruchy,Kallakurichi,Tamil Nadu,India,606204
Pukkiravari,,Sub Post Office,Delivery,Tamilnadu,Villupuram,Vriddhachalam,Tiruchy,Kallakurichi,Tamil Nadu,India,606204
S. Ohaiyur,,Branch Post Office,Delivery,Tamilnadu,Villupuram,Vriddhachalam,Tiruchy,Kallakurichi,Tamil Nadu,India,606204
Thensiruvalur,,Branch Post Office,Delivery,Tamilnadu,Villupuram,Vriddhachalam,Tiruchy,Kallakurichi,Tamil Nadu,India,606204
Thenthorasalur,,Branch Post Office,Delivery,Tamilnadu,Villupuram,Vriddhachalam,Tiruchy,Kallakurichi,Tamil Nadu,India,606204
Komalur,,Branch Post Office,Delivery,Tamilnadu,Villupuram,Vriddhachalam,Tiruchy,Sankarapuram,Tamil Nadu,India,606205
La- Gudalur,,Branch Post Office,Delivery,Tamilnadu,Villupuram,Vriddhachalam,Tiruchy,Sankarapuram,Tamil Nadu,India,606205
Mandagapadi,,Branch Post Office,Delivery,Tamilnadu,Villupuram,Vriddhachalam,Tiruchy,Sankarapuram,Tamil Nadu,India,606205
Munivalai,,Branch Post Office,Delivery,Tamilnadu,Villupuram,Vriddhachalam,Tiruchy,Sankarapuram,Tamil Nadu,India,606205
Nurolai,,Branch Post Office,Delivery,Tamilnadu,Villupuram,Vriddhachalam,Tiruchy,Sankarapuram,Tamil Nadu,India,606205
Pasar,,Branch Post Office,Delivery,Tamilnadu,Villupuram,Vriddhachalam,Tiruchy,Sankarapuram,Tamil Nadu,India,606205
Rishivandiyam,,Sub Post Office,Delivery,Tamilnadu,Villupuram,Vriddhachalam,Tiruchy,Sankarapuram,Tamil Nadu,India,606205
Sathaputhur,,Branch Post Office,Delivery,Tamilnadu,Villupuram,Vriddhachalam,Tiruchy,Sankarapuram,Tamil Nadu,India,606205
Seedevi,,Branch Post Office,Delivery,Tamilnadu,Villupuram,Vriddhachalam,Tiruchy,Sankarapuram,Tamil Nadu,India,606205
Sikkadu,,Branch Post Office,Delivery,Tamilnadu,Villupuram,Vriddhachalam,Tiruchy,Sankarapuram,Tamil Nadu,India,606205
Madur,,Branch Post Office,Delivery,Tamilnadu,Villupuram,Vriddhachalam,Tiruchy,Kallakurichi,Tamil Nadu,India,606206
Palayasiruvangur,,Branch Post Office,Delivery,Tamilnadu,Villupuram,Vriddhachalam,Tiruchy,Kallakurichi,Tamil Nadu,India,606206
Pallagacherry,,Branch Post Office,Delivery,Tamilnadu,Villupuram,Vriddhachalam,Tiruchy,Kallakurichi,Tamil Nadu,India,606206
Peelamedu,,Branch Post Office,Delivery,Tamilnadu,Villupuram,Vriddhachalam,Tiruchy,Kallakurichi,Tamil Nadu,India,606206
Periyamampattu,,Branch Post Office,Delivery,Tamilnadu,Villupuram,Vriddhachalam,Tiruchy,Kallakkurichi,Tamil Nadu,India,606206
Prithivimangalam,,Branch Post Office,Delivery,Tamilnadu,Villupuram,Vriddhachalam,Tiruchy,Kallakurichi,Tamil Nadu,India,606206
Sithalur,,Branch Post Office,Delivery,Tamilnadu,Villupuram,Vriddhachalam,Tiruchy,Kallakurichi,Tamil Nadu,India,606206
Sulankurichi,,Branch Post Office,Delivery,Tamilnadu,Villupuram,Vriddhachalam,Tiruchy,Kallakurichi,Tamil Nadu,India,606206
Timmalai,,Branch Post Office,Delivery,Tamilnadu,Villupuram,Vriddhachalam,Tiruchy,Kallakurichi,Tamil Nadu,India,606206
Tiyagadrug,,Sub Post Office,Delivery,Tamilnadu,Villupuram,Vriddhachalam,Tiruchy,Kallakurichi,Tamil Nadu,India,606206
Tiyagai,,Branch Post Office,Delivery,Tamilnadu,Villupuram,Vriddhachalam,Tiruchy,Kallakurichi,Tamil Nadu,India,606206
Vadathorasalur,,Branch Post Office,Delivery,Tamilnadu,Villupuram,Vriddhachalam,Tiruchy,Kallakurichi,Tamil Nadu,India,606206
Veeracholapuram,,Branch Post Office,Delivery,Tamilnadu,Villupuram,Vriddhachalam,Tiruchy,Kallakurichi,Tamil Nadu,India,606206
Vengaivadi,,Branch Post Office,Delivery,Tamilnadu,Villupuram,Vriddhachalam,Tiruchy,Kallakurichi,Tamil Nadu,India,606206
Vilakkur,,Branch Post Office,Delivery,Tamilnadu,Villupuram,Vriddhachalam,Tiruchy,Kallakurichi,Tamil Nadu,India,606206
Chellampattu,,Branch Post Office,Delivery,Tamilnadu,Villupuram,Vriddhachalam,Tiruchy,Kallakurichi,Tamil Nadu,India,606207
Eduthavainatham,,Branch Post Office,Delivery,Tamilnadu,Villupuram,Vriddhachalam,Tiruchy,Kallakurichi,Tamil Nadu,India,606207
Eruvaipattinam,,Branch Post Office,Delivery,Tamilnadu,Villupuram,Vriddhachalam,Tiruchy,Kallakurichi,Tamil Nadu,India,606207
Kachirapalayam,,Branch Post Office,Delivery,Tamilnadu,Villupuram,Vriddhachalam,Tiruchy,Kallakurichi,Tamil Nadu,India,606207
Karadichittur,,Branch Post Office,Delivery,Tamilnadu,Villupuram,Vriddhachalam,Tiruchy,Kallakurichi,Tamil Nadu,India,606207
Madavacherry,,Branch Post Office,Delivery,Tamilnadu,Villupuram,Vriddhachalam,Tiruchy,Kallakurichi,Tamil Nadu,India,606207
Malliyapadi,,Branch Post Office,Delivery,Tamilnadu,Villupuram,Vriddhachalam,Tiruchy,Kallakurichi,Tamil Nadu,India,606207
Manmalai,,Branch Post Office,Delivery,Tamilnadu,Villupuram,Vriddhachalam,Tiruchy,Kallakurichi,Tamil Nadu,India,606207
Mathur,,Branch Post Office,Delivery,Tamilnadu,Villupuram,Vriddhachalam,Tiruchy,Kallakurichi,Tamil Nadu,India,606207
Mattaparai,,Branch Post Office,Delivery,Tamilnadu,Villupuram,Vriddhachalam,Tiruchy,Sankarapuram,Tamil Nadu,India,606207
Pottiyam,,Branch Post Office,Delivery,Tamilnadu,Villupuram,Vriddhachalam,Tiruchy,Kallakurichi,Tamil Nadu,India,606207
Vadakkanandal,,Sub Post Office,Delivery,Tamilnadu,Villupuram,Vriddhachalam,Tiruchy,Kallakurichi,Tamil Nadu,India,606207
Venkatampettai,,Branch Post Office,Delivery,Tamilnadu,Villupuram,Vriddhachalam,Tiruchy,Sankarapuram,Tamil Nadu,India,606207
Alathur,,Branch Post Office,Delivery,Tamilnadu,Villupuram,Vriddhachalam,Tiruchy,Sankarapuram,Tamil Nadu,India,606208
Cholampattu,,Branch Post Office,Delivery,Tamilnadu,Villupuram,Vriddhachalam,Tiruchy,Sankarapuram,Tamil Nadu,India,606208
Kilapattu,,Branch Post Office,Delivery,Tamilnadu,Villupuram,Vriddhachalam,Tiruchy,Sankarapuram,Tamil Nadu,India,606208
Manjaputhur,,Branch Post Office,Delivery,Tamilnadu,Villupuram,Vriddhachalam,Tiruchy,Sankarapuram,Tamil Nadu,India,606208
Murarbad,,Sub Post Office,Delivery,Tamilnadu,Villupuram,Vriddhachalam,Tiruchy,Sankapuram,Tamil Nadu,India,606208
Nedumanur,,Branch Post Office,Delivery,Tamilnadu,Villupuram,Vriddhachalam,Tiruchy,Sankarapuram,Tamil Nadu,India,606208
Arampoondi,,Branch Post Office,Delivery,Tamilnadu,Villupuram,Vriddhachalam,Tiruchy,Kallakurichi,Tamil Nadu,India,606209
Innadu,,Branch Post Office,Delivery,Tamilnadu,Villupuram,Vriddhachalam,Tiruchy,Kallakurichi,Tamil Nadu,India,606209
Kariyalur,,Branch Post Office,Delivery,Tamilnadu,Villupuram,Vriddhachalam,Tiruchy,Kallakurichi,Tamil Nadu,India,606209
Kodumathi,,Branch Post Office,Delivery,Tamilnadu,Villupuram,Vriddhachalam,Tiruchy,Sankarapuram,Tamil Nadu,India,606209
Kottapudur,,Branch Post Office,Delivery,Tamilnadu,Villupuram,Vriddhachalam,Tiruchy,Sankarapuram,Tamil Nadu,India,606209
Madhur,,Branch Post Office,Delivery,Tamilnadu,Villupuram,Vriddhachalam,Tiruchy,Sankarapuram,Tamil Nadu,India,606209
Maniyampalayam,,Branch Post Office,Delivery,Tamilnadu,Villupuram,Vriddhachalam,Tiruchy,Kallakurichi,Tamil Nadu,India,606209
Mundiyur,,Branch Post Office,Delivery,Tamilnadu,Villupuram,Vriddhachalam,Tiruchy,Kallakurichi,Tamil Nadu,India,606209
Nochimedu,,Branch Post Office,Delivery,Tamilnadu,Villupuram,Vriddhachalam,Tiruchy,Kallakurichi,Tamil Nadu,India,606209
Throadipattu,,Branch Post Office,Delivery,Tamilnadu,Villupuram,Vriddhachalam,Tiruchy,Kallakurichi,Tamil Nadu,India,606209
Uppur,,Branch Post Office,Delivery,Tamilnadu,Villupuram,Vriddhachalam,Tiruchy,Kallakurichi,Tamil Nadu,India,606209
Vazhapadi,,Branch Post Office,Delivery,Tamilnadu,Villupuram,Vriddhachalam,Tiruchy,Kallakurichi,Tamil Nadu,India,606209
Vellimalai,,Sub Post Office,Delivery,Tamilnadu,Villupuram,Vriddhachalam,Tiruchy,Chinnasalem Taluk,Tamil Nadu,India,606209
Agarakottalam,,Branch Post Office,Delivery,Tamilnadu,Villupuram,Vriddhachalam,Tiruchy,Kallakurichi,Tamil Nadu,India,606213
K.Alambalam,,Branch Post Office,Delivery,Tamilnadu,Villupuram,Vriddhachalam,Tiruchy,Kallakurichi,Tamil Nadu,India,606213
Kallakurichi South,,Sub Post Office,Delivery,Tamilnadu,Villupuram,Vriddhachalam,Tiruchy,Kallakurichi,Tamil Nadu,India,606213
Kudiraichandal,,Branch Post Office,Delivery,Tamilnadu,Villupuram,Vriddhachalam,Tiruchy,Kallakurichi,Tamil Nadu,India,606213
Nallathur,,Branch Post Office,Delivery,Tamilnadu,Villupuram,Vriddhachalam,Tiruchy,,Tamil Nadu,India,606213
Neelamangalam,,Branch Post Office,Delivery,Tamilnadu,Villupuram,Vriddhachalam,Tiruchy,Kallakurichi,Tamil Nadu,India,606213
Olagankathan,,Branch Post Office,Delivery,Tamilnadu,Villupuram,Vriddhachalam,Tiruchy,Kallakurichi,Tamil Nadu,India,606213
Siruvangur,,Branch Post Office,Delivery,Tamilnadu,Villupuram,Vriddhachalam,Tiruchy,Kallakkurichi,Tamil Nadu,India,606213
Somandargudi,,Branch Post Office,Delivery,Tamilnadu,Villupuram,Vriddhachalam,Tiruchy,Kallakurichi,Tamil Nadu,India,606213
Thachur,,Branch Post Office,Delivery,Tamilnadu,Villupuram,Vriddhachalam,Tiruchy,Kallakurichi,Tamil Nadu,India,606213
Thandalai,,Branch Post Office,Delivery,Tamilnadu,Villupuram,Vriddhachalam,Tiruchy,Kallakurichi,Tamil Nadu,India,606213
Thenkeeranur,,Branch Post Office,Delivery,Tamilnadu,Villupuram,Vriddhachalam,Tiruchy,Kallakurichi,Tamil Nadu,India,606213
Vilambar,,Branch Post Office,Delivery,Tamilnadu,Villupuram,Vriddhachalam,Tiruchy,,Tamil Nadu,India,606213
Anumanandal,,Branch Post Office,Delivery,Tamilnadu,Villupuram,Vriddhachalam,Tiruchy,Kallakurichi,Tamil Nadu,India,606301
Karunthalakurichi,,Branch Post Office,Delivery,Tamilnadu,Villupuram,Vriddhachalam,Tiruchy,Kallakurichi,Tamil Nadu,India,606301
Kugaiyur,,Branch Post Office,Delivery,Tamilnadu,Villupuram,Vriddhachalam,Tiruchy,Villupuram,Tamil Nadu,India,606301
Nainarpalayam,,Sub Post Office,Delivery,Tamilnadu,Villupuram,Vriddhachalam,Tiruchy,Villupuram,Tamil Nadu,India,606301
Pakkampadi,,Branch Post Office,Delivery,Tamilnadu,Villupuram,Vriddhachalam,Tiruchy,Kallakurichi,Tamil Nadu,India,606301
S. Naraiyur,,Branch Post Office,Delivery,Tamilnadu,Villupuram,Vriddhachalam,Tiruchy,Kallakurichi,Tamil Nadu,India,606301
Thottapadi,,Branch Post Office,Delivery,Tamilnadu,Villupuram,Vriddhachalam,Tiruchy,Kallakurichi,Tamil Nadu,India,606301
V  Alambalam,,Branch Post Office,Delivery,Tamilnadu,Villupuram,Vriddhachalam,Tiruchy,Kallakurichi,Tamil Nadu,India,606301
V  Mamandur,,Branch Post Office,Delivery,Tamilnadu,Villupuram,Vriddhachalam,Tiruchy,Kallakurichi,Tamil Nadu,India,606301
Edaiyur,,Branch Post Office,Delivery,Tamilnadu,Cuddalore,Vriddhachalam,Tiruchy,Vriddhachalam,Tamil Nadu,India,606302
Nagar,,Branch Post Office,Delivery,Tamilnadu,Cuddalore,Vriddhachalam,Tiruchy,Vriddhachalam,Tamil Nadu,India,606302
Nallur (Cuddalore),,Sub Post Office,Delivery,Tamilnadu,Cuddalore,Vriddhachalam,Tiruchy,Vriddhachalam,Tamil Nadu,India,606302
Perambalur,,Branch Post Office,Delivery,Tamilnadu,Cuddalore,Vriddhachalam,Tiruchy,Vriddhachalam,Tamil Nadu,India,606302
Sathiyam,,Branch Post Office,Delivery,Tamilnadu,Cuddalore,Vriddhachalam,Tiruchy,Vriddhachalam,Tamil Nadu,India,606302
Seppakkam,,Branch Post Office,Delivery,Tamilnadu,Cuddalore,Vriddhachalam,Tiruchy,Vriddhachalam,Tamil Nadu,India,606302
Sirumangalam,,Branch Post Office,Delivery,Tamilnadu,Cuddalore,Vriddhachalam,Tiruchy,Vriddhachalam,Tamil Nadu,India,606302
Varambanur,,Branch Post Office,Delivery,Tamilnadu,Cuddalore,Vriddhachalam,Tiruchy,Vriddhachalam,Tamil Nadu,India,606302
Vilangattur,,Branch Post Office,Delivery,Tamilnadu,Cuddalore,Vriddhachalam,Tiruchy,Virudhachalam,Tamil Nadu,India,606302
Alathur,,Branch Post Office,Delivery,Tamilnadu,Cuddalore,Vriddhachalam,Tiruchy,Tittagudi,Tamil Nadu,India,606303
Eluthur,,Branch Post Office,Delivery,Tamilnadu,Cuddalore,Vriddhachalam,Tiruchy,Tittagudi,Tamil Nadu,India,606303
Kilakalpoondi,,Branch Post Office,Delivery,Tamilnadu,Cuddalore,Vriddhachalam,Tiruchy,Tittagudi,Tamil Nadu,India,606303
Korakkavadi,,Branch Post Office,Delivery,Tamilnadu,Cuddalore,Vriddhachalam,Tiruchy,Tittagudi,Tamil Nadu,India,606303
Lakkur,,Branch Post Office,Delivery,Tamilnadu,Cuddalore,Vriddhachalam,Tiruchy,Tittagudi,Tamil Nadu,India,606303
Thachur,,Branch Post Office,Delivery,Tamilnadu,Cuddalore,Vriddhachalam,Tiruchy,Tittagudi,Tamil Nadu,India,606303
Toludur,,Sub Post Office,Delivery,Tamilnadu,Cuddalore,Vriddhachalam,Tiruchy,Tittagudi,Tamil Nadu,India,606303
Vaithiyanathapuram,,Branch Post Office,Delivery,Tamilnadu,Cuddalore,Vriddhachalam,Tiruchy,Tittagudi,Tamil Nadu,India,606303
Venganur,,Branch Post Office,Delivery,Tamilnadu,Cuddalore,Vriddhachalam,Tiruchy,Tittagudi,Tamil Nadu,India,606303
Adari,,Branch Post Office,Delivery,Tamilnadu,Cuddalore,Vriddhachalam,Tiruchy,Vriddhachalam,Tamil Nadu,India,606304
Kaludur,,Branch Post Office,Delivery,Tamilnadu,Cuddalore,Vriddhachalam,Tiruchy,Vriddhachalam,Tamil Nadu,India,606304
Kattumailur,,Branch Post Office,Delivery,Tamilnadu,Cuddalore,Vriddhachalam,Tiruchy,Vriddhachalam,Tamil Nadu,India,606304
N. Naraiyur,,Branch Post Office,Delivery,Tamilnadu,Cuddalore,Vriddhachalam,Tiruchy,Vriddhachalam,Tamil Nadu,India,606304
Nithinatham,,Branch Post Office,Delivery,Tamilnadu,Cuddalore,Vriddhachalam,Tiruchy,Vriddhachalam,Tamil Nadu,India,606304
Pasar,,Branch Post Office,Delivery,Tamilnadu,Cuddalore,Vriddhachalam,Tiruchy,Vriddhachalam,Tamil Nadu,India,606304
Periyanesalur,,Branch Post Office,Delivery,Tamilnadu,Cuddalore,Vriddhachalam,Tiruchy,Vriddhachalam,Tamil Nadu,India,606304
Pillur,,Branch Post Office,Delivery,Tamilnadu,Cuddalore,Vriddhachalam,Tiruchy,Vriddhachalam,Tamil Nadu,India,606304
Poolambadi,,Branch Post Office,Delivery,Tamilnadu,Cuddalore,Vriddhachalam,Tiruchy,Vriddhachalam,Tamil Nadu,India,606304
Poynapadi,,Branch Post Office,Delivery,Tamilnadu,Cuddalore,Vriddhachalam,Tiruchy,Vriddhachalam,Tamil Nadu,India,606304
Rettakurichi,,Branch Post Office,Delivery,Tamilnadu,Cuddalore,Vriddhachalam,Tiruchy,Vriddhachalam,Tamil Nadu,India,606304
Veppur (SA),,Sub Post Office,Delivery,Tamilnadu,Cuddalore,Vriddhachalam,Tiruchy,Vriddhachalam,Tamil Nadu,India,606304
Asanur,,Sub Post Office,Delivery,Tamilnadu,Villupuram,Vriddhachalam,Tiruchy,Ulundurpet,Tamil Nadu,India,606305
Eranji,,Branch Post Office,Delivery,Tamilnadu,Villupuram,Vriddhachalam,Tiruchy,Ulundurpet,Tamil Nadu,India,606305
Gurupeedapuram,,Branch Post Office,Delivery,Tamilnadu,Villupuram,Vriddhachalam,Tiruchy,Ulundurpet,Tamil Nadu,India,606305
Koothakudi,,Branch Post Office,Delivery,Tamilnadu,Villupuram,Vriddhachalam,Tiruchy,Ulundurpet,Tamil Nadu,India,606305
Ninnaiyur,,Branch Post Office,Delivery,Tamilnadu,Villupuram,Vriddhachalam,Tiruchy,Ulundurpet,Tamil Nadu,India,606305
Parindal,,Branch Post Office,Delivery,Tamilnadu,Villupuram,Vriddhachalam,Tiruchy,Ulundurpet,Tamil Nadu,India,606305
T.Mavidanthal,,Branch Post Office,Delivery,Tamilnadu,Villupuram,Vriddhachalam,Tiruchy,Ulundurpet,Tamil Nadu,India,606305
Tiruppayar,,Branch Post Office,Delivery,Tamilnadu,Villupuram,Vriddhachalam,Tiruchy,Ulundurpet,Tamil Nadu,India,606305
Arasampattu,,Branch Post Office,Delivery,Tamilnadu,Villupuram,Vriddhachalam,Tiruchy,Sankarapuram,Tamil Nadu,India,606401
Kilakkadu,,Branch Post Office,Delivery,Tamilnadu,Villupuram,Vriddhachalam,Tiruchy,Sankarapuram,Tamil Nadu,India,606401
Kosapadi,,Branch Post Office,Delivery,Tamilnadu,Villupuram,Vriddhachalam,Tiruchy,Sankarapuram,Tamil Nadu,India,606401
Mottampatti,,Branch Post Office,Delivery,Tamilnadu,Villupuram,Vriddhachalam,Tiruchy,Sankarapuram,Tamil Nadu,India,606401
Perumbur,,Branch Post Office,Delivery,Tamilnadu,Villupuram,Vriddhachalam,Tiruchy,Sankarapuram,Tamil Nadu,India,606401
Pootai,,Branch Post Office,Delivery,Tamilnadu,Villupuram,Vriddhachalam,Tiruchy,Sankarapuram,Tamil Nadu,India,606401
Poykunam,,Branch Post Office,Delivery,Tamilnadu,Villupuram,Vriddhachalam,Tiruchy,Sankarapuram,Tamil Nadu,India,606401
Pudupalapattu,,Branch Post Office,Delivery,Tamilnadu,Villupuram,Vriddhachalam,Tiruchy,Sankarapuram,Tamil Nadu,India,606401
Sankarapuram (Villupuram),,Sub Post Office,Delivery,Tamilnadu,Villupuram,Vriddhachalam,Tiruchy,Sankarapuram,Tamil Nadu,India,606401
Serapattu,,Branch Post Office,Delivery,Tamilnadu,Villupuram,Vriddhachalam,Tiruchy,Sankarapuram,Tamil Nadu,India,606401
Soundaravallipalayam,,Branch Post Office,Delivery,Tamilnadu,Villupuram,Vriddhachalam,Tiruchy,Sankarapuram,Tamil Nadu,India,606401
Thekkampattu,,Branch Post Office,Delivery,Tamilnadu,Villupuram,Vriddhachalam,Tiruchy,Sankarapuram,Tamil Nadu,India,606401
Vanjikuli,,Branch Post Office,Delivery,Tamilnadu,Villupuram,Vriddhachalam,Tiruchy,Sankarapuram,Tamil Nadu,India,606401
Vellarikadu,,Branch Post Office,Delivery,Tamilnadu,Villupuram,Vriddhachalam,Tiruchy,Sankarapuram,Tamil Nadu,India,606401
Vengodu,,Branch Post Office,Delivery,Tamilnadu,Villupuram,Vriddhachalam,Tiruchy,Sankarapuram,Tamil Nadu,India,606401
Arur,,Branch Post Office,Delivery,Tamilnadu,Villupuram,Vriddhachalam,Tiruchy,Sankarapuram,Tamil Nadu,India,606402
Lakkinayakkanpatti,,Branch Post Office,Delivery,Tamilnadu,Villupuram,Vriddhachalam,Tiruchy,Sankarapuram,Tamil Nadu,India,606402
Mookanur,,Branch Post Office,Delivery,Tamilnadu,Villupuram,Vriddhachalam,Tiruchy,Sankarapuram,Tamil Nadu,India,606402
Pandalam (Villupuram),,Sub Post Office,Delivery,Tamilnadu,Villupuram,Vriddhachalam,Tiruchy,Sankarapuram,Tamil Nadu,India,606402
Pudupattu,,Branch Post Office,Delivery,Tamilnadu,Villupuram,Vriddhachalam,Tiruchy,Sankarapuram,Tamil Nadu,India,606402
Puthirampattu,,Branch Post Office,Delivery,Tamilnadu,Villupuram,Vriddhachalam,Tiruchy,Sankarapuram,Tamil Nadu,India,606402
Rangappanur,,Branch Post Office,Delivery,Tamilnadu,Villupuram,Vriddhachalam,Tiruchy,Sankarapuram,Tamil Nadu,India,606402
Ravathanallur,,Branch Post Office,Delivery,Tamilnadu,Villupuram,Vriddhachalam,Tiruchy,Sankarapuram,Tamil Nadu,India,606402
S.Kolathur,,Branch Post Office,Delivery,Tamilnadu,Villupuram,Vriddhachalam,Tiruchy,Sankarapuram,Tamil Nadu,India,606402
Viriyur,,Branch Post Office,Delivery,Tamilnadu,Villupuram,Vriddhachalam,Tiruchy,Sankarapuram,Tamil Nadu,India,606402
Ayyankulam,,Sub Post Office,Non-Delivery,Tamilnadu,Tiruvannamalai,Tiruvannamalai,Chennai Region,Tiruvannamalai,Tamil Nadu,India,606601
Kalnagar,,Sub Post Office,Non-Delivery,Tamilnadu,Tiruvannamalai,Tiruvannamalai,Chennai Region,Tiruvannamalai,Tamil Nadu,India,606601
Kilnathur,,Branch Post Office,Delivery,Tamilnadu,Tiruvannamalai,Tiruvannamalai,Chennai Region,Tiruvananmalai,Tamil Nadu,India,606601
Saron,,Branch Post Office,Delivery,Tamilnadu,Tiruvannamalai,Tiruvannamalai,Chennai Region,Tiruvannamalai,Tamil Nadu,India,606601
Tiruvannamalai,,Head Post Office,Delivery,Tamilnadu,Tiruvannamalai,Tiruvannamalai,Chennai Region,Tiruvannamalai,Tamil Nadu,India,606601
Tiruvannamalai Bazaar,,Sub Post Office,Non-Delivery,Tamilnadu,Tiruvannamalai,Tiruvannamalai,Chennai Region,Tiruvannamalai,Tamil Nadu,India,606601
Tiruvannamalai RS,,Sub Post Office,Non-Delivery,Tamilnadu,Tiruvannamalai,Tiruvannamalai,Chennai Region,Tiruvannamalai,Tamil Nadu,India,606601
Ayyampalayam,,Branch Post Office,Delivery,Tamilnadu,Tiruvannamalai,Tiruvannamalai,Chennai Region,Tiruvannamalai,Tamil Nadu,India,606603
Nallavanpalayam,,Branch Post Office,Delivery,Tamilnadu,Tiruvannamalai,Tiruvannamalai,Chennai Region,Tiruvananamalai,Tamil Nadu,India,606603
Pandithapattu,,Branch Post Office,Delivery,Tamilnadu,Tiruvannamalai,Tiruvannamalai,Chennai Region,Tiruvannamalai,Tamil Nadu,India,606603
Sriramanashramam,,Sub Post Office,Delivery,Tamilnadu,Tiruvannamalai,Tiruvannamalai,Chennai Region,,Tamil Nadu,India,606603
Thenmathur,,Branch Post Office,Delivery,Tamilnadu,Tiruvannamalai,Tiruvannamalai,Chennai Region,Tiruvannamalai,Tamil Nadu,India,606603
Adaiyur,,Branch Post Office,Delivery,Tamilnadu,Tiruvannamalai,Tiruvannamalai,Chennai Region,Tiruvannamalai,Tamil Nadu,India,606604
Adiannamalai,,Branch Post Office,Delivery,Tamilnadu,Tiruvannamalai,Tiruvannamalai,Chennai Region,,Tamil Nadu,India,606604
Esanyamadam,,Sub Post Office,Non-Delivery,Tamilnadu,Tiruvannamalai,Tiruvannamalai,Chennai Region,Tiruvannamalai,Tamil Nadu,India,606604
Inamkariyandal,,Branch Post Office,Delivery,Tamilnadu,Tiruvannamalai,Tiruvannamalai,Chennai Region,Tiruvannamalai,Tamil Nadu,India,606604
Kiliyapattu,,Branch Post Office,Delivery,Tamilnadu,Tiruvannamalai,Tiruvannamalai,Chennai Region,Tiruvnannamalai,Tamil Nadu,India,606604
Vengikkal,,Sub Post Office,Delivery,Tamilnadu,Tiruvannamalai,Tiruvannamalai,Chennai Region,Tiruvannamalai,Tamil Nadu,India,606604
Kanalapadi,,Branch Post Office,Delivery,Tamilnadu,Tiruvannamalai,Tiruvannamalai,Chennai Region,Tiruvannamalai,Tamil Nadu,India,606611
Kilnachipattu,,Branch Post Office,Delivery,Tamilnadu,Tiruvannamalai,Tiruvannamalai,Chennai Region,Tiruvannamalai,Tamil Nadu,India,606611
Malappambadi,,Branch Post Office,Delivery,Tamilnadu,Tiruvannamalai,Tiruvannamalai,Chennai Region,Tiruvannamalai,Tamil Nadu,India,606611
Pallikondapattu,,Branch Post Office,Delivery,Tamilnadu,Tiruvannamalai,Tiruvannamalai,Chennai Region,Tiruvannamalai,Tamil Nadu,India,606611
Somasipadi,,Sub Post Office,Delivery,Tamilnadu,Tiruvannamalai,Tiruvannamalai,Chennai Region,Tiruvannamalai,Tamil Nadu,India,606611
Vedanatham,,Branch Post Office,Delivery,Tamilnadu,Tiruvannamalai,Tiruvannamalai,Chennai Region,Tiruvannamalai,Tamil Nadu,India,606611
Chengam,,Sub Post Office,Delivery,Tamilnadu,Tiruvannamalai,Tiruvannamalai,Chennai Region,Chengam,Tamil Nadu,India,606701
Chennasamudram,,Branch Post Office,Delivery,Tamilnadu,Tiruvannamalai,Tiruvannamalai,Chennai Region,Chengam,Tamil Nadu,India,606701
Kayambattu,,Branch Post Office,Delivery,Tamilnadu,Tiruvannamalai,Tiruvannamalai,Chennai Region,Chengam,Tamil Nadu,India,606701
Thithandapattu,,Branch Post Office,Delivery,Tamilnadu,Tiruvannamalai,Tiruvannamalai,Chennai Region,Chengam,Tamil Nadu,India,606701
Valayampattu,,Branch Post Office,Delivery,Tamilnadu,Tiruvannamalai,Tiruvannamalai,Chennai Region,Chengam,Tamil Nadu,India,606701
Alathur,,Branch Post Office,Delivery,Tamilnadu,Tiruvannamalai,Tiruvannamalai,Chennai Region,Chengam,Tamil Nadu,India,606702
C Nammiandal,,Branch Post Office,Delivery,Tamilnadu,Tiruvannamalai,Tiruvannamalai,Chennai Region,Chengam,Tamil Nadu,India,606702
Japthikariandal,,Branch Post Office,Delivery,Tamilnadu,Tiruvannamalai,Tiruvannamalai,Chennai Region,Chengam,Tamil Nadu,India,606702
Kallarai Padi,,Branch Post Office,Delivery,Tamilnadu,Tiruvannamalai,Tiruvannamalai,Chennai Region,Chengam,Tamil Nadu,India,606702
Kanji,,Sub Post Office,Delivery,Tamilnadu,Tiruvannamalai,Tiruvannamalai,Chennai Region,Chengam,Tamil Nadu,India,606702
Melpadur,,Branch Post Office,Delivery,Tamilnadu,Tiruvannamalai,Tiruvannamalai,Chennai Region,Chengam,Tamil Nadu,India,606702
Vadamathur,,Branch Post Office,Delivery,Tamilnadu,Tiruvannamalai,Tiruvannamalai,Chennai Region,Chengam,Tamil Nadu,India,606702
Andipattu,,Branch Post Office,Delivery,Tamilnadu,Tiruvannamalai,Tiruvannamalai,Chennai Region,Chengam,Tamil Nadu,India,606703
Arasankanni,,Branch Post Office,Delivery,Tamilnadu,Tiruvannamalai,Tiruvannamalai,Chennai Region,Chengam,Tamil Nadu,India,606703
Elangunni,,Branch Post Office,Delivery,Tamilnadu,Tiruvannamalai,Tiruvannamalai,Chennai Region,Chengam,Tamil Nadu,India,606703
Melarvandavadi,,Branch Post Office,Delivery,Tamilnadu,Tiruvannamalai,Tiruvannamalai,Chennai Region,Chengam,Tamil Nadu,India,606703
Melchengam,,Branch Post Office,Delivery,Tamilnadu,Tiruvannamalai,Tiruvannamalai,Chennai Region,Chengam,Tamil Nadu,India,606703
Melpallipattu,,Sub Post Office,Delivery,Tamilnadu,Tiruvannamalai,Tiruvannamalai,Chennai Region,Chengam,Tamil Nadu,India,606703
Melvanakakambadi,,Branch Post Office,Delivery,Tamilnadu,Tiruvannamalai,Tiruvannamalai,Chennai Region,Chengam,Tamil Nadu,India,606703
Neepathurai,,Branch Post Office,Delivery,Tamilnadu,Tiruvannamalai,Tiruvannamalai,Chennai Region,Chengam,Tamil Nadu,India,606703
Puliyampatti,,Branch Post Office,Delivery,Tamilnadu,Tiruvannamalai,Tiruvannamalai,Chennai Region,Chengam,Tamil Nadu,India,606703
Eraiyur,,Branch Post Office,Delivery,Tamilnadu,Tiruvannamalai,Tiruvannamalai,Chennai Region,,Tamil Nadu,India,606704
Kilpaliyapattu,,Branch Post Office,Delivery,Tamilnadu,Tiruvannamalai,Tiruvannamalai,Chennai Region,Chengam,Tamil Nadu,India,606704
Melmudiyanur,,Branch Post Office,Delivery,Tamilnadu,Tiruvannamalai,Tiruvannamalai,Chennai Region,Chengam,Tamil Nadu,India,606704
Melnachipattu,,Branch Post Office,Delivery,Tamilnadu,Tiruvannamalai,Tiruvannamalai,Chennai Region,Chengam,Tamil Nadu,India,606704
Melpennathur,,Branch Post Office,Delivery,Tamilnadu,Tiruvannamalai,Tiruvannamalai,Chennai Region,Chengam,Tamil Nadu,India,606704
Pachal (Tiruvannamalai),,Sub Post Office,Delivery,Tamilnadu,Tiruvannamalai,Tiruvannamalai,Chennai Region,Chengam,Tamil Nadu,India,606704
Periyakolapadi,,Branch Post Office,Delivery,Tamilnadu,Tiruvannamalai,Tiruvannamalai,Chennai Region,Chengam,Tamil Nadu,India,606704
Thorapadi,,Branch Post Office,Delivery,Tamilnadu,Tiruvannamalai,Tiruvannamalai,Chennai Region,Chengam,Tamil Nadu,India,606704
Vasudevampattu,,Branch Post Office,Delivery,Tamilnadu,Tiruvannamalai,Tiruvannamalai,Chennai Region,Chengam,Tamil Nadu,India,606704
Karapattu,,Branch Post Office,Delivery,Tamilnadu,Tiruvannamalai,Tiruvannamalai,Chennai Region,Chengam,Tamil Nadu,India,606705
Kilkuppam,,Branch Post Office,Delivery,Tamilnadu,Tiruvannamalai,Tiruvannamalai,Chennai Region,Polur,Tamil Nadu,India,606705
Munnurmangalam,,Branch Post Office,Delivery,Tamilnadu,Tiruvannamalai,Tiruvannamalai,Chennai Region,Chengam,Tamil Nadu,India,606705
Padiagraharam,,Branch Post Office,Delivery,Tamilnadu,Tiruvannamalai,Tiruvannamalai,Chennai Region,Chegam,Tamil Nadu,India,606705
Pudupalayam (Tiruvannamalai),,Sub Post Office,Delivery,Tamilnadu,Tiruvannamalai,Tiruvannamalai,Chennai Region,,Tamil Nadu,India,606705
Pudur Chengam,,Branch Post Office,Delivery,Tamilnadu,Tiruvannamalai,Tiruvannamalai,Chennai Region,Chengam,Tamil Nadu,India,606705
Veeranandal,,Branch Post Office,Delivery,Tamilnadu,Tiruvannamalai,Tiruvannamalai,Chennai Region,,Tamil Nadu,India,606705
Kolundampattu,,Branch Post Office,Delivery,Tamilnadu,Tiruvannamalai,Tiruvannamalai,Chennai Region,Chengam,Tamil Nadu,India,606706
S Sorpanandal,,Branch Post Office,Delivery,Tamilnadu,Tiruvannamalai,Tiruvannamalai,Chennai Region,Chengam,Tamil Nadu,India,606706
Sathanur,,Branch Post Office,Delivery,Tamilnadu,Tiruvannamalai,Tiruvannamalai,Chennai Region,Chengam,Tamil Nadu,India,606706
Sathanurdam,,Sub Post Office,Delivery,Tamilnadu,Tiruvannamalai,Tiruvannamalai,Chennai Region,Chengam,Tamil Nadu,India,606706
Veppurchekkadi,,Branch Post Office,Delivery,Tamilnadu,Tiruvannamalai,Tiruvannamalai,Chennai Region,Chengam,Tamil Nadu,India,606706
Edathanur,,Branch Post Office,Delivery,Tamilnadu,Tiruvannamalai,Tiruvannamalai,Chennai Region,Chengam,Tamil Nadu,India,606707
Kilsirupakkam,,Branch Post Office,Delivery,Tamilnadu,Tiruvannamalai,Tiruvannamalai,Chennai Region,Chengam,Tamil Nadu,India,606707
Kilvanakkambadi,,Branch Post Office,Delivery,Tamilnadu,Tiruvannamalai,Tiruvannamalai,Chennai Region,Chengam,Tamil Nadu,India,606707
Radhapuram,,Branch Post Office,Delivery,Tamilnadu,Tiruvannamalai,Tiruvannamalai,Chennai Region,Chengam,Tamil Nadu,India,606707
Tandarampattu,,Sub Post Office,Delivery,Tamilnadu,Tiruvannamalai,Tiruvannamalai,Chennai Region,Chengam,Tamil Nadu,India,606707
Taradapattu,,Branch Post Office,Delivery,Tamilnadu,Tiruvannamalai,Tiruvannamalai,Chennai Region,Chengam,Tamil Nadu,India,606707
Thenmudiyanur,,Branch Post Office,Delivery,Tamilnadu,Tiruvannamalai,Tiruvannamalai,Chennai Region,Chengam,Tamil Nadu,India,606707
Athipadi,,Branch Post Office,Delivery,Tamilnadu,Tiruvannamalai,Tiruvannamalai,Chennai Region,Chengam,Tamil Nadu,India,606708
Bhimarapatti,,Branch Post Office,Delivery,Tamilnadu,Tiruvannamalai,Tiruvannamalai,Chennai Region,Chengam,Tamil Nadu,India,606708
Chinnaimpettai,,Branch Post Office,Delivery,Tamilnadu,Tiruvannamalai,Tiruvannamalai,Chennai Region,Chengam,Tamil Nadu,India,606708
Kuttar,,Branch Post Office,Delivery,Tamilnadu,Tiruvannamalai,Tiruvannamalai,Chennai Region,Chengam,Tamil Nadu,India,606708
Malamanjanur,,Branch Post Office,Delivery,Tamilnadu,Tiruvannamalai,Tiruvannamalai,Chennai Region,Chengam,Tamil Nadu,India,606708
Mottakkal,,Branch Post Office,Delivery,Tamilnadu,Tiruvannamalai,Tiruvannamalai,Chennai Region,,Tamil Nadu,India,606708
Narayanakuppam,,Branch Post Office,Delivery,Tamilnadu,Tiruvannamalai,Tiruvannamalai,Chennai Region,Chengam,Tamil Nadu,India,606708
P Quilam,,Branch Post Office,Delivery,Tamilnadu,Tiruvannamalai,Tiruvannamalai,Chennai Region,Chengam,Tamil Nadu,India,606708
Perunkolathur,,Branch Post Office,Delivery,Tamilnadu,Tiruvannamalai,Tiruvannamalai,Chennai Region,Chengam,Tamil Nadu,India,606708
Pudur Chekkadi,,Branch Post Office,Delivery,Tamilnadu,Tiruvannamalai,Tiruvannamalai,Chennai Region,Chengam,Tamil Nadu,India,606708
Rayandapuram,,Branch Post Office,Delivery,Tamilnadu,Tiruvannamalai,Tiruvannamalai,Chennai Region,Chengam,Tamil Nadu,India,606708
Reddiarpalayam,,Branch Post Office,Delivery,Tamilnadu,Tiruvannamalai,Tiruvannamalai,Chennai Region,Chengam,Tamil Nadu,India,606708
Tanipadi,,Sub Post Office,Delivery,Tamilnadu,Tiruvannamalai,Tiruvannamalai,Chennai Region,Chengam,Tamil Nadu,India,606708
Tiruvadathanur,,Branch Post Office,Delivery,Tamilnadu,Tiruvannamalai,Tiruvannamalai,Chennai Region,Chengam,Tamil Nadu,India,606708
Arattavadi,,Branch Post Office,Delivery,Tamilnadu,Tiruvannamalai,Tiruvannamalai,Chennai Region,Chengam,Tamil Nadu,India,606709
Kariamangalam,,Branch Post Office,Delivery,Tamilnadu,Tiruvannamalai,Tiruvannamalai,Chennai Region,Chengam,Tamil Nadu,India,606709
Melpuludiyur,,Branch Post Office,Delivery,Tamilnadu,Tiruvannamalai,Tiruvannamalai,Chennai Region,Chengam,Tamil Nadu,India,606709
Nachipattu,,Branch Post Office,Delivery,Tamilnadu,Tiruvannamalai,Tiruvannamalai,Chennai Region,Chengam,Tamil Nadu,India,606709
Pakkiripalayam,,Branch Post Office,Delivery,Tamilnadu,Tiruvannamalai,Tiruvannamalai,Chennai Region,Chengam,Tamil Nadu,India,606709
Pinjur,,Branch Post Office,Delivery,Tamilnadu,Tiruvannamalai,Tiruvannamalai,Chennai Region,Chengam,Tamil Nadu,India,606709
Thukkapettai,,Sub Post Office,Delivery,Tamilnadu,Tiruvannamalai,Tiruvannamalai,Chennai Region,Chengam,Tamil Nadu,India,606709
Kallathur,,Branch Post Office,Delivery,Tamilnadu,Tiruvannamalai,Tiruvannamalai,Chennai Region,Chengam,Tamil Nadu,India,606710
Kilaiyur,,Branch Post Office,Delivery,Tamilnadu,Tiruvannamalai,Tiruvannamalai,Chennai Region,Chengam,Tamil Nadu,India,606710
Kuppanatham,,Branch Post Office,Delivery,Tamilnadu,Tiruvannamalai,Tiruvannamalai,Chennai Region,Chengam,Tamil Nadu,India,606710
Kuyilam,,Branch Post Office,Delivery,Tamilnadu,Tiruvannamalai,Tiruvannamalai,Chennai Region,Chengam,Tamil Nadu,India,606710
Oorgoundanur,,Branch Post Office,Delivery,Tamilnadu,Tiruvannamalai,Tiruvannamalai,Chennai Region,Chengam,Tamil Nadu,India,606710
Paramanandal,,Sub Post Office,Delivery,Tamilnadu,Tiruvannamalai,Tiruvannamalai,Chennai Region,Chengam,Tamil Nadu,India,606710
Pudupattu,,Branch Post Office,Delivery,Tamilnadu,Tiruvannamalai,Tiruvannamalai,Chennai Region,Chengam,Tamil Nadu,India,606710
Kalasapakkam,,Sub Post Office,Delivery,Tamilnadu,Tiruvannamalai,Tiruvannamalai,Chennai Region,Polur,Tamil Nadu,India,606751
Kalur,,Branch Post Office,Delivery,Tamilnadu,Tiruvannamalai,Tiruvannamalai,Chennai Region,Polur,Tamil Nadu,India,606751
Kappalur,,Branch Post Office,Delivery,Tamilnadu,Tiruvannamalai,Tiruvannamalai,Chennai Region,Polur,Tamil Nadu,India,606751
Karkonam,,Branch Post Office,Delivery,Tamilnadu,Tiruvannamalai,Tiruvannamalai,Chennai Region,Polur,Tamil Nadu,India,606751
Kuruvimalai,,Branch Post Office,Delivery,Tamilnadu,Tiruvannamalai,Tiruvannamalai,Chennai Region,Polur,Tamil Nadu,India,606751
Ladavaram,,Branch Post Office,Delivery,Tamilnadu,Tiruvannamalai,Tiruvannamalai,Chennai Region,Polur,Tamil Nadu,India,606751
Palankoil,,Branch Post Office,Delivery,Tamilnadu,Tiruvannamalai,Tiruvannamalai,Chennai Region,Polur,Tamil Nadu,India,606751
Pathiyavadi,,Branch Post Office,Delivery,Tamilnadu,Tiruvannamalai,Tiruvannamalai,Chennai Region,Polur,Tamil Nadu,India,606751
Pundi Polur,,Branch Post Office,Delivery,Tamilnadu,Tiruvannamalai,Tiruvannamalai,Chennai Region,Polur,Tamil Nadu,India,606751
Thenpallipattu,,Branch Post Office,Delivery,Tamilnadu,Tiruvannamalai,Tiruvannamalai,Chennai Region,Polur,Tamil Nadu,India,606751
Arpakkam,,Branch Post Office,Delivery,Tamilnadu,Tiruvannamalai,Tiruvannamalai,Chennai Region,Tiruvannamalai,Tamil Nadu,India,606752
Kothandavadi,,Branch Post Office,Delivery,Tamilnadu,Tiruvannamalai,Tiruvannamalai,Chennai Region,,Tamil Nadu,India,606752
Mangalam (Tiruvannamalai),,Sub Post Office,Delivery,Tamilnadu,Tiruvannamalai,Tiruvannamalai,Chennai Region,,Tamil Nadu,India,606752
Nookambadi,,Branch Post Office,Delivery,Tamilnadu,Tiruvannamalai,Tiruvannamalai,Chennai Region,Tiruvannamalai,Tamil Nadu,India,606752
Palanandal,,Branch Post Office,Delivery,Tamilnadu,Tiruvannamalai,Tiruvannamalai,Chennai Region,Tiruvannamalai,Tamil Nadu,India,606752
Vallivagai,,Branch Post Office,Delivery,Tamilnadu,Tiruvannamalai,Tiruvannamalai,Chennai Region,Tiruvannamalai,Tamil Nadu,India,606752
Vedandavadi,,Branch Post Office,Delivery,Tamilnadu,Tiruvannamalai,Tiruvannamalai,Chennai Region,Tiruvannamalai,Tamil Nadu,India,606752
Allikondapattu,,Branch Post Office,Delivery,Tamilnadu,Tiruvannamalai,Tiruvannamalai,Chennai Region,Tiruvannamalai,Tamil Nadu,India,606753
Elayankanni,,Branch Post Office,Delivery,Tamilnadu,Tiruvannamalai,Tiruvannamalai,Chennai Region,Tiruvannamalai,Tamil Nadu,India,606753
Meyyur,,Branch Post Office,Delivery,Tamilnadu,Tiruvannamalai,Tiruvannamalai,Chennai Region,Tiruvannamalai,Tamil Nadu,India,606753
Nariyapattu,,Branch Post Office,Delivery,Tamilnadu,Tiruvannamalai,Tiruvannamalai,Chennai Region,Tiruvannamalai,Tamil Nadu,India,606753
Palayanur,,Branch Post Office,Delivery,Tamilnadu,Tiruvannamalai,Tiruvannamalai,Chennai Region,Tiruvannamalai,Tamil Nadu,India,606753
Perunthuraipattu,,Branch Post Office,Delivery,Tamilnadu,Tiruvannamalai,Tiruvannamalai,Chennai Region,Tiruvannamalai,Tamil Nadu,India,606753
Serpapattu,,Branch Post Office,Delivery,Tamilnadu,Tiruvannamalai,Tiruvannamalai,Chennai Region,Tiruvannamalai,Tamil Nadu,India,606753
Thenkarimbalur,,Branch Post Office,Delivery,Tamilnadu,Tiruvannamalai,Tiruvannamalai,Chennai Region,Tiruvannamalai,Tamil Nadu,India,606753
Valavachanur,,Branch Post Office,Delivery,Tamilnadu,Tiruvannamalai,Tiruvannamalai,Chennai Region,Tiruvannamalai,Tamil Nadu,India,606753
Vanapuram,,Sub Post Office,Delivery,Tamilnadu,Tiruvannamalai,Tiruvannamalai,Chennai Region,Tiruvannamalai,Tamil Nadu,India,606753
Varagur,,Branch Post Office,Delivery,Tamilnadu,Tiruvannamalai,Tiruvannamalai,Chennai Region,Tiruvannamalai,Tamil Nadu,India,606753
Velayampakkam,,Branch Post Office,Delivery,Tamilnadu,Tiruvannamalai,Tiruvannamalai,Chennai Region,Tiruvannamalai,Tamil Nadu,India,606753
Kallayee Sorathur,,Branch Post Office,Delivery,Tamilnadu,Tiruvannamalai,Tiruvannamalai,Chennai Region,Vandavasi,Tamil Nadu,India,606754
Naraiyur,,Branch Post Office,Delivery,Tamilnadu,Tiruvannamalai,Tiruvannamalai,Chennai Region,Tiruvannamalai,Tamil Nadu,India,606754
Neivanatham,,Branch Post Office,Delivery,Tamilnadu,Tiruvannamalai,Tiruvannamalai,Chennai Region,Tiruvannamalai,Tamil Nadu,India,606754
Olaipadi,,Branch Post Office,Delivery,Tamilnadu,Tiruvannamalai,Tiruvannamalai,Chennai Region,Tiruvannamalai,Tamil Nadu,India,606754
Palavalam,,Branch Post Office,Delivery,Tamilnadu,Tiruvannamalai,Tiruvannamalai,Chennai Region,Tiruvannamalai,Tamil Nadu,India,606754
Vaipur,,Branch Post Office,Delivery,Tamilnadu,Tiruvannamalai,Tiruvannamalai,Chennai Region,Tiruvanamalai,Tamil Nadu,India,606754
Vettavalam,,Sub Post Office,Delivery,Tamilnadu,Tiruvannamalai,Tiruvannamalai,Chennai Region,Tiruvannamalai,Tamil Nadu,India,606754
Avur,,Sub Post Office,Delivery,Tamilnadu,Tiruvannamalai,Tiruvannamalai,Chennai Region,Tiruvannamalai Taluk,Tamil Nadu,India,606755
Chellankuppam,,Branch Post Office,Delivery,Tamilnadu,Tiruvannamalai,Tiruvannamalai,Chennai Region,Tiruvannamalai,Tamil Nadu,India,606755
Gudalur,,Branch Post Office,Delivery,Tamilnadu,Tiruvannamalai,Tiruvannamalai,Chennai Region,Tiruvannamalai,Tamil Nadu,India,606755
Kilkarippur,,Branch Post Office,Delivery,Tamilnadu,Tiruvannamalai,Tiruvannamalai,Chennai Region,Tiruvannamalai,Tamil Nadu,India,606755
Konalur,,Branch Post Office,Delivery,Tamilnadu,Tiruvannamalai,Tiruvannamalai,Chennai Region,Tiruvannamalai,Tamil Nadu,India,606755
Kulathur,,Branch Post Office,Delivery,Tamilnadu,Tiruvannamalai,Tiruvannamalai,Chennai Region,Tiruvannamalai,Tamil Nadu,India,606755
Rajapalayam,,Branch Post Office,Delivery,Tamilnadu,Tiruvannamalai,Tiruvannamalai,Chennai Region,Tiruvnamalai,Tamil Nadu,India,606755
Sanipundi,,Branch Post Office,Delivery,Tamilnadu,Tiruvannamalai,Tiruvannamalai,Chennai Region,Tvmalai,Tamil Nadu,India,606755
Chettupattu Polur,,Sub Post Office,Delivery,Tamilnadu,Tiruvannamalai,Tiruvannamalai,Chennai Region,Vandavasi,Tamil Nadu,India,606801
Maruthuvambadi,,Branch Post Office,Delivery,Tamilnadu,Tiruvannamalai,Tiruvannamalai,Chennai Region,Polur,Tamil Nadu,India,606801
Morakaniyanur,,Branch Post Office,Delivery,Tamilnadu,Tiruvannamalai,Tiruvannamalai,Chennai Region,Polur,Tamil Nadu,India,606801
Palampettai,,Branch Post Office,Non-Delivery,Tamilnadu,Tiruvannamalai,Tiruvannamalai,Chennai Region,Vandavasi,Tamil Nadu,India,606801
Ulagampattu,,Branch Post Office,Delivery,Tamilnadu,Tiruvannamalai,Tiruvannamalai,Chennai Region,Polur,Tamil Nadu,India,606801
Devanampattu,,Branch Post Office,Delivery,Tamilnadu,Tiruvannamalai,Tiruvannamalai,Chennai Region,Tiruvannamalai,Tamil Nadu,India,606802
Maruthuvambadi,,Branch Post Office,Delivery,Tamilnadu,Tiruvannamalai,Tiruvannamalai,Chennai Region,Tiruvannamalai,Tamil Nadu,India,606802
Nayudumangalam,,Sub Post Office,Delivery,Tamilnadu,Tiruvannamalai,Tiruvannamalai,Chennai Region,Tiruvannamalai,Tamil Nadu,India,606802
Northampoondi,,Branch Post Office,Delivery,Tamilnadu,Tiruvannamalai,Tiruvannamalai,Chennai Region,Tiruvannamalai,Tamil Nadu,India,606802
Periyakilambadi,,Branch Post Office,Delivery,Tamilnadu,Tiruvannamalai,Tiruvannamalai,Chennai Region,Tiruvannamalai,Tamil Nadu,India,606802
Porkunam,,Branch Post Office,Delivery,Tamilnadu,Tiruvannamalai,Tiruvannamalai,Chennai Region,Tiruvannamalai,Tamil Nadu,India,606802
Sorakulathur,,Branch Post Office,Delivery,Tamilnadu,Tiruvannamalai,Tiruvannamalai,Chennai Region,Tiruvananmalai,Tamil Nadu,India,606802
Thennagaram,,Branch Post Office,Delivery,Tamilnadu,Tiruvannamalai,Tiruvannamalai,Chennai Region,Tiruvannamaali,Tamil Nadu,India,606802
Veluganandal,,Branch Post Office,Delivery,Tamilnadu,Tiruvannamalai,Tiruvannamalai,Chennai Region,Tiruvannamaali,Tamil Nadu,India,606802
Athimoor Tindivanam,,Branch Post Office,Delivery,Tamilnadu,Tiruvannamalai,Tiruvannamalai,Chennai Region,Polur,Tamil Nadu,India,606803
Kangeyanur,,Branch Post Office,Delivery,Tamilnadu,Tiruvannamalai,Tiruvannamalai,Chennai Region,Polur,Tamil Nadu,India,606803
Karapundi,,Branch Post Office,Delivery,Tamilnadu,Tiruvannamalai,Tiruvannamalai,Chennai Region,Polur,Tamil Nadu,India,606803
Mambattu,,Branch Post Office,Delivery,Tamilnadu,Tiruvannamalai,Tiruvannamalai,Chennai Region,Polur,Tamil Nadu,India,606803
Murugapadi,,Branch Post Office,Delivery,Tamilnadu,Tiruvannamalai,Tiruvannamalai,Chennai Region,Polur,Tamil Nadu,India,606803
Pelasur,,Branch Post Office,Delivery,Tamilnadu,Tiruvannamalai,Tiruvannamalai,Chennai Region,Polur,Tamil Nadu,India,606803
Periagaram,,Branch Post Office,Delivery,Tamilnadu,Tiruvannamalai,Tiruvannamalai,Chennai Region,Polur,Tamil Nadu,India,606803
Polur (Tiruvannamalai),,Sub Post Office,Delivery,Tamilnadu,Tiruvannamalai,Tiruvannamalai,Chennai Region,Polur,Tamil Nadu,India,606803
Polur Town,,Sub Post Office,Non-Delivery,Tamilnadu,Tiruvannamalai,Tiruvannamalai,Chennai Region,Polur,Tamil Nadu,India,606803
Potharai,,Branch Post Office,Delivery,Tamilnadu,Tiruvannamalai,Tiruvannamalai,Chennai Region,Polur,Tamil Nadu,India,606803
R.Kunnathur,,Branch Post Office,Delivery,Tamilnadu,Tiruvannamalai,Tiruvannamalai,Chennai Region,Polur,Tamil Nadu,India,606803
Sanikkavadi,,Branch Post Office,Delivery,Tamilnadu,Tiruvannamalai,Tiruvannamalai,Chennai Region,Polur,Tamil Nadu,India,606803
Sengunam,,Branch Post Office,Delivery,Tamilnadu,Tiruvannamalai,Tiruvannamalai,Chennai Region,Polur,Tamil Nadu,India,606803
Thumbakkadu,,Branch Post Office,Delivery,Tamilnadu,Tiruvannamalai,Tiruvannamalai,Chennai Region,Polur,Tamil Nadu,India,606803
Tirusur,,Branch Post Office,Delivery,Tamilnadu,Tiruvannamalai,Tiruvannamalai,Chennai Region,Polur,Tamil Nadu,India,606803
Vasur,,Branch Post Office,Delivery,Tamilnadu,Tiruvannamalai,Tiruvannamalai,Chennai Region,Polur,Tamil Nadu,India,606803
Andampallam,,Branch Post Office,Delivery,Tamilnadu,Tiruvannamalai,Tiruvannamalai,Chennai Region,Tiruvannamalai,Tamil Nadu,India,606804
Gangapattu,,Branch Post Office,Delivery,Tamilnadu,Tiruvannamalai,Tiruvannamalai,Chennai Region,Tiruvannamalai,Tamil Nadu,India,606804
Isukkalikatteri,,Branch Post Office,Delivery,Tamilnadu,Tiruvannamalai,Tiruvannamalai,Chennai Region,Tiruvannamalai,Tamil Nadu,India,606804
Kadagaman,,Branch Post Office,Delivery,Tamilnadu,Tiruvannamalai,Tiruvannamalai,Chennai Region,Tiruvannamalai,Tamil Nadu,India,606804
Kattumalayanur,,Branch Post Office,Delivery,Tamilnadu,Tiruvannamalai,Tiruvannamalai,Chennai Region,Tiruvannamalai,Tamil Nadu,India,606804
Madurampattu,,Branch Post Office,Delivery,Tamilnadu,Tiruvannamalai,Tiruvannamalai,Chennai Region,Tiruvannamalai,Tamil Nadu,India,606804
Tandarai,,Sub Post Office,Delivery,Tamilnadu,Tiruvannamalai,Tiruvannamalai,Chennai Region,Tiruvananamalai,Tamil Nadu,India,606804
Kalasthambadi,,Branch Post Office,Delivery,Tamilnadu,Tiruvannamalai,Tiruvannamalai,Chennai Region,Tiruvananamalai,Tamil Nadu,India,606805
Kolakkaravadi,,Branch Post Office,Delivery,Tamilnadu,Tiruvannamalai,Tiruvannamalai,Chennai Region,Tiruvannamalai,Tamil Nadu,India,606805
Mallavadi,,Branch Post Office,Delivery,Tamilnadu,Tiruvannamalai,Tiruvannamalai,Chennai Region,Tiruvannamalai,Tamil Nadu,India,606805
Turinjapuram,,Sub Post Office,Delivery,Tamilnadu,Tiruvannamalai,Tiruvannamalai,Chennai Region,Tiruvannamalai,Tamil Nadu,India,606805
Arudirapattu,,Branch Post Office,Delivery,Tamilnadu,Tiruvannamalai,Tiruvannamalai,Chennai Region,Tiruvannamalai,Tamil Nadu,India,606806
Chinnakallapadi,,Branch Post Office,Delivery,Tamilnadu,Tiruvannamalai,Tiruvannamalai,Chennai Region,Tiruvannamalai,Tamil Nadu,India,606806
Devanur,,Branch Post Office,Delivery,Tamilnadu,Tiruvannamalai,Tiruvannamalai,Chennai Region,,Tamil Nadu,India,606806
Pavithiram,,Sub Post Office,Delivery,Tamilnadu,Tiruvannamalai,Tiruvannamalai,Chennai Region,Tiruvannamalai,Tamil Nadu,India,606806
Perumanam,,Branch Post Office,Delivery,Tamilnadu,Tiruvannamalai,Tiruvannamalai,Chennai Region,Tiruannamalai,Tamil Nadu,India,606806
Su Valavetti,,Branch Post Office,Delivery,Tamilnadu,Tiruvannamalai,Tiruvannamalai,Chennai Region,Tiruvannamalai,Tamil Nadu,India,606806
Veraiyur,,Branch Post Office,Delivery,Tamilnadu,Tiruvannamalai,Tiruvannamalai,Chennai Region,Tiruvannamalai,Tamil Nadu,India,606806
Arasampattu,,Branch Post Office,Delivery,Tamilnadu,Tiruvannamalai,Tiruvannamalai,Chennai Region,Vandavasi,Tamil Nadu,India,606807
Melathangal,,Branch Post Office,Delivery,Tamilnadu,Tiruvannamalai,Tiruvannamalai,Chennai Region,Vandavasi,Tamil Nadu,India,606807
Nedungunam,,Sub Post Office,Delivery,Tamilnadu,Tiruvannamalai,Tiruvannamalai,Chennai Region,Vandavasi,Tamil Nadu,India,606807
Veppambattu,,Branch Post Office,Delivery,Tamilnadu,Tiruvannamalai,Tiruvannamalai,Chennai Region,Vandavasi,Tamil Nadu,India,606807
Aradapattu,,Branch Post Office,Delivery,Tamilnadu,Tiruvannamalai,Tiruvannamalai,Chennai Region,Thandrampattu,Tamil Nadu,India,606808
Kattampoondi,,Sub Post Office,Delivery,Tamilnadu,Tiruvannamalai,Tiruvannamalai,Chennai Region,Thandrampattu,Tamil Nadu,India,606808
Kolakudi,,Branch Post Office,Delivery,Tamilnadu,Tiruvannamalai,Tiruvannamalai,Chennai Region,Thandrampattu,Tamil Nadu,India,606808
Parayampattu,,Branch Post Office,Delivery,Tamilnadu,Tiruvannamalai,Tiruvannamalai,Chennai Region,Tiruvannamalai,Tamil Nadu,India,606808
Su. Andapattu,,Branch Post Office,Delivery,Tamilnadu,Tiruvannamalai,Tiruvannamalai,Chennai Region,Thandrampattu,Tamil Nadu,India,606808
Su. Pappambadi,,Branch Post Office,Delivery,Tamilnadu,Tiruvannamalai,Tiruvannamalai,Chennai Region,Thandrampattu,Tamil Nadu,India,606808
Thachampattu,,Sub Post Office,Delivery,Tamilnadu,Tiruvannamalai,Tiruvannamalai,Chennai Region,Tiruvannamalai,Tamil Nadu,India,606811
Adamangalam,,Sub Post Office,Delivery,Tamilnadu,Tiruvannamalai,Tiruvannamalai,Chennai Region,Polur,Tamil Nadu,India,606901
Gangavaram,,Branch Post Office,Delivery,Tamilnadu,Tiruvannamalai,Tiruvannamalai,Chennai Region,Polur,Tamil Nadu,India,606901
Kanthapalayam,,Branch Post Office,Delivery,Tamilnadu,Tiruvannamalai,Tiruvannamalai,Chennai Region,Polur,Tamil Nadu,India,606901
Kettavarampalayam,,Branch Post Office,Delivery,Tamilnadu,Tiruvannamalai,Tiruvannamalai,Chennai Region,Polur,Tamil Nadu,India,606901
Kidampalayam,,Branch Post Office,Delivery,Tamilnadu,Tiruvannamalai,Tiruvannamalai,Chennai Region,Polur,Tamil Nadu,India,606901
Melsolankuppam,,Branch Post Office,Delivery,Tamilnadu,Tiruvannamalai,Tiruvannamalai,Chennai Region,Polur,Tamil Nadu,India,606901
Viralur,,Branch Post Office,Delivery,Tamilnadu,Tiruvannamalai,Tiruvannamalai,Chennai Region,Polur,Tamil Nadu,India,606901
Athurai,,Branch Post Office,Delivery,Tamilnadu,Tiruvannamalai,Tiruvannamalai,Chennai Region,Arni,Tamil Nadu,India,606902
Budamangalam,,Branch Post Office,Delivery,Tamilnadu,Tiruvannamalai,Tiruvannamalai,Chennai Region,Arni,Tamil Nadu,India,606902
Devikapuram,,Sub Post Office,Delivery,Tamilnadu,Tiruvannamalai,Tiruvannamalai,Chennai Region,Arni,Tamil Nadu,India,606902
Mansurabad,,Branch Post Office,Delivery,Tamilnadu,Tiruvannamalai,Tiruvannamalai,Chennai Region,Arni,Tamil Nadu,India,606902
Modaiyur,,Branch Post Office,Delivery,Tamilnadu,Tiruvannamalai,Tiruvannamalai,Chennai Region,Arni,Tamil Nadu,India,606902
Nambedu,,Branch Post Office,Delivery,Tamilnadu,Tiruvannamalai,Tiruvannamalai,Chennai Region,Arni,Tamil Nadu,India,606902
Narasingapuram,,Branch Post Office,Delivery,Tamilnadu,Tiruvannamalai,Tiruvannamalai,Chennai Region,Arni,Tamil Nadu,India,606902
Sevarapundi,,Branch Post Office,Delivery,Tamilnadu,Tiruvannamalai,Tiruvannamalai,Chennai Region,Arni,Tamil Nadu,India,606902
Thatchambadi,,Branch Post Office,Delivery,Tamilnadu,Tiruvannamalai,Tiruvannamalai,Chennai Region,Arni,Tamil Nadu,India,606902
Thumbur,,Branch Post Office,Delivery,Tamilnadu,Tiruvannamalai,Tiruvannamalai,Chennai Region,Arni,Tamil Nadu,India,606902
Kalambur,,Sub Post Office,Delivery,Tamilnadu,Tiruvannamalai,Tiruvannamalai,Chennai Region,,Tamil Nadu,India,606903
Kalvasal,,Branch Post Office,Delivery,Tamilnadu,Tiruvannamalai,Tiruvannamalai,Chennai Region,Polur,Tamil Nadu,India,606903
Kamakkur,,Branch Post Office,Delivery,Tamilnadu,Tiruvannamalai,Tiruvannamalai,Chennai Region,Polur,Tamil Nadu,India,606903
Kasthambadi,,Branch Post Office,Delivery,Tamilnadu,Tiruvannamalai,Tiruvannamalai,Chennai Region,Polur,Tamil Nadu,India,606903
Mukkurumbai,,Branch Post Office,Delivery,Tamilnadu,Tiruvannamalai,Tiruvannamalai,Chennai Region,Polur,Tamil Nadu,India,606903
Nadukuppam,,Branch Post Office,Delivery,Tamilnadu,Tiruvannamalai,Tiruvannamalai,Chennai Region,Polur,Tamil Nadu,India,606903
Pulavanpadi,,Branch Post Office,Delivery,Tamilnadu,Tiruvannamalai,Tiruvannamalai,Chennai Region,Polur,Tamil Nadu,India,606903
Pungambadi,,Branch Post Office,Delivery,Tamilnadu,Tiruvannamalai,Tiruvannamalai,Chennai Region,Polur,Tamil Nadu,India,606903
Allialamangalam,,Branch Post Office,Delivery,Tamilnadu,Tiruvannamalai,Tiruvannamalai,Chennai Region,Polur,Tamil Nadu,India,606904
Mandakolathur,,Sub Post Office,Delivery,Tamilnadu,Tiruvannamalai,Tiruvannamalai,Chennai Region,Polur,Tamil Nadu,India,606904
Padagam,,Branch Post Office,Delivery,Tamilnadu,Tiruvannamalai,Tiruvannamalai,Chennai Region,Polur,Tamil Nadu,India,606904
Pulivanandal,,Branch Post Office,Delivery,Tamilnadu,Tiruvannamalai,Tiruvannamalai,Chennai Region,Polur,Tamil Nadu,India,606904
Semmiyamangalam,,Branch Post Office,Delivery,Tamilnadu,Tiruvannamalai,Tiruvannamalai,Chennai Region,Polur,Tamil Nadu,India,606904
Vilapakkam,,Branch Post Office,Delivery,Tamilnadu,Tiruvannamalai,Tiruvannamalai,Chennai Region,Polur,Tamil Nadu,India,606904
A K Padavedu,,Branch Post Office,Delivery,Tamilnadu,Tiruvannamalai,Tiruvannamalai,Chennai Region,Polur,Tamil Nadu,India,606905
Arjunapuram,,Branch Post Office,Delivery,Tamilnadu,Tiruvannamalai,Tiruvannamalai,Chennai Region,Polur,Tamil Nadu,India,606905
Kesavapuram,,Branch Post Office,Delivery,Tamilnadu,Tiruvannamalai,Tiruvannamalai,Chennai Region,Polur,Tamil Nadu,India,606905
Krishnapuram,,Branch Post Office,Delivery,Tamilnadu,Tiruvannamalai,Tiruvannamalai,Chennai Region,Polur,Tamil Nadu,India,606905
Ramanathapuram,,Branch Post Office,Delivery,Tamilnadu,Tiruvannamalai,Tiruvannamalai,Chennai Region,Polur,Tamil Nadu,India,606905
Santhavasal,,Sub Post Office,Delivery,Tamilnadu,Tiruvannamalai,Tiruvannamalai,Chennai Region,Polur,Tamil Nadu,India,606905
Vellur,,Branch Post Office,Delivery,Tamilnadu,Tiruvannamalai,Tiruvannamalai,Chennai Region,Polur,Tamil Nadu,India,606905
Elathur,,Branch Post Office,Delivery,Tamilnadu,Tiruvannamalai,Tiruvannamalai,Chennai Region,Polur,Tamil Nadu,India,606906
Siruvallur,,Branch Post Office,Delivery,Tamilnadu,Tiruvannamalai,Tiruvannamalai,Chennai Region,Polur,Tamil Nadu,India,606906
Vilvarani,,Sub Post Office,Delivery,Tamilnadu,Tiruvannamalai,Tiruvannamalai,Chennai Region,Polur,Tamil Nadu,India,606906
Athuvambadi,,Branch Post Office,Delivery,Tamilnadu,Tiruvannamalai,Tiruvannamalai,Chennai Region,Polur,Tamil Nadu,India,606907
Ettivadi,,Branch Post Office,Delivery,Tamilnadu,Tiruvannamalai,Tiruvannamalai,Chennai Region,Polur,Tamil Nadu,India,606907
Gudalur,,Branch Post Office,Delivery,Tamilnadu,Tiruvannamalai,Tiruvannamalai,Chennai Region,Polur,Tamil Nadu,India,606907
Kelur,,Branch Post Office,Delivery,Tamilnadu,Tiruvannamalai,Tiruvannamalai,Chennai Region,Polur,Tamil Nadu,India,606907
Saduperipalayam,,Branch Post Office,Delivery,Tamilnadu,Tiruvannamalai,Tiruvannamalai,Chennai Region,Polur,Tamil Nadu,India,606907
Tirumalai,,Branch Post Office,Delivery,Tamilnadu,Tiruvannamalai,Tiruvannamalai,Chennai Region,Polur,Tamil Nadu,India,606907
Vadamadimangalam,,Sub Post Office,Delivery,Tamilnadu,Tiruvannamalai,Tiruvannamalai,Chennai Region,Polur,Tamil Nadu,India,606907
Banambattu,,Branch Post Office,Delivery,Tamilnadu,Tiruvannamalai,Tiruvannamalai,Chennai Region,Polur,Tamil Nadu,India,606908
Kadaladi (Tiruvannamalai),,Sub Post Office,Delivery,Tamilnadu,Tiruvannamalai,Tiruvannamalai,Chennai Region,Polur,Tamil Nadu,India,606908
Kilpalur,,Branch Post Office,Delivery,Tamilnadu,Tiruvannamalai,Tiruvannamalai,Chennai Region,Polur,Tamil Nadu,India,606908
Thenmahadevamangalam,,Branch Post Office,Delivery,Tamilnadu,Tiruvannamalai,Tiruvannamalai,Chennai Region,Polur,Tamil Nadu,India,606908
Cuddalore,,Head Post Office,Delivery,Tamilnadu,Cuddalore,Cuddalore,Tiruchy,Cuddalore,Tamil Nadu,India,607001
Cuddalore Court Buildings,,Sub Post Office,Non-Delivery,Tamilnadu,Cuddalore,Cuddalore,Tiruchy,Cuddalore,Tamil Nadu,India,607001
Cuddalore Public Offices,,Sub Post Office,Non-Delivery,Tamilnadu,Cuddalore,Cuddalore,Tiruchy,Cuddalore,Tamil Nadu,India,607001
Fort St.David,,Sub Post Office,Non-Delivery,Tamilnadu,Cuddalore,Cuddalore,Tiruchy,Cuddalore,Tamil Nadu,India,607001
Manjakkuppam,,Sub Post Office,Non-Delivery,Tamilnadu,Cuddalore,Cuddalore,Tiruchy,Cuddalore,Tamil Nadu,India,607001
Semmandalam,,Sub Post Office,Non-Delivery,Tamilnadu,Cuddalore,Cuddalore,Tiruchy,Cuddalore,Tamil Nadu,India,607001
Tirupadiripuliyur,,Sub Post Office,Delivery,Tamilnadu,Cuddalore,Cuddalore,Tiruchy,Cuddalore,Tamil Nadu,India,607002
Tiruppadiripuliyur Bazaar,,Sub Post Office,Non-Delivery,Tamilnadu,Cuddalore,Cuddalore,Tiruchy,Cuddalore,Tamil Nadu,India,607002
Tiruppadiripuliyur West,,Sub Post Office,Non-Delivery,Tamilnadu,Cuddalore,Cuddalore,Tiruchy,Cuddalore,Tamil Nadu,India,607002
Akkarai Gori,,Branch Post Office,Non-Delivery,Tamilnadu,Cuddalore,Cuddalore,Tiruchy,Cuddalore,Tamil Nadu,India,607003
Annavalli,,Branch Post Office,Delivery,Tamilnadu,Cuddalore,Cuddalore,Tiruchy,Cuddalore,Tamil Nadu,India,607003
Cuddalore Old Town,,Sub Post Office,Delivery,Tamilnadu,Cuddalore,Cuddalore,Tiruchy,Cuddalore,Tamil Nadu,India,607003
Cuddalore Ot Bazaar,,Sub Post Office,Non-Delivery,Tamilnadu,Cuddalore,Cuddalore,Tiruchy,Cuddalore,Tamil Nadu,India,607003
Cuddalore Port,,Sub Post Office,Non-Delivery,Tamilnadu,Cuddalore,Cuddalore,Tiruchy,Cuddalore,Tamil Nadu,India,607003
Kodukkanpalayam,,Branch Post Office,Delivery,Tamilnadu,Cuddalore,Cuddalore,Tiruchy,Cuddalore,Tamil Nadu,India,607003
Pachayankuppam,,Branch Post Office,Delivery,Tamilnadu,Cuddalore,Cuddalore,Tiruchy,Cuddalore,Tamil Nadu,India,607003
Ramapuram,,Branch Post Office,Delivery,Tamilnadu,Cuddalore,Cuddalore,Tiruchy,Cuddalore,Tamil Nadu,India,607003
Sedapalayam,,Branch Post Office,Delivery,Tamilnadu,Cuddalore,Cuddalore,Tiruchy,Cuddalore,Tamil Nadu,India,607003
Sellankuppam,,Branch Post Office,Non-Delivery,Tamilnadu,Cuddalore,Cuddalore,Tiruchy,Cuddalore,Tamil Nadu,India,607003
Valisodanaipalayam,,Branch Post Office,Delivery,Tamilnadu,Cuddalore,Cuddalore,Tiruchy,Cuddalore,Tamil Nadu,India,607003
Vasantharayanpalayam,,Branch Post Office,Non-Delivery,Tamilnadu,Cuddalore,Cuddalore,Tiruchy,Cuddalore,Tamil Nadu,India,607003
Vellakarai,,Branch Post Office,Delivery,Tamilnadu,Cuddalore,Cuddalore,Tiruchy,Cuddalore,Tamil Nadu,India,607003
M.Pudur,,Branch Post Office,Delivery,Tamilnadu,Cuddalore,Cuddalore,Tiruchy,Cuddalore,Tamil Nadu,India,607004
Sathankuppam,,Branch Post Office,Delivery,Tamilnadu,Cuddalore,Cuddalore,Tiruchy,Cuddalore,Tamil Nadu,India,607004
Vandipalayam,,Sub Post Office,Delivery,Tamilnadu,Cuddalore,Cuddalore,Tiruchy,Cuddalore,Tamil Nadu,India,607004
Capperquary,,Branch Post Office,Delivery,Tamilnadu,Cuddalore,Cuddalore,Tiruchy,Cuddalore,Tamil Nadu,India,607005
Poondiyankuppam,,Branch Post Office,Delivery,Tamilnadu,Cuddalore,Cuddalore,Tiruchy,Cuddalore,Tamil Nadu,India,607005
Sangolikuppam,,Branch Post Office,Delivery,Tamilnadu,Cuddalore,Cuddalore,Tiruchy,Cuddalore,Tamil Nadu,India,607005
Sipcot Cuddalore,,Sub Post Office,Delivery,Tamilnadu,Cuddalore,Cuddalore,Tiruchy,Cuddalore,Tamil Nadu,India,607005
Gundu Uppalavadi,,Branch Post Office,Delivery,Tamilnadu,Cuddalore,Cuddalore,Tiruchy,Cuddalore,Tamil Nadu,India,607006
Kondur,,Sub Post Office,Delivery,Tamilnadu,Cuddalore,Cuddalore,Tiruchy,Cuddalore,Tamil Nadu,India,607006
Suba Uppalavadi,,Branch Post Office,Delivery,Tamilnadu,Cuddalore,Cuddalore,Tiruchy,Cuddalore,Tamil Nadu,India,607006
Alagaperumalkuppam,,Branch Post Office,Delivery,Tamilnadu,Cuddalore,Cuddalore,Tiruchy,Panruti,Tamil Nadu,India,607101
Anathur,,Sub Post Office,Delivery,Tamilnadu,Villupuram,Cuddalore,Tiruchy,Panruti,Tamil Nadu,India,607101
Aviyanur,,Branch Post Office,Delivery,Tamilnadu,Cuddalore,Cuddalore,Tiruchy,Panruti,Tamil Nadu,India,607101
Kudimiyankuppam,,Branch Post Office,Delivery,Tamilnadu,Cuddalore,Cuddalore,Tiruchy,Panruti,Tamil Nadu,India,607101
Manamthavizhnthaputhur,,Branch Post Office,Delivery,Tamilnadu,Cuddalore,Cuddalore,Tiruchy,Panruti,Tamil Nadu,India,607101
Melthaniyalampattu,,Branch Post Office,Delivery,Tamilnadu,Villupuram,Cuddalore,Tiruchy,Panruti,Tamil Nadu,India,607101
Natham,,Branch Post Office,Delivery,Tamilnadu,Cuddalore,Cuddalore,Tiruchy,Panruti,Tamil Nadu,India,607101
Pythambadi,,Branch Post Office,Delivery,Tamilnadu,Cuddalore,Cuddalore,Tiruchy,Panruti,Tamil Nadu,India,607101
Sirugramam,,Branch Post Office,Delivery,Tamilnadu,Cuddalore,Cuddalore,Tiruchy,Panruti,Tamil Nadu,India,607101
Somasipalayam,,Branch Post Office,Delivery,Tamilnadu,Villupuram,Cuddalore,Tiruchy,Panruti,Tamil Nadu,India,607101
Veerraperumanallur,,Branch Post Office,Delivery,Tamilnadu,Cuddalore,Cuddalore,Tiruchy,Panruti,Tamil Nadu,India,607101
Badrakottai,,Branch Post Office,Delivery,Tamilnadu,Cuddalore,Cuddalore,Tiruchy,Panruti,Tamil Nadu,India,607102
Chinnapanaickenpalayam,,Sub Post Office,Delivery,Tamilnadu,Cuddalore,Cuddalore,Tiruchy,Panruti,Tamil Nadu,India,607102
Edayarkuppam,,Branch Post Office,Delivery,Tamilnadu,Cuddalore,Cuddalore,Tiruchy,Panruti,Tamil Nadu,India,607102
N.Moolakuppam,,Branch Post Office,Delivery,Tamilnadu,Cuddalore,Cuddalore,Tiruchy,Panruti,Tamil Nadu,India,607102
Naduveerappattu,,Branch Post Office,Delivery,Tamilnadu,Cuddalore,Cuddalore,Tiruchy,Panruti,Tamil Nadu,India,607102
Pallavarayanatham,,Branch Post Office,Delivery,Tamilnadu,Cuddalore,Cuddalore,Tiruchy,Panruti,Tamil Nadu,India,607102
Palur,,Branch Post Office,Delivery,Tamilnadu,Cuddalore,Cuddalore,Tiruchy,Panruti,Tamil Nadu,India,607102
Silambinathanpettai,,Branch Post Office,Delivery,Tamilnadu,Cuddalore,Cuddalore,Tiruchy,Panruti,Tamil Nadu,India,607102
Arasadikkuppam,,Branch Post Office,Delivery,Tamilnadu,Cuddalore,Cuddalore,Tiruchy,Panruti,Tamil Nadu,India,607103
Kadambuliyur,,Sub Post Office,Delivery,Tamilnadu,Cuddalore,Cuddalore,Tiruchy,Panruti,Tamil Nadu,India,607103
Kiliruppu,,Branch Post Office,Delivery,Tamilnadu,Cuddalore,Cuddalore,Tiruchy,Panruti,Tamil Nadu,India,607103
Marungur,,Branch Post Office,Delivery,Tamilnadu,Cuddalore,Cuddalore,Tiruchy,Panruti,Tamil Nadu,India,607103
Melmampattu,,Branch Post Office,Delivery,Tamilnadu,Cuddalore,Cuddalore,Tiruchy,Panruti,Tamil Nadu,India,607103
Nadukkuppam,,Branch Post Office,Delivery,Tamilnadu,Cuddalore,Cuddalore,Tiruchy,Panruti,Tamil Nadu,India,607103
Siruthondamadevi,,Branch Post Office,Delivery,Tamilnadu,Cuddalore,Cuddalore,Tiruchy,Panruti,Tamil Nadu,India,607103
Elumedu,,Branch Post Office,Delivery,Tamilnadu,Cuddalore,Cuddalore,Tiruchy,Panruti,Tamil Nadu,India,607104
Kalinjikuppam,,Branch Post Office,Delivery,Tamilnadu,Cuddalore,Cuddalore,Tiruchy,Panruti,Tamil Nadu,India,607104
Kongarayanur,,Branch Post Office,Delivery,Tamilnadu,Cuddalore,Cuddalore,Tiruchy,Panruti,Tamil Nadu,India,607104
Melpattambakkam,,Sub Post Office,Delivery,Tamilnadu,Cuddalore,Cuddalore,Tiruchy,Panruti,Tamil Nadu,India,607104
Perumalnaickenpalayam,,Branch Post Office,Delivery,Tamilnadu,Cuddalore,Cuddalore,Tiruchy,Panruti,Tamil Nadu,India,607104
Sornavur Melpathi,,Branch Post Office,Delivery,Tamilnadu,Cuddalore,Cuddalore,Tiruchy,Panruti,Tamil Nadu,India,607104
Gudithangi,,Branch Post Office,Non-Delivery,Tamilnadu,Cuddalore,Cuddalore,Tiruchy,Cuddalore,Tamil Nadu,India,607105
Kilarungunam,,Branch Post Office,Delivery,Tamilnadu,Cuddalore,Cuddalore,Tiruchy,Cuddalore,Tamil Nadu,India,607105
Nellikkuppam,,Sub Post Office,Delivery,Tamilnadu,Cuddalore,Cuddalore,Tiruchy,Panruti,Tamil Nadu,India,607105
Nellikuppam Bazaar,,Sub Post Office,Non-Delivery,Tamilnadu,Cuddalore,Cuddalore,Tiruchy,Panruti,Tamil Nadu,India,607105
Sholavalli,,Branch Post Office,Non-Delivery,Tamilnadu,Cuddalore,Cuddalore,Tiruchy,Cuddalore,Tamil Nadu,India,607105
Tirukandeeswaram,,Branch Post Office,Non-Delivery,Tamilnadu,Cuddalore,Cuddalore,Tiruchy,Cuddalore,Tamil Nadu,India,607105
Vanamadevi,,Branch Post Office,Delivery,Tamilnadu,Cuddalore,Cuddalore,Tiruchy,Cuddalore,Tamil Nadu,India,607105
Vanpakkam,,Branch Post Office,Delivery,Tamilnadu,Cuddalore,Cuddalore,Tiruchy,Cuddalore,Tamil Nadu,India,607105
Anguchettipalayam,,Branch Post Office,Delivery,Tamilnadu,Cuddalore,Cuddalore,Tiruchy,Panruti,Tamil Nadu,India,607106
Kanisapakkam,,Branch Post Office,Delivery,Tamilnadu,Cuddalore,Cuddalore,Tiruchy,Panruti,Tamil Nadu,India,607106
Kilmampattu,,Branch Post Office,Delivery,Tamilnadu,Cuddalore,Cuddalore,Tiruchy,Panruti,Tamil Nadu,India,607106
Lakshminarayanapuram,,Branch Post Office,Delivery,Tamilnadu,Cuddalore,Cuddalore,Tiruchy,Panruti,Tamil Nadu,India,607106
Maligampattu,,Branch Post Office,Delivery,Tamilnadu,Cuddalore,Cuddalore,Tiruchy,Panruti,Tamil Nadu,India,607106
Panikuppam,,Branch Post Office,Delivery,Tamilnadu,Cuddalore,Cuddalore,Tiruchy,Panruti,Tamil Nadu,India,607106
Panruti,,Sub Post Office,Delivery,Tamilnadu,Cuddalore,Cuddalore,Tiruchy,Panruti,Tamil Nadu,India,607106
Panruti East,,Sub Post Office,Non-Delivery,Tamilnadu,Cuddalore,Cuddalore,Tiruchy,Panruti,Tamil Nadu,India,607106
Panruti West,,Sub Post Office,Non-Delivery,Tamilnadu,Cuddalore,Cuddalore,Tiruchy,Panruti,Tamil Nadu,India,607106
Sathipattu,,Branch Post Office,Delivery,Tamilnadu,Cuddalore,Cuddalore,Tiruchy,Panruti,Tamil Nadu,India,607106
Semmedu,,Branch Post Office,Delivery,Tamilnadu,Cuddalore,Cuddalore,Tiruchy,Panruti,Tamil Nadu,India,607106
Semokottai,,Branch Post Office,Delivery,Tamilnadu,Cuddalore,Cuddalore,Tiruchy,Panruti,Tamil Nadu,India,607106
Siruvathur,,Branch Post Office,Delivery,Tamilnadu,Cuddalore,Cuddalore,Tiruchy,Panruti,Tamil Nadu,India,607106
Tiruvamur,,Branch Post Office,Delivery,Tamilnadu,Cuddalore,Cuddalore,Tiruchy,Panruti,Tamil Nadu,India,607106
Arasur,,Branch Post Office,Delivery,Tamilnadu,Villupuram,Vriddhachalam,Tiruchy,Ulundurpet,Tamil Nadu,India,607107
Arumpattu,,Branch Post Office,Delivery,Tamilnadu,Villupuram,Vriddhachalam,Tiruchy,Ulundurpet,Tamil Nadu,India,607107
Enathimangalam,,Branch Post Office,Delivery,Tamilnadu,Villupuram,Vriddhachalam,Tiruchy,Ulundurpet,Tamil Nadu,India,607107
Eruvelipattu,,Branch Post Office,Delivery,Tamilnadu,Villupuram,Vriddhachalam,Tiruchy,Ulundurpet,Tamil Nadu,India,607107
Perangiyur,,Sub Post Office,Delivery,Tamilnadu,Villupuram,Vriddhachalam,Tiruchy,Ulundurpet,Tamil Nadu,India,607107
Semmar,,Branch Post Office,Delivery,Tamilnadu,Villupuram,Vriddhachalam,Tiruchy,Ulundurpet,Tamil Nadu,India,607107
Sithanangur,,Branch Post Office,Delivery,Tamilnadu,Villupuram,Vriddhachalam,Tiruchy,Ulundurpet,Tamil Nadu,India,607107
Valayampattu,,Branch Post Office,Delivery,Tamilnadu,Villupuram,Vriddhachalam,Tiruchy,Ulundurpet,Tamil Nadu,India,607107
Bandarakottai,,Branch Post Office,Delivery,Tamilnadu,Cuddalore,Cuddalore,Tiruchy,Panruti,Tamil Nadu,India,607108
Enathirimangalam,,Branch Post Office,Delivery,Tamilnadu,Cuddalore,Cuddalore,Tiruchy,Panruti,Tamil Nadu,India,607108
Karumbur,,Branch Post Office,Delivery,Tamilnadu,Cuddalore,Cuddalore,Tiruchy,Panruti,Tamil Nadu,India,607108
Oraiyur,,Branch Post Office,Delivery,Tamilnadu,Cuddalore,Cuddalore,Tiruchy,Panruti,Tamil Nadu,India,607108
Puthupet (CDL),,Sub Post Office,Delivery,Tamilnadu,Cuddalore,Cuddalore,Tiruchy,Panruti,Tamil Nadu,India,607108
Alaginatham,,Branch Post Office,Delivery,Tamilnadu,Cuddalore,Cuddalore,Tiruchy,Cuddalore,Tamil Nadu,India,607109
Gunamangalam,,Branch Post Office,Delivery,Tamilnadu,Cuddalore,Cuddalore,Tiruchy,Cuddalore,Tamil Nadu,India,607109
Kalaiyur,,Branch Post Office,Delivery,Tamilnadu,Cuddalore,Cuddalore,Tiruchy,Cuddalore,Tamil Nadu,India,607109
Marudadu,,Branch Post Office,Delivery,Tamilnadu,Cuddalore,Cuddalore,Tiruchy,Cuddalore,Tamil Nadu,India,607109
Nathapattu,,Branch Post Office,Delivery,Tamilnadu,Cuddalore,Cuddalore,Tiruchy,Cuddalore,Tamil Nadu,India,607109
Varakalpattu,,Sub Post Office,Delivery,Tamilnadu,Cuddalore,Cuddalore,Tiruchy,Cuddalore,Tamil Nadu,India,607109
Vellapakkam,,Branch Post Office,Delivery,Tamilnadu,Cuddalore,Cuddalore,Tiruchy,Cuddalore,Tamil Nadu,India,607109
Kilkavarappattu,,Sub Post Office,Delivery,Tamilnadu,Cuddalore,Cuddalore,Tiruchy,Panruti,Tamil Nadu,India,607112
Maligaimedu,,Branch Post Office,Delivery,Tamilnadu,Cuddalore,Cuddalore,Tiruchy,Panruti,Tamil Nadu,India,607112
Melkavrapattu,,Branch Post Office,Delivery,Tamilnadu,Cuddalore,Cuddalore,Tiruchy,Panruti,Tamil Nadu,India,607112
Pagandai,,Branch Post Office,Delivery,Tamilnadu,Cuddalore,Cuddalore,Tiruchy,Panruti,Tamil Nadu,India,607112
Adaiyur,,Branch Post Office,Delivery,Tamilnadu,Villupuram,Vriddhachalam,Tiruchy,Ulundurpettai,Tamil Nadu,India,607201
Ellaigramam,,Branch Post Office,Delivery,Tamilnadu,Villupuram,Vriddhachalam,Tiruchy,Ulundurpet,Tamil Nadu,India,607201
Eraiyur (Villupuram),,Sub Post Office,Delivery,Tamilnadu,Villupuram,Vriddhachalam,Tiruchy,Ulundurpet,Tamil Nadu,India,607201
Kunjaram,,Branch Post Office,Delivery,Tamilnadu,Tiruchirappalli,Vriddhachalam,Tiruchy,Ulundurpet,Tamil Nadu,India,607201
Kuvadu,,Branch Post Office,Delivery,Tamilnadu,Villupuram,Vriddhachalam,Tiruchy,Ulundurpet,Tamil Nadu,India,607201
Pallavadi,,Branch Post Office,Delivery,Tamilnadu,Villupuram,Vriddhachalam,Tiruchy,Ulundurpet,Tamil Nadu,India,607201
Periyakurukkai,,Branch Post Office,Delivery,Tamilnadu,Villupuram,Vriddhachalam,Tiruchy,Ulundurpet,Tamil Nadu,India,607201
Elavanasur,,Sub Post Office,Delivery,Tamilnadu,Villupuram,Vriddhachalam,Tiruchy,Ulundurpettai,Tamil Nadu,India,607202
Pinnalavadi,,Branch Post Office,Delivery,Tamilnadu,Villupuram,Vriddhachalam,Tiruchy,Ulundurpet,Tamil Nadu,India,607202
Pu-malayanur,,Branch Post Office,Delivery,Tamilnadu,Villupuram,Vriddhachalam,Tiruchy,Ulundurpet,Tamil Nadu,India,607202
Pugaipatti,,Branch Post Office,Delivery,Tamilnadu,Villupuram,Vriddhachalam,Tiruchy,Ulundurpet,Tamil Nadu,India,607202
Sembiamadevi,,Branch Post Office,Delivery,Tamilnadu,Villupuram,Vriddhachalam,Tiruchy,Ulundurpet,Tamil Nadu,India,607202
Emappur,,Branch Post Office,Delivery,Tamilnadu,Villupuram,Vriddhachalam,Tiruchy,Tirukkoyilur,Tamil Nadu,India,607203
Gramam,,Branch Post Office,Delivery,Tamilnadu,Villupuram,Vriddhachalam,Tiruchy,Tirukkoyilur,Tamil Nadu,India,607203
Kannarampattu,,Branch Post Office,Delivery,Tamilnadu,Villupuram,Vriddhachalam,Tiruchy,Tirukkoyilur,Tamil Nadu,India,607203
Kongarayanur,,Branch Post Office,Delivery,Tamilnadu,Villupuram,Vriddhachalam,Tiruchy,Tirukkoyilur,Tamil Nadu,India,607203
Marangiyur,,Branch Post Office,Delivery,Tamilnadu,Villupuram,Vriddhachalam,Tiruchy,Tirukkoyilur,Tamil Nadu,India,607203
Paiyur,,Branch Post Office,Delivery,Tamilnadu,Villupuram,Vriddhachalam,Tiruchy,Tirukkoyilur,Tamil Nadu,India,607203
Sirumadurai,,Branch Post Office,Delivery,Tamilnadu,Villupuram,Vriddhachalam,Tiruchy,Tirukkoyilur,Tamil Nadu,India,607203
T  . Edayar,,Branch Post Office,Delivery,Tamilnadu,Villupuram,Vriddhachalam,Tiruchy,Tirukkoyilur,Tamil Nadu,India,607203
Thaduthatkondur,,Branch Post Office,Delivery,Tamilnadu,Villupuram,Vriddhachalam,Tiruchy,Tirukkoyilur,Tamil Nadu,India,607203
Tiruvennainallur,,Sub Post Office,Delivery,Tamilnadu,Villupuram,Vriddhachalam,Tiruchy,Tirukkoyilur,Tamil Nadu,India,607203
Eswarakandanallur,,Branch Post Office,Delivery,Tamilnadu,Villupuram,Vriddhachalam,Tiruchy,Ulundurpet,Tamil Nadu,India,607204
Irundai,,Branch Post Office,Delivery,Tamilnadu,Villupuram,Vriddhachalam,Tiruchy,Ulundurpet,Tamil Nadu,India,607204
Kizakkumarudur,,Branch Post Office,Delivery,Tamilnadu,Villupuram,Vriddhachalam,Tiruchy,Ulundurpet,Tamil Nadu,India,607204
Madapattu,,Branch Post Office,Delivery,Tamilnadu,Villupuram,Vriddhachalam,Tiruchy,Ulundurpet,Tamil Nadu,India,607204
Parikkal,,Branch Post Office,Delivery,Tamilnadu,Villupuram,Vriddhachalam,Tiruchy,Ulundurpet,Tamil Nadu,India,607204
Periyakuppam,,Branch Post Office,Delivery,Tamilnadu,Villupuram,Vriddhachalam,Tiruchy,Ulundurpettai,Tamil Nadu,India,607204
Perumbakkam,,Branch Post Office,Delivery,Tamilnadu,Villupuram,Vriddhachalam,Tiruchy,Ulundurpet,Tamil Nadu,India,607204
Sendamangalam,,Branch Post Office,Delivery,Tamilnadu,Villupuram,Vriddhachalam,Tiruchy,Ulundurpet,Tamil Nadu,India,607204
Sendanadu,,Branch Post Office,Delivery,Tamilnadu,Villupuram,Vriddhachalam,Tiruchy,Ulundurpet,Tamil Nadu,India,607204
Tirunavalur,,Sub Post Office,Delivery,Tamilnadu,Villupuram,Vriddhachalam,Tiruchy,Ulundurpet,Tamil Nadu,India,607204
Vanampattu,,Branch Post Office,Delivery,Tamilnadu,Villupuram,Vriddhachalam,Tiruchy,Ulundurpet,Tamil Nadu,India,607204
Akkadavalli,,Branch Post Office,Delivery,Tamilnadu,Cuddalore,Cuddalore,Tiruchy,Panruti,Tamil Nadu,India,607205
Kandrakottai,,Branch Post Office,Delivery,Tamilnadu,Cuddalore,Cuddalore,Tiruchy,Panruti,Tamil Nadu,India,607205
Kattamuthupalayam,,Branch Post Office,Delivery,Tamilnadu,Cuddalore,Cuddalore,Tiruchy,Panruti,Tamil Nadu,India,607205
Kumaramangalam,,Branch Post Office,Delivery,Tamilnadu,Cuddalore,Cuddalore,Tiruchy,Panruti,Tamil Nadu,India,607205
Pulavanur,,Branch Post Office,Delivery,Tamilnadu,Cuddalore,Cuddalore,Tiruchy,Panruti,Tamil Nadu,India,607205
Thattampalayam,,Branch Post Office,Delivery,Tamilnadu,Cuddalore,Cuddalore,Tiruchy,Panruti,Tamil Nadu,India,607205
Tiruthuraiyur,,Sub Post Office,Delivery,Tamilnadu,Cuddalore,Cuddalore,Tiruchy,Panruti,Tamil Nadu,India,607205
Varinjipakkam,,Branch Post Office,Delivery,Tamilnadu,Cuddalore,Cuddalore,Tiruchy,Panruti,Tamil Nadu,India,607205
Amur,,Branch Post Office,Delivery,Tamilnadu,Villupuram,Vriddhachalam,Tiruchy,Tirukkoyilur,Tamil Nadu,India,607209
Manakuppam,,Branch Post Office,Delivery,Tamilnadu,Villupuram,Vriddhachalam,Tiruchy,Tirukkoyilur,Tamil Nadu,India,607209
Pavandur,,Branch Post Office,Delivery,Tamilnadu,Villupuram,Vriddhachalam,Tiruchy,Tirukkoyilur,Tamil Nadu,India,607209
Periyasevalai,,Sub Post Office,Delivery,Tamilnadu,Villupuram,Vriddhachalam,Tiruchy,Tirukkoyilur,Tamil Nadu,India,607209
Saravanapakkam,,Branch Post Office,Delivery,Tamilnadu,Villupuram,Vriddhachalam,Tiruchy,Tirukkoyilur,Tamil Nadu,India,607209
T  . Kolathur,,Branch Post Office,Delivery,Tamilnadu,Villupuram,Vriddhachalam,Tiruchy,Tirukkoyilur,Tamil Nadu,India,607209
Ambalavananpettai,,Branch Post Office,Delivery,Tamilnadu,Cuddalore,Cuddalore,Tiruchy,Cuddalore,Tamil Nadu,India,607301
Anukkampattu,,Branch Post Office,Delivery,Tamilnadu,Cuddalore,Cuddalore,Tiruchy,Cuddalore,Tamil Nadu,India,607301
Ayikuppam,,Branch Post Office,Delivery,Tamilnadu,Cuddalore,Cuddalore,Tiruchy,Cuddalore,Tamil Nadu,India,607301
Krishnankuppam,,Branch Post Office,Delivery,Tamilnadu,Cuddalore,Cuddalore,Tiruchy,Cuddalore,Tamil Nadu,India,607301
Kullanchavadi,,Sub Post Office,Delivery,Tamilnadu,Cuddalore,Cuddalore,Tiruchy,Cuddalore,Tamil Nadu,India,607301
Kundiyamallur,,Branch Post Office,Delivery,Tamilnadu,Cuddalore,Cuddalore,Tiruchy,Cuddalore,Tamil Nadu,India,607301
Madanagopalapuram,,Branch Post Office,Delivery,Tamilnadu,Cuddalore,Cuddalore,Tiruchy,Cuddalore,Tamil Nadu,India,607301
Puliyur,,Branch Post Office,Delivery,Tamilnadu,Cuddalore,Cuddalore,Tiruchy,Panruti,Tamil Nadu,India,607301
Samattikuppam,,Branch Post Office,Delivery,Tamilnadu,Cuddalore,Cuddalore,Tiruchy,Cuddalore,Tamil Nadu,India,607301
Subramaniyapuram,,Branch Post Office,Delivery,Tamilnadu,Cuddalore,Cuddalore,Tiruchy,Cuddalore,Tamil Nadu,India,607301
T.Palayam,,Branch Post Office,Delivery,Tamilnadu,Cuddalore,Cuddalore,Tiruchy,Cuddalore,Tamil Nadu,India,607301
Thondamanatham,,Branch Post Office,Delivery,Tamilnadu,Cuddalore,Cuddalore,Tiruchy,Cuddalore,Tamil Nadu,India,607301
Valudalampattu,,Branch Post Office,Delivery,Tamilnadu,Cuddalore,Cuddalore,Tiruchy,Cuddalore,Tamil Nadu,India,607301
Vasanankuppam,,Branch Post Office,Delivery,Tamilnadu,Cuddalore,Cuddalore,Tiruchy,Cuddalore,Tamil Nadu,India,607301
Adur Agaram,,Branch Post Office,Delivery,Tamilnadu,Cuddalore,Cuddalore,Tiruchy,Cuddalore,Tamil Nadu,India,607302
Arangamangalam,,Branch Post Office,Delivery,Tamilnadu,Cuddalore,Cuddalore,Tiruchy,Cuddalore,Tamil Nadu,India,607302
Chinnakannadi,,Branch Post Office,Delivery,Tamilnadu,Cuddalore,Cuddalore,Tiruchy,Cuddalore,Tamil Nadu,India,607302
Guruvappanpettai,,Branch Post Office,Delivery,Tamilnadu,Cuddalore,Cuddalore,Tiruchy,Cuddalore,Tamil Nadu,India,607302
Kalkunam,,Branch Post Office,Delivery,Tamilnadu,Cuddalore,Cuddalore,Tiruchy,Cuddalore,Tamil Nadu,India,607302
Kilur,,Branch Post Office,Delivery,Tamilnadu,Cuddalore,Cuddalore,Tiruchy,Cuddalore,Tamil Nadu,India,607302
Kurinjipadi,,Sub Post Office,Delivery,Tamilnadu,Cuddalore,Cuddalore,Tiruchy,Cuddalore,Tamil Nadu,India,607302
Pethanaickenkuppam,,Branch Post Office,Delivery,Tamilnadu,Cuddalore,Cuddalore,Tiruchy,Cuddalore,Tamil Nadu,India,607302
Vehakollai,,Branch Post Office,Delivery,Tamilnadu,Cuddalore,Cuddalore,Tiruchy,Cuddalore,Tamil Nadu,India,607302
Venkatampettai,,Branch Post Office,Delivery,Tamilnadu,Cuddalore,Cuddalore,Tiruchy,Cuddalore,Tamil Nadu,India,607302
Virupakshi,,Branch Post Office,Delivery,Tamilnadu,Cuddalore,Cuddalore,Tiruchy,Cuddalore,Tamil Nadu,India,607302
Karunguli,,Branch Post Office,Delivery,Tamilnadu,Cuddalore,Cuddalore,Tiruchy,Panruti,Tamil Nadu,India,607303
Maruvai,,Branch Post Office,Delivery,Tamilnadu,Cuddalore,Cuddalore,Tiruchy,Panruti,Tamil Nadu,India,607303
Moolakuppam,,Branch Post Office,Delivery,Tamilnadu,Cuddalore,Cuddalore,Tiruchy,Panruti,Tamil Nadu,India,607303
Serakuppam,,Branch Post Office,Non-Delivery,Tamilnadu,Cuddalore,Cuddalore,Tiruchy,Panruti,Tamil Nadu,India,607303
Vadakuthu,,Branch Post Office,Delivery,Tamilnadu,Cuddalore,Cuddalore,Tiruchy,Panruti,Tamil Nadu,India,607303
Vadalur,,Sub Post Office,Delivery,Tamilnadu,Cuddalore,Cuddalore,Tiruchy,Panruti,Tamil Nadu,India,607303
Vanathirayapuram,,Branch Post Office,Delivery,Tamilnadu,Cuddalore,Cuddalore,Tiruchy,Panruti,Tamil Nadu,India,607303
Gandhi Nagar (Cuddalore),,Sub Post Office,Delivery,Tamilnadu,Cuddalore,Cuddalore,Tiruchy,Cuddalore,Tamil Nadu,India,607308
Padirikuppam,,Branch Post Office,Delivery,Tamilnadu,Cuddalore,Cuddalore,Tiruchy,Cuddalore,Tamil Nadu,India,607401
Sundaravandi,,Branch Post Office,Delivery,Tamilnadu,Cuddalore,Cuddalore,Tiruchy,Cuddalore,Tamil Nadu,India,607401
Tirumanikuzhi,,Branch Post Office,Delivery,Tamilnadu,Cuddalore,Cuddalore,Tiruchy,Cuddalore,Tamil Nadu,India,607401
Tiruvendhipuram,,Sub Post Office,Delivery,Tamilnadu,Cuddalore,Cuddalore,Tiruchy,Cuddalore,Tamil Nadu,India,607401
Bahoor,,Sub Post Office,Delivery,Tamilnadu,Pondicherry,Pondicherry,Chennai Region,Pondicherry,Pondicherry,India,607402
Courivinatham,,Branch Post Office,Delivery,Tamilnadu,Pondicherry,Pondicherry,Chennai Region,Pondicherry,Pondicherry,India,607402
Manamedu,,Branch Post Office,Delivery,Tamilnadu,Pondicherry,Pondicherry,Chennai Region,Pondicherry,Pondicherry,India,607402
Manapeth,,Branch Post Office,Delivery,Tamilnadu,Pondicherry,Pondicherry,Chennai Region,Pondicherry,Pondicherry,India,607402
Seliamedu,,Branch Post Office,Delivery,Tamilnadu,Pondicherry,Pondicherry,Chennai Region,Pondicherry,Pondicherry,India,607402
Thokkanambakkam,,Branch Post Office,Delivery,Tamilnadu,Cuddalore,Pondicherry,Chennai Region,Cuddalore,Tamil Nadu,India,607402
Kirumambakkam,,Sub Post Office,Delivery,Tamilnadu,Villupuram,Pondicherry,Chennai Region,,Tamil Nadu,India,607403
Pillayarkuppam,,Branch Post Office,Delivery,Tamilnadu,Pondicherry,Pondicherry,Chennai Region,Pondicherry,Pondicherry,India,607403
Reddichavadi,,Branch Post Office,Delivery,Tamilnadu,Cuddalore,Pondicherry,Chennai Region,Cuddalore,Tamil Nadu,India,607403
"Block 1, Neyveli",,Sub Post Office,Non-Delivery,Tamilnadu,Cuddalore,Cuddalore,Tiruchy,Virudhachalam,Tamil Nadu,India,607801
"Block 10,neyveli",,Sub Post Office,Non-Delivery,Tamilnadu,Cuddalore,Cuddalore,Tiruchy,Virudhachalam,Tamil Nadu,India,607801
"Block 24, Neyveli",,Sub Post Office,Non-Delivery,Tamilnadu,Cuddalore,Cuddalore,Tiruchy,Virudhachalam,Tamil Nadu,India,607801
Neyveli 1,,Sub Post Office,Delivery,Tamilnadu,Cuddalore,Cuddalore,Tiruchy,Virudhachalam,Tamil Nadu,India,607801
A.Kuravankuppam,,Branch Post Office,Delivery,Tamilnadu,Cuddalore,Cuddalore,Tiruchy,Virudhachalam,Tamil Nadu,India,607802
Ammeri,,Branch Post Office,Delivery,Tamilnadu,Cuddalore,Cuddalore,Tiruchy,Panruti,Tamil Nadu,India,607802
Kottagam,,Branch Post Office,Delivery,Tamilnadu,Cuddalore,Cuddalore,Tiruchy,Panruti,Tamil Nadu,India,607802
Melakolakudi,,Branch Post Office,Delivery,Tamilnadu,Cuddalore,Cuddalore,Tiruchy,Panruti,Tamil Nadu,India,607802
Melakuppam,,Branch Post Office,Delivery,Tamilnadu,Cuddalore,Cuddalore,Tiruchy,Panruti,Tamil Nadu,India,607802
Mettukkuppam,,Branch Post Office,Delivery,Tamilnadu,Cuddalore,Cuddalore,Tiruchy,Panruti,Tamil Nadu,India,607802
Neyveli 2,,Sub Post Office,Delivery,Tamilnadu,Cuddalore,Cuddalore,Tiruchy,Panruti,Tamil Nadu,India,607802
Neyveli Second Mines,,Sub Post Office,Non-Delivery,Tamilnadu,Cuddalore,Cuddalore,Tiruchy,Virudhachalam,Tamil Nadu,India,607802
Periyakappankulam,,Branch Post Office,Delivery,Tamilnadu,Cuddalore,Cuddalore,Tiruchy,Panruti,Tamil Nadu,India,607802
Seplanatham,,Branch Post Office,Delivery,Tamilnadu,Cuddalore,Cuddalore,Tiruchy,Panruti,Tamil Nadu,India,607802
Vadakkuvelur,,Branch Post Office,Delivery,Tamilnadu,Cuddalore,Cuddalore,Tiruchy,Panruti,Tamil Nadu,India,607802
"Block 18, Neyveli",,Sub Post Office,Non-Delivery,Tamilnadu,Cuddalore,Cuddalore,Tiruchy,Virudhachalam,Tamil Nadu,India,607803
"Block 26, Neyveli",,Sub Post Office,Non-Delivery,Tamilnadu,Cuddalore,Cuddalore,Tiruchy,Virudhachalam,Tamil Nadu,India,607803
"Block 5, Neyveli",,Sub Post Office,Non-Delivery,Tamilnadu,Cuddalore,Cuddalore,Tiruchy,Virudhachalam,Tamil Nadu,India,607803
Neyveli 3,,Sub Post Office,Delivery,Tamilnadu,Cuddalore,Cuddalore,Tiruchy,Virudhachalam,Tamil Nadu,India,607803
Kotteri,,Branch Post Office,Delivery,Tamilnadu,Cuddalore,Vriddhachalam,Tiruchy,Vriddhachalam,Tamil Nadu,India,607804
Mudanai,,Branch Post Office,Delivery,Tamilnadu,Cuddalore,Vriddhachalam,Tiruchy,Vriddhachalam,Tamil Nadu,India,607804
Oomangalam,,Sub Post Office,Delivery,Tamilnadu,Cuddalore,Vriddhachalam,Tiruchy,Vriddhachalam,Tamil Nadu,India,607804
U  Agaram,,Branch Post Office,Delivery,Tamilnadu,Cuddalore,Vriddhachalam,Tiruchy,Vriddhachalam,Tamil Nadu,India,607804
Uttangal,,Branch Post Office,Delivery,Tamilnadu,Cuddalore,Vriddhachalam,Tiruchy,Vriddhachalam,Tamil Nadu,India,607804
Iruppu,,Branch Post Office,Delivery,Tamilnadu,Cuddalore,Cuddalore,Tiruchy,Panruti,Tamil Nadu,India,607805
Kattugudalur,,Branch Post Office,Delivery,Tamilnadu,Cuddalore,Cuddalore,Tiruchy,Panruti,Tamil Nadu,India,607805
Kilkangeyankuppam,,Branch Post Office,Delivery,Tamilnadu,Cuddalore,Cuddalore,Tiruchy,Panruti,Tamil Nadu,India,607805
Mudapuli,,Branch Post Office,Delivery,Tamilnadu,Cuddalore,Cuddalore,Tiruchy,Panruti,Tamil Nadu,India,607805
Odappankuppam,,Branch Post Office,Delivery,Tamilnadu,Villupuram,Cuddalore,Tiruchy,Panruti,Tamil Nadu,India,607805
Perperiyankuppam,,Sub Post Office,Delivery,Tamilnadu,Cuddalore,Cuddalore,Tiruchy,Panruti,Tamil Nadu,India,607805
Sorathur,,Branch Post Office,Delivery,Tamilnadu,Cuddalore,Cuddalore,Tiruchy,Panruti,Tamil Nadu,India,607805
Vallam,,Branch Post Office,Delivery,Tamilnadu,Cuddalore,Cuddalore,Tiruchy,Panruti,Tamil Nadu,India,607805
Visoor,,Branch Post Office,Delivery,Tamilnadu,Cuddalore,Cuddalore,Tiruchy,Panruti,Tamil Nadu,India,607805
"Block 29, Neyveli",,Sub Post Office,Delivery,Tamilnadu,Cuddalore,Cuddalore,Tiruchy,Virudhachalam,Tamil Nadu,India,607807
Neyveli Ii Thermal Station,,Sub Post Office,Non-Delivery,Tamilnadu,Cuddalore,Cuddalore,Tiruchy,Virudhachalam,Tamil Nadu,India,607807
Neyveli Thermal Bus Stand,,Sub Post Office,Non-Delivery,Tamilnadu,Cuddalore,Cuddalore,Tiruchy,Virudhachalam,Tamil Nadu,India,607807
Chidambaram,,Head Post Office,Delivery,Tamilnadu,Cuddalore,Cuddalore,Tiruchy,,Tamil Nadu,India,608001
Chidambaram East,,Sub Post Office,Non-Delivery,Tamilnadu,Cuddalore,Cuddalore,Tiruchy,,Tamil Nadu,India,608001
Chidambaram North,,Branch Post Office,Non-Delivery,Tamilnadu,Cuddalore,Cuddalore,Tiruchy,Chidambaram North,Tamil Nadu,India,608001
Chidambaram West,,Sub Post Office,Non-Delivery,Tamilnadu,Cuddalore,Cuddalore,Tiruchy,,Tamil Nadu,India,608001
Muthukamatchithottam,,Branch Post Office,Non-Delivery,Tamilnadu,Cuddalore,Cuddalore,Tiruchy,Chidambaram North,Tamil Nadu,India,608001
Annamalai University,,Sub Post Office,Non-Delivery,Tamilnadu,Cuddalore,Cuddalore,Tiruchy,Chidambaram,Tamil Nadu,India,608002
Annamalainagar,,Sub Post Office,Delivery,Tamilnadu,Cuddalore,Cuddalore,Tiruchy,Chidambaram,Tamil Nadu,India,608002
Gavarappattu,,Branch Post Office,Delivery,Tamilnadu,Cuddalore,Cuddalore,Tiruchy,Chidambaram,Tamil Nadu,India,608002
Jayankondapattinam,,Branch Post Office,Delivery,Tamilnadu,Cuddalore,Cuddalore,Tiruchy,Chidambaram,Tamil Nadu,India,608002
Kodiyampalayam,,Branch Post Office,Delivery,Tamilnadu,Cuddalore,Cuddalore,Tiruchy,Chidambaram,Tamil Nadu,India,608002
Kovilampoondi,,Branch Post Office,Delivery,Tamilnadu,Cuddalore,Cuddalore,Tiruchy,Chidambaram,Tamil Nadu,India,608002
Nakkaravanthankudi,,Branch Post Office,Delivery,Tamilnadu,Cuddalore,Cuddalore,Tiruchy,Chidambaram,Tamil Nadu,India,608002
Perampattu,,Branch Post Office,Delivery,Tamilnadu,Cuddalore,Cuddalore,Tiruchy,Chidambaram,Tamil Nadu,India,608002
Pichavaram,,Branch Post Office,Delivery,Tamilnadu,Cuddalore,Cuddalore,Tiruchy,Chidambaram,Tamil Nadu,India,608002
Sivapuri,,Branch Post Office,Delivery,Tamilnadu,Cuddalore,Cuddalore,Tiruchy,,Tamil Nadu,India,608002
Uthamacholamangalam,,Branch Post Office,Delivery,Tamilnadu,Cuddalore,Cuddalore,Tiruchy,Chidambaram,Tamil Nadu,India,608002
C.Mutlur,,Branch Post Office,Delivery,Tamilnadu,Cuddalore,Cuddalore,Tiruchy,Chidambaram,Tamil Nadu,India,608102
Keelamoongiladi,,Branch Post Office,Delivery,Tamilnadu,Cuddalore,Cuddalore,Tiruchy,Chidambaram,Tamil Nadu,India,608102
Keelanuvampattu,,Branch Post Office,Delivery,Tamilnadu,Cuddalore,Cuddalore,Tiruchy,Chidambaram,Tamil Nadu,India,608102
Killai,,Sub Post Office,Delivery,Tamilnadu,Cuddalore,Cuddalore,Tiruchy,Chidambaram,Tamil Nadu,India,608102
Nanjamahathuvazkai,,Branch Post Office,Delivery,Tamilnadu,Cuddalore,Cuddalore,Tiruchy,Chidambaram,Tamil Nadu,India,608102
Pinnathur,,Branch Post Office,Delivery,Tamilnadu,Cuddalore,Cuddalore,Tiruchy,Chidambaram,Tamil Nadu,India,608102
Ponnanthittu,,Branch Post Office,Delivery,Tamilnadu,Cuddalore,Cuddalore,Tiruchy,Chidambaram,Tamil Nadu,India,608102
Thillaividangan,,Branch Post Office,Delivery,Tamilnadu,Cuddalore,Cuddalore,Tiruchy,Chidambaram,Tamil Nadu,India,608102
Ayyanur Akkaramangalam,,Branch Post Office,Delivery,Tamilnadu,Cuddalore,Cuddalore,Tiruchy,Chidambaram,Tamil Nadu,India,608201
C.Sathamangalam,,Branch Post Office,Delivery,Tamilnadu,Cuddalore,Cuddalore,Tiruchy,Chidambaram,Tamil Nadu,India,608201
Maduranthaganallur,,Branch Post Office,Delivery,Tamilnadu,Cuddalore,Cuddalore,Tiruchy,Chidambaram,Tamil Nadu,India,608201
Odakkanallur,,Branch Post Office,Delivery,Tamilnadu,Cuddalore,Cuddalore,Tiruchy,Chidambaram,Tamil Nadu,India,608201
Orathur,,Sub Post Office,Delivery,Tamilnadu,Cuddalore,Cuddalore,Tiruchy,Chidambaram,Tamil Nadu,India,608201
Pannapattu,,Branch Post Office,Delivery,Tamilnadu,Cuddalore,Cuddalore,Tiruchy,Chidambaram,Tamil Nadu,India,608201
Paradur,,Branch Post Office,Delivery,Tamilnadu,Cuddalore,Cuddalore,Tiruchy,Chidambaram,Tamil Nadu,India,608201
Sakkangudi,,Branch Post Office,Delivery,Tamilnadu,Cuddalore,Cuddalore,Tiruchy,Chidambaram,Tamil Nadu,India,608201
Vakkur,,Branch Post Office,Delivery,Tamilnadu,Cuddalore,Cuddalore,Tiruchy,Chidambaram,Tamil Nadu,India,608201
Arantangi,,Branch Post Office,Delivery,Tamilnadu,Cuddalore,Cuddalore,Tiruchy,Kattumannarkoil,Tamil Nadu,India,608301
Kandamangalam,,Branch Post Office,Delivery,Tamilnadu,Cuddalore,Cuddalore,Tiruchy,Kattumannarkoil,Tamil Nadu,India,608301
Karunakaranallur,,Branch Post Office,Delivery,Tamilnadu,Cuddalore,Cuddalore,Tiruchy,Kattumannarkoil,Tamil Nadu,India,608301
Kattumannarkoil,,Sub Post Office,Delivery,Tamilnadu,Cuddalore,Cuddalore,Tiruchy,Kattumannarkoil,Tamil Nadu,India,608301
M.Kolakudi,,Branch Post Office,Delivery,Tamilnadu,Cuddalore,Cuddalore,Tiruchy,Kattumannarkoil,Tamil Nadu,India,608301
Melapalachanallur,,Branch Post Office,Delivery,Tamilnadu,Cuddalore,Cuddalore,Tiruchy,Kattumannarkoil,Tamil Nadu,India,608301
Nattarmangalam,,Branch Post Office,Delivery,Tamilnadu,Cuddalore,Cuddalore,Tiruchy,Kattumannarkoil,Tamil Nadu,India,608301
Rajendra Cholagam,,Branch Post Office,Delivery,Tamilnadu,Cuddalore,Cuddalore,Tiruchy,Kattumannarkoil,Tamil Nadu,India,608301
Sithamalli,,Branch Post Office,Delivery,Tamilnadu,Cuddalore,Cuddalore,Tiruchy,Kattumannarkoil,Tamil Nadu,India,608301
Udayargudi,,Branch Post Office,Non-Delivery,Tamilnadu,Cuddalore,Cuddalore,Tiruchy,Kattumannarkoil,Tamil Nadu,India,608301
Veeranandapuram,,Branch Post Office,Delivery,Tamilnadu,Cuddalore,Cuddalore,Tiruchy,Kattumannarkoil,Tamil Nadu,India,608301
C.Arasur,,Branch Post Office,Delivery,Tamilnadu,Cuddalore,Cuddalore,Tiruchy,Chidambaram,Tamil Nadu,India,608302
Komaratchi,,Sub Post Office,Delivery,Tamilnadu,Cuddalore,Cuddalore,Tiruchy,Kattumannarkoil,Tamil Nadu,India,608302
M.Puliyangudi,,Branch Post Office,Delivery,Tamilnadu,Cuddalore,Cuddalore,Tiruchy,Chidambaram,Tamil Nadu,India,608302
Melaparuthikudi,,Branch Post Office,Delivery,Tamilnadu,Cuddalore,Cuddalore,Tiruchy,Chidambaram,Tamil Nadu,India,608302
Melavanniyur,,Branch Post Office,Delivery,Tamilnadu,Cuddalore,Cuddalore,Tiruchy,Chidambaram,Tamil Nadu,India,608302
Mullangudi,,Branch Post Office,Delivery,Tamilnadu,Cuddalore,Cuddalore,Tiruchy,Chidambaram,Tamil Nadu,India,608302
Nanjalur,,Branch Post Office,Delivery,Tamilnadu,Cuddalore,Cuddalore,Tiruchy,Chidambaram,Tamil Nadu,India,608302
Pulamedu,,Branch Post Office,Delivery,Tamilnadu,Cuddalore,Cuddalore,Tiruchy,Chidambaram,Tamil Nadu,India,608302
Suravilandur,,Branch Post Office,Delivery,Tamilnadu,Cuddalore,Cuddalore,Tiruchy,Chidambaram,Tamil Nadu,India,608302
Temmur,,Branch Post Office,Delivery,Tamilnadu,Cuddalore,Cuddalore,Tiruchy,Chidambaram,Tamil Nadu,India,608302
Vannaiyur,,Branch Post Office,Delivery,Tamilnadu,Cuddalore,Cuddalore,Tiruchy,Chidambaram,Tamil Nadu,India,608302
Elleri,,Branch Post Office,Delivery,Tamilnadu,Cuddalore,Cuddalore,Tiruchy,,Tamil Nadu,India,608303
Kollimalai Kilpathi,,Branch Post Office,Delivery,Tamilnadu,Cuddalore,Cuddalore,Tiruchy,Chidambaram,Tamil Nadu,India,608303
Kollumedu,,Branch Post Office,Delivery,Tamilnadu,Cuddalore,Cuddalore,Tiruchy,Chidambaram,Tamil Nadu,India,608303
Lalpet,,Sub Post Office,Delivery,Tamilnadu,Cuddalore,Cuddalore,Tiruchy,Kattumannarkoil,Tamil Nadu,India,608303
M.Odaiyur,,Branch Post Office,Delivery,Tamilnadu,Cuddalore,Cuddalore,Tiruchy,Chidambaram,Tamil Nadu,India,608303
Maniadur,,Branch Post Office,Delivery,Tamilnadu,Cuddalore,Cuddalore,Tiruchy,Chidambaram,Tamil Nadu,India,608303
Neyvasal,,Branch Post Office,Delivery,Tamilnadu,Cuddalore,Cuddalore,Tiruchy,Chidambaram,Tamil Nadu,India,608303
Pillaiyarthangal,,Branch Post Office,Delivery,Tamilnadu,Cuddalore,Cuddalore,Tiruchy,Chidambaram,Tamil Nadu,India,608303
Tirunaraiyur,,Branch Post Office,Delivery,Tamilnadu,Cuddalore,Cuddalore,Tiruchy,Chidambaram,Tamil Nadu,India,608303
Chettithangal,,Branch Post Office,Delivery,Tamilnadu,Cuddalore,Cuddalore,Tiruchy,Kattumannarkoil,Tamil Nadu,India,608304
Eyyalur,,Branch Post Office,Delivery,Tamilnadu,Cuddalore,Cuddalore,Tiruchy,Kattumannarkoil,Tamil Nadu,India,608304
Kanjankollai,,Branch Post Office,Delivery,Tamilnadu,Cuddalore,Cuddalore,Tiruchy,Kattumannarkoil,Tamil Nadu,India,608304
M.Adhanur,,Branch Post Office,Delivery,Tamilnadu,Cuddalore,Cuddalore,Tiruchy,Kattumannarkoil,Tamil Nadu,India,608304
Melakadambur,,Branch Post Office,Delivery,Tamilnadu,Cuddalore,Cuddalore,Tiruchy,Kattumannarkoil,Tamil Nadu,India,608304
Reddiyur,,Sub Post Office,Delivery,Tamilnadu,Cuddalore,Cuddalore,Tiruchy,Kattumannarkoil,Tamil Nadu,India,608304
Shandan,,Branch Post Office,Delivery,Tamilnadu,Cuddalore,Cuddalore,Tiruchy,Kattumannarkoil,Tamil Nadu,India,608304
Sirukattur,,Branch Post Office,Delivery,Tamilnadu,Cuddalore,Cuddalore,Tiruchy,Kattumannarkoil,Tamil Nadu,India,608304
Alkondanatham,,Branch Post Office,Delivery,Tamilnadu,Cuddalore,Cuddalore,Tiruchy,Kattumannarkoil,Tamil Nadu,India,608305
Kandakumaran,,Branch Post Office,Delivery,Tamilnadu,Cuddalore,Cuddalore,Tiruchy,Kattumannarkoil,Tamil Nadu,India,608305
Kothavasal,,Branch Post Office,Delivery,Tamilnadu,Cuddalore,Cuddalore,Tiruchy,Kattumannarkoil,Tamil Nadu,India,608305
Kuduveli,,Branch Post Office,Delivery,Tamilnadu,Cuddalore,Cuddalore,Tiruchy,Kattumannarkoil,Tamil Nadu,India,608305
Mogaiyur,,Branch Post Office,Delivery,Tamilnadu,Cuddalore,Cuddalore,Tiruchy,Kattumannarkoil,Tamil Nadu,India,608305
Perungalur,,Branch Post Office,Delivery,Tamilnadu,Cuddalore,Cuddalore,Tiruchy,Kattumannarkoil,Tamil Nadu,India,608305
T.Nedunjeri,,Sub Post Office,Delivery,Tamilnadu,Cuddalore,Cuddalore,Tiruchy,Kattumannarkoil,Tamil Nadu,India,608305
Terkuviruthangam,,Branch Post Office,Delivery,Tamilnadu,Cuddalore,Cuddalore,Tiruchy,Kattumannarkoil,Tamil Nadu,India,608305
Vilagam,,Branch Post Office,Delivery,Tamilnadu,Cuddalore,Cuddalore,Tiruchy,Kattumannarkoil,Tamil Nadu,India,608305
Ayangudi,,Sub Post Office,Delivery,Tamilnadu,Cuddalore,Cuddalore,Tiruchy,Kattumannarkoil,Tamil Nadu,India,608306
Kunjimedu,,Branch Post Office,Delivery,Tamilnadu,Cuddalore,Cuddalore,Tiruchy,Kattumannarkoil,Tamil Nadu,India,608306
Movur,,Branch Post Office,Delivery,Tamilnadu,Cuddalore,Cuddalore,Tiruchy,Kattumannarkoil,Tamil Nadu,India,608306
Muttam,,Branch Post Office,Delivery,Tamilnadu,Cuddalore,Cuddalore,Tiruchy,Kattumannarkoil,Tamil Nadu,India,608306
Omampuliyur,,Branch Post Office,Delivery,Tamilnadu,Cuddalore,Cuddalore,Tiruchy,Kattumannarkoil,Tamil Nadu,India,608306
Ammapettai,,Branch Post Office,Delivery,Tamilnadu,Cuddalore,Cuddalore,Tiruchy,Chidambaram,Tamil Nadu,India,608401
Athipatu,,Branch Post Office,Delivery,Tamilnadu,Cuddalore,Cuddalore,Tiruchy,Chidabamram,Tamil Nadu,India,608401
Karuppur,,Branch Post Office,Delivery,Tamilnadu,Cuddalore,Cuddalore,Tiruchy,Chidabamram,Tamil Nadu,India,608401
Salianthoppu,,Branch Post Office,Delivery,Tamilnadu,Cuddalore,Cuddalore,Tiruchy,Chidabamram,Tamil Nadu,India,608401
Vadakkumangudi,,Branch Post Office,Delivery,Tamilnadu,Cuddalore,Cuddalore,Tiruchy,Chidabamram,Tamil Nadu,India,608401
Vaiyur,,Branch Post Office,Delivery,Tamilnadu,Cuddalore,Cuddalore,Tiruchy,Chidabamram,Tamil Nadu,India,608401
Vallampadugai,,Sub Post Office,Delivery,Tamilnadu,Cuddalore,Cuddalore,Tiruchy,Chidambaram,Tamil Nadu,India,608401
B.Adivaraganallur,,Branch Post Office,Delivery,Tamilnadu,Cuddalore,Cuddalore,Tiruchy,Chidambaram,Tamil Nadu,India,608501
B.Mutlur,,Sub Post Office,Delivery,Tamilnadu,Cuddalore,Cuddalore,Tiruchy,Chidambaram,Tamil Nadu,India,608501
Kothattai,,Branch Post Office,Delivery,Tamilnadu,Cuddalore,Cuddalore,Tiruchy,Chidambaram,Tamil Nadu,India,608501
Kuriamangalam,,Branch Post Office,Delivery,Tamilnadu,Cuddalore,Cuddalore,Tiruchy,Chidambaram,Tamil Nadu,India,608501
Manikollai,,Branch Post Office,Delivery,Tamilnadu,Cuddalore,Cuddalore,Tiruchy,Chidambaram,Tamil Nadu,India,608501
Manjakuli,,Branch Post Office,Delivery,Tamilnadu,Cuddalore,Cuddalore,Tiruchy,Chidambaram,Tamil Nadu,India,608501
Periyakomatti,,Branch Post Office,Delivery,Tamilnadu,Cuddalore,Cuddalore,Tiruchy,Chidambaram,Tamil Nadu,India,608501
Puduchatram,,Branch Post Office,Delivery,Tamilnadu,Cuddalore,Cuddalore,Tiruchy,Chidambaram,Tamil Nadu,India,608501
Thatchakadu,,Branch Post Office,Delivery,Tamilnadu,Cuddalore,Cuddalore,Tiruchy,Chidambaram,Tamil Nadu,India,608501
Theethampalayam,,Branch Post Office,Delivery,Tamilnadu,Cuddalore,Cuddalore,Tiruchy,Chidambaram,Tamil Nadu,India,608501
Villiyanallur,,Branch Post Office,Delivery,Tamilnadu,Cuddalore,Cuddalore,Tiruchy,Chidambaram,Tamil Nadu,India,608501
Agaram,,Branch Post Office,Non-Delivery,Tamilnadu,Cuddalore,Cuddalore,Tiruchy,,Tamil Nadu,India,608502
Ariyakoshti,,Branch Post Office,Delivery,Tamilnadu,Cuddalore,Cuddalore,Tiruchy,Chidambaram,Tamil Nadu,India,608502
C.Pudupettai,,Branch Post Office,Delivery,Tamilnadu,Cuddalore,Cuddalore,Tiruchy,Chidambaram,Tamil Nadu,India,608502
Parangipettai,,Sub Post Office,Delivery,Tamilnadu,Cuddalore,Cuddalore,Tiruchy,Chidambaram,Tamil Nadu,India,608502
Samiyarpettai,,Branch Post Office,Delivery,Tamilnadu,Cuddalore,Cuddalore,Tiruchy,Chidambaram,Tamil Nadu,India,608502
Azhisikudi,,Branch Post Office,Delivery,Tamilnadu,Cuddalore,Cuddalore,Tiruchy,Chidambaram,Tamil Nadu,India,608601
Bhuvanagiri,,Sub Post Office,Delivery,Tamilnadu,Cuddalore,Cuddalore,Tiruchy,Chidambaram,Tamil Nadu,India,608601
Budavarayanpettai,,Branch Post Office,Delivery,Tamilnadu,Cuddalore,Cuddalore,Tiruchy,Chidambaram,Tamil Nadu,India,608601
daiyur,,Branch Post Office,Delivery,Tamilnadu,Cuddalore,Cuddalore,Tiruchy,Chidambaram,Tamil Nadu,India,608601
Kothavacheri,,Branch Post Office,Delivery,Tamilnadu,Cuddalore,Cuddalore,Tiruchy,Chidambaram,Tamil Nadu,India,608601
Kummidimulai,,Branch Post Office,Delivery,Tamilnadu,Cuddalore,Cuddalore,Tiruchy,Chidambaram,Tamil Nadu,India,608601
Manjakollai,,Branch Post Office,Delivery,Tamilnadu,Cuddalore,Cuddalore,Tiruchy,Chidambaram,Tamil Nadu,India,608601
Melamanakudi,,Branch Post Office,Delivery,Tamilnadu,Cuddalore,Cuddalore,Tiruchy,Chidambaram,Tamil Nadu,India,608601
Miralur,,Branch Post Office,Delivery,Tamilnadu,Cuddalore,Cuddalore,Tiruchy,Chidambaram,Tamil Nadu,India,608601
Puvalai,,Branch Post Office,Delivery,Tamilnadu,Cuddalore,Cuddalore,Tiruchy,Chidambaram,Tamil Nadu,India,608601
Sathapadi,,Branch Post Office,Delivery,Tamilnadu,Cuddalore,Cuddalore,Tiruchy,Chidambaram,Tamil Nadu,India,608601
C.Veeracholagam,,Branch Post Office,Delivery,Tamilnadu,Cuddalore,Cuddalore,Tiruchy,Chidambaram,Tamil Nadu,India,608602
Ennanagaram,,Branch Post Office,Delivery,Tamilnadu,Cuddalore,Cuddalore,Tiruchy,Chidambaram,Tamil Nadu,India,608602
K.Adur,,Branch Post Office,Delivery,Tamilnadu,Cuddalore,Cuddalore,Tiruchy,Chidambaram,Tamil Nadu,India,608602
K.Alambadi,,Branch Post Office,Delivery,Tamilnadu,Cuddalore,Cuddalore,Tiruchy,Chidambaram,Tamil Nadu,India,608602
Keerapalayam,,Sub Post Office,Delivery,Tamilnadu,Cuddalore,Cuddalore,Tiruchy,Chidambaram,Tamil Nadu,India,608602
Krishnapuram,,Branch Post Office,Delivery,Tamilnadu,Cuddalore,Cuddalore,Tiruchy,Chidambaram,Tamil Nadu,India,608602
Lalpuram,,Branch Post Office,Delivery,Tamilnadu,Cuddalore,Cuddalore,Tiruchy,Chidambaram,Tamil Nadu,India,608602
Vayalur,,Branch Post Office,Delivery,Tamilnadu,Cuddalore,Cuddalore,Tiruchy,Chidambaram,Tamil Nadu,India,608602
Kanur,,Branch Post Office,Delivery,Tamilnadu,Cuddalore,Cuddalore,Tiruchy,Kattumannarkoil,Tamil Nadu,India,608701
Kondasamudram,,Branch Post Office,Delivery,Tamilnadu,Cuddalore,Cuddalore,Tiruchy,Kattummannarkoil,Tamil Nadu,India,608701
Mamangalam,,Branch Post Office,Delivery,Tamilnadu,Cuddalore,Cuddalore,Tiruchy,Kattumannarkoil,Tamil Nadu,India,608701
Palayamkottai Melpathy,,Branch Post Office,Delivery,Tamilnadu,Cuddalore,Cuddalore,Tiruchy,Kattumannarkoil,Tamil Nadu,India,608701
Palayamkottai(CDL),,Sub Post Office,Delivery,Tamilnadu,Cuddalore,Cuddalore,Tiruchy,,Tamil Nadu,India,608701
Perur,,Branch Post Office,Delivery,Tamilnadu,Cuddalore,Cuddalore,Tiruchy,Kattumanarkoil,Tamil Nadu,India,608701
Pudaiyur,,Branch Post Office,Delivery,Tamilnadu,Cuddalore,Cuddalore,Tiruchy,Kattumannarkoil,Tamil Nadu,India,608701
Ramapuram,,Branch Post Office,Delivery,Tamilnadu,Cuddalore,Cuddalore,Tiruchy,Kattumannarkioil,Tamil Nadu,India,608701
Sholathiram,,Branch Post Office,Delivery,Tamilnadu,Cuddalore,Cuddalore,Tiruchy,Kattmannarkoil,Tamil Nadu,India,608701
Vadakkupalayam,,Branch Post Office,Delivery,Tamilnadu,Cuddalore,Cuddalore,Tiruchy,Kattumannarkoil,Tamil Nadu,India,608701
Valasakkadu,,Branch Post Office,Delivery,Tamilnadu,Cuddalore,Cuddalore,Tiruchy,Kattumannarkoil,Tamil Nadu,India,608701
Vanamadevi,,Branch Post Office,Delivery,Tamilnadu,Cuddalore,Cuddalore,Tiruchy,Kattumannarkoil,Tamil Nadu,India,608701
Agara Alambadi,,Branch Post Office,Delivery,Tamilnadu,Cuddalore,Cuddalore,Tiruchy,Kattumannarkoil,Tamil Nadu,India,608702
Budangudi,,Branch Post Office,Delivery,Tamilnadu,Cuddalore,Cuddalore,Tiruchy,Kattumannarkoil,Tamil Nadu,India,608702
Kavalakudi,,Branch Post Office,Delivery,Tamilnadu,Cuddalore,Cuddalore,Tiruchy,Kattumannarkoil,Tamil Nadu,India,608702
Kumarakud,,Branch Post Office,Delivery,Tamilnadu,Cuddalore,Cuddalore,Tiruchy,Kattumannarkoil,Tamil Nadu,India,608702
Mudikandanallur,,Branch Post Office,Delivery,Tamilnadu,Cuddalore,Cuddalore,Tiruchy,Kattumannarkoil,Tamil Nadu,India,608702
Nandesswaramangalam,,Branch Post Office,Delivery,Tamilnadu,Cuddalore,Cuddalore,Tiruchy,Kattumannarkoil,Tamil Nadu,India,608702
Nangudi,,Branch Post Office,Delivery,Tamilnadu,Cuddalore,Cuddalore,Tiruchy,Kattumannarkoil,Tamil Nadu,India,608702
Sethiathope,,Sub Post Office,Delivery,Tamilnadu,Cuddalore,Cuddalore,Tiruchy,Kattumannarkoil,Tamil Nadu,India,608702
Valakollai,,Branch Post Office,Delivery,Tamilnadu,Cuddalore,Cuddalore,Tiruchy,Kattmannarkoil,Tamil Nadu,India,608702
Vattathur,,Branch Post Office,Delivery,Tamilnadu,Cuddalore,Cuddalore,Tiruchy,Kattumannarkoil,Tamil Nadu,India,608702
Veeramudayanatham,,Branch Post Office,Delivery,Tamilnadu,Cuddalore,Cuddalore,Tiruchy,Kattumannarkoil,Tamil Nadu,India,608702
Kavanur,,Branch Post Office,Delivery,Tamilnadu,Cuddalore,Cuddalore,Tiruchy,Kattumannarkoil,Tamil Nadu,India,608703
Kozhai,,Branch Post Office,Delivery,Tamilnadu,Cuddalore,Cuddalore,Tiruchy,Kattumannarkoil,Tamil Nadu,India,608703
Kunamangalam,,Branch Post Office,Delivery,Tamilnadu,Cuddalore,Cuddalore,Tiruchy,Kattumannarkoil,Tamil Nadu,India,608703
Marungur,,Branch Post Office,Delivery,Tamilnadu,Cuddalore,Cuddalore,Tiruchy,Kattumannarkoil,Tamil Nadu,India,608703
Nagarapadi,,Branch Post Office,Delivery,Tamilnadu,Cuddalore,Cuddalore,Tiruchy,Kattumannarkoil,Tamil Nadu,India,608703
Poondi,,Branch Post Office,Delivery,Tamilnadu,Cuddalore,Cuddalore,Tiruchy,Kattumannarkoil,Tamil Nadu,India,608703
Rajendra Pattinam,,Branch Post Office,Delivery,Tamilnadu,Cuddalore,Cuddalore,Tiruchy,Kattumanarkoil,Tamil Nadu,India,608703
Sri Adivaraganallur,,Branch Post Office,Delivery,Tamilnadu,Cuddalore,Cuddalore,Tiruchy,Kattumannarkoil,Tamil Nadu,India,608703
Sri Pudur,,Branch Post Office,Delivery,Tamilnadu,Cuddalore,Cuddalore,Tiruchy,Kattumannarkoil,Tamil Nadu,India,608703
Sri Vakkaramari,,Branch Post Office,Non-Delivery,Tamilnadu,Cuddalore,Cuddalore,Tiruchy,Kattumannarkoil,Tamil Nadu,India,608703
Srimushnam,,Sub Post Office,Delivery,Tamilnadu,Cuddalore,Cuddalore,Tiruchy,Kattumannarkoil,Tamil Nadu,India,608703
Srinedunjeri,,Branch Post Office,Delivery,Tamilnadu,Cuddalore,Cuddalore,Tiruchy,Kattumannarkoil,Tamil Nadu,India,608703
Sriraman,,Branch Post Office,Delivery,Tamilnadu,Ariyalur,Cuddalore,Tiruchy,Kattumannarkoil,Tamil Nadu,India,608703
Ambapuram,,Branch Post Office,Delivery,Tamilnadu,Cuddalore,Cuddalore,Tiruchy,Kattumannarkoil,Tamil Nadu,India,608704
B.Kolakudi,,Branch Post Office,Delivery,Tamilnadu,Cuddalore,Cuddalore,Tiruchy,Kattmannarkoil,Tamil Nadu,India,608704
Chinnanargunam,,Branch Post Office,Delivery,Tamilnadu,Cuddalore,Cuddalore,Tiruchy,Kattumannarkoil,Tamil Nadu,India,608704
Erumbur,,Branch Post Office,Delivery,Tamilnadu,Cuddalore,Cuddalore,Tiruchy,Kattumannarkoil,Tamil Nadu,India,608704
Marudur,,Branch Post Office,Delivery,Tamilnadu,Cuddalore,Cuddalore,Tiruchy,Kattumannarkoil,Tamil Nadu,India,608704
Periyanellikkollai,,Branch Post Office,Delivery,Tamilnadu,Cuddalore,Cuddalore,Tiruchy,Kattumannarkoil,Tamil Nadu,India,608704
Pinnalur,,Sub Post Office,Delivery,Tamilnadu,Cuddalore,Cuddalore,Tiruchy,Kattumannarkoil,Tamil Nadu,India,608704
Vadathalaikulam,,Branch Post Office,Delivery,Tamilnadu,Cuddalore,Cuddalore,Tiruchy,Kattumannarkoil,Tamil Nadu,India,608704
Valayamadevi,,Branch Post Office,Delivery,Tamilnadu,Cuddalore,Cuddalore,Tiruchy,Kattumannarkoil,Tamil Nadu,India,608704
Adinarayananpuram,,Branch Post Office,Delivery,Tamilnadu,Cuddalore,Cuddalore,Tiruchy,Cuddalore,Tamil Nadu,India,608801
Alapakkam,,Sub Post Office,Delivery,Tamilnadu,Cuddalore,Cuddalore,Tiruchy,Chidambaram,Tamil Nadu,India,608801
Andarmullipallam,,Branch Post Office,Delivery,Tamilnadu,Cuddalore,Cuddalore,Tiruchy,Cuddalore,Tamil Nadu,India,608801
Periyakuppam,,Branch Post Office,Delivery,Tamilnadu,Cuddalore,Cuddalore,Tiruchy,Cuddalore,Tamil Nadu,India,608801
Poochimedu,,Branch Post Office,Delivery,Tamilnadu,Cuddalore,Cuddalore,Tiruchy,Cuddalore,Tamil Nadu,India,608801
Poovanikkuppam,,Branch Post Office,Delivery,Tamilnadu,Cuddalore,Cuddalore,Tiruchy,Cuddalore,Tamil Nadu,India,608801
Silambimangalam,,Branch Post Office,Delivery,Tamilnadu,Cuddalore,Cuddalore,Tiruchy,Cuddalore,Tamil Nadu,India,608801
Theerthanagiri,,Branch Post Office,Delivery,Tamilnadu,Cuddalore,Cuddalore,Tiruchy,Cuddalore,Tamil Nadu,India,608801
Thiyagavalli,,Branch Post Office,Delivery,Tamilnadu,Cuddalore,Cuddalore,Tiruchy,Cuddalore,Tamil Nadu,India,608801
Alagapuram,,Branch Post Office,Delivery,Tamilnadu,Ariyalur,Tiruchirapalli,Tiruchy,Jayamkondacholapuram,Tamil Nadu,India,608901
Attukurichi,,Branch Post Office,Delivery,Tamilnadu,Ariyalur,Tiruchirapalli,Tiruchy,Jayamkondacholapuram,Tamil Nadu,India,608901
Ayyur,,Branch Post Office,Delivery,Tamilnadu,Ariyalur,Tiruchirapalli,Tiruchy,Jayamkondacholapuram,Tamil Nadu,India,608901
Kavarapalayam,,Sub Post Office,Delivery,Tamilnadu,Ariyalur,Tiruchirapalli,Tiruchy,Udayarpalayam,Tamil Nadu,India,608901
Nagampandal,,Branch Post Office,Delivery,Tamilnadu,Ariyalur,Tiruchirapalli,Tiruchy,Udayarpalayam,Tamil Nadu,India,608901
Olaiyur,,Branch Post Office,Delivery,Tamilnadu,Ariyalur,Tiruchirapalli,Tiruchy,Jayamkondacholapuram,Tamil Nadu,India,608901
Rangiam,,Branch Post Office,Delivery,Tamilnadu,Ariyalur,Tiruchirapalli,Tiruchy,Jayamkondacholapuram,Tamil Nadu,India,608901
Silambur,,Branch Post Office,Delivery,Tamilnadu,Ariyalur,Tiruchirapalli,Tiruchy,Udayarpalayam,Tamil Nadu,India,608901
Dharmapuram,,Branch Post Office,Non-Delivery,Tamilnadu,Nagapattinam,Mayiladuthurai,Tiruchy,Mayiladuthurai,Tamil Nadu,India,609001
Koranad,,Sub Post Office,Non-Delivery,Tamilnadu,Nagapattinam,Mayiladuthurai,Tiruchy,Mayiladuthurai,Tamil Nadu,India,609001
Mayiladuthurai,,Head Post Office,Delivery,Tamilnadu,Nagapattinam,Mayiladuthurai,Tiruchy,Mayiladuthurai,Tamil Nadu,India,609001
Mayiladuthurai Bazaar,,Sub Post Office,Non-Delivery,Tamilnadu,Nagapattinam,Mayiladuthurai,Tiruchy,Mayiladuthurai,Tamil Nadu,India,609001
Mayiladuthurai Cutchery,,Sub Post Office,Non-Delivery,Tamilnadu,Nagapattinam,Mayiladuthurai,Tiruchy,Mayiladuthurai,Tamil Nadu,India,609001
Mayiladuthurai North,,Branch Post Office,Non-Delivery,Tamilnadu,Nagapattinam,Mayiladuthurai,Tiruchy,Mayiladuthurai,Tamil Nadu,India,609001
Mayiladuthurai South,,Sub Post Office,Non-Delivery,Tamilnadu,Nagapattinam,Mayiladuthurai,Tiruchy,Mayiladuthurai,Tamil Nadu,India,609001
Nallathukudi,,Branch Post Office,Non-Delivery,Tamilnadu,Nagapattinam,Mayiladuthurai,Tiruchy,Mayiladuthurai,Tamil Nadu,India,609001
Pattamangalam,,Branch Post Office,Non-Delivery,Tamilnadu,Nagapattinam,Mayiladuthurai,Tiruchy,Mayiladuthurai,Tamil Nadu,India,609001
Tiruvilandur,,Branch Post Office,Non-Delivery,Tamilnadu,Nagapattinam,Mayiladuthurai,Tiruchy,Mayiladuthurai,Tamil Nadu,India,609001
Chittarkadu,,Branch Post Office,Non-Delivery,Tamilnadu,Nagapattinam,Mayiladuthurai,Tiruchy,Mayiladuthurai,Tamil Nadu,India,609003
Koranad South,,Branch Post Office,Non-Delivery,Tamilnadu,Nagapattinam,Mayiladuthurai,Tiruchy,Mayiladuthurai,Tamil Nadu,India,609003
Mappadugai,,Branch Post Office,Delivery,Tamilnadu,Nagapattinam,Mayiladuthurai,Tiruchy,Mayiladuthurai,Tamil Nadu,India,609003
Mayiladuthurai R.S,,Sub Post Office,Delivery,Tamilnadu,Nagapattinam,Mayiladuthurai,Tiruchy,Mayiladuthurai,Tamil Nadu,India,609003
Mayiladuthurai West,,Branch Post Office,Non-Delivery,Tamilnadu,Nagapattinam,Mayiladuthurai,Tiruchy,Mayiladuthurai,Tamil Nadu,India,609003
Sholampettai,,Branch Post Office,Delivery,Tamilnadu,Nagapattinam,Mayiladuthurai,Tiruchy,Mayiladuthurai,Tamil Nadu,India,609003
Achalpuram,,Sub Post Office,Delivery,Tamilnadu,Nagapattinam,Mayiladuthurai,Tiruchy,Sirkali,Tamil Nadu,India,609101
Alakkudi,,Branch Post Office,Delivery,Tamilnadu,Nagapattinam,Mayiladuthurai,Tiruchy,Sirkali,Tamil Nadu,India,609101
Arapallam,,Branch Post Office,Delivery,Tamilnadu,Nagapattinam,Mayiladuthurai,Tiruchy,Sirkali,Tamil Nadu,India,609101
Kodakkaramoolai,,Branch Post Office,Delivery,Tamilnadu,Nagapattinam,Mayiladuthurai,Tiruchy,Sirkali,Tamil Nadu,India,609101
Kothandapuram,,Branch Post Office,Delivery,Tamilnadu,Nagapattinam,Mayiladuthurai,Tiruchy,Sirkali,Tamil Nadu,India,609101
Mahendrapalli,,Branch Post Office,Delivery,Tamilnadu,Nagapattinam,Mayiladuthurai,Tiruchy,Sirkali,Tamil Nadu,India,609101
Palayapalayam,,Branch Post Office,Delivery,Tamilnadu,Nagapattinam,Mayiladuthurai,Tiruchy,Sirkali,Tamil Nadu,India,609101
Palayar,,Branch Post Office,Delivery,Tamilnadu,Nagapattinam,Mayiladuthurai,Tiruchy,Sirkali,Tamil Nadu,India,609101
Pudupattinam,,Branch Post Office,Delivery,Tamilnadu,Nagapattinam,Mayiladuthurai,Tiruchy,Sirkali,Tamil Nadu,India,609101
Puliyanthurai,,Branch Post Office,Delivery,Tamilnadu,Nagapattinam,Mayiladuthurai,Tiruchy,Sirkali,Tamil Nadu,India,609101
Thandavankulam,,Branch Post Office,Delivery,Tamilnadu,Nagapattinam,Mayiladuthurai,Tiruchy,Sirkali,Tamil Nadu,India,609101
Anaikaranchatram,,Sub Post Office,Delivery,Tamilnadu,Nagapattinam,Mayiladuthurai,Tiruchy,Sirkali,Tamil Nadu,India,609102
Anaikaranchatram South,,Branch Post Office,Non-Delivery,Tamilnadu,Nagapattinam,Mayiladuthurai,Tiruchy,Sirkali,Tamil Nadu,India,609102
Hanumanthapuram,,Branch Post Office,Delivery,Tamilnadu,Nagapattinam,Mayiladuthurai,Tiruchy,Sirkali,Tamil Nadu,India,609102
Madervelur,,Branch Post Office,Delivery,Tamilnadu,Nagapattinam,Mayiladuthurai,Tiruchy,Sirkali,Tamil Nadu,India,609102
Nallanayagapuram,,Branch Post Office,Delivery,Tamilnadu,Nagapattinam,Mayiladuthurai,Tiruchy,Sirkali,Tamil Nadu,India,609102
Anandatandavapuram,,Sub Post Office,Delivery,Tamilnadu,Nagapattinam,Mayiladuthurai,Tiruchy,Mayiladuthurai,Tamil Nadu,India,609103
Keelamaruthandanallur,,Branch Post Office,Delivery,Tamilnadu,Nagapattinam,Mayiladuthurai,Tiruchy,Mayiladuthurai,Tamil Nadu,India,609103
Kadavasal,,Sub Post Office,Delivery,Tamilnadu,Nagapattinam,Mayiladuthurai,Tiruchy,Sirkali,Tamil Nadu,India,609104
Kannukiniyanar Koil,,Branch Post Office,Delivery,Tamilnadu,Nagapattinam,Mayiladuthurai,Tiruchy,Sirkali,Tamil Nadu,India,609104
Madanam,,Branch Post Office,Delivery,Tamilnadu,Nagapattinam,Mayiladuthurai,Tiruchy,Sirkali,Tamil Nadu,India,609104
Pachaiperumal Nallur,,Branch Post Office,Delivery,Tamilnadu,Nagapattinam,Mayiladuthurai,Tiruchy,Sirkali,Tamil Nadu,India,609104
Semmangudi(SRK),,Branch Post Office,Delivery,Tamilnadu,Nagapattinam,Mayiladuthurai,Tiruchy,Sirkali,Tamil Nadu,India,609104
Umayalpathi,,Branch Post Office,Delivery,Tamilnadu,Nagapattinam,Mayiladuthurai,Tiruchy,Sirkali,Tamil Nadu,India,609104
Kaveripattinam (Nagapattinam),,Sub Post Office,Delivery,Tamilnadu,Nagapattinam,Mayiladuthurai,Tiruchy,Tharangambadi,Tamil Nadu,India,609105
Kaveripattinam Beach,,Branch Post Office,Delivery,Tamilnadu,Nagapattinam,Mayiladuthurai,Tiruchy,Tharangambadi,Tamil Nadu,India,609105
Neidavasal,,Branch Post Office,Delivery,Tamilnadu,Nagapattinam,Mayiladuthurai,Tiruchy,Sirkali,Tamil Nadu,India,609105
Vanagiri,,Branch Post Office,Delivery,Tamilnadu,Nagapattinam,Mayiladuthurai,Tiruchy,Sirkali,Tamil Nadu,India,609105
Kilasattanathapuram,,Branch Post Office,Delivery,Tamilnadu,Nagapattinam,Mayiladuthurai,Tiruchy,Sirkali,Tamil Nadu,India,609106
Mangamadam,,Sub Post Office,Delivery,Tamilnadu,Nagapattinam,Mayiladuthurai,Tiruchy,Sirkali,Tamil Nadu,India,609106
Nangur,,Branch Post Office,Delivery,Tamilnadu,Nagapattinam,Mayiladuthurai,Tiruchy,Sirkali,Tamil Nadu,India,609106
Neipathur,,Branch Post Office,Delivery,Tamilnadu,Nagapattinam,Mayiladuthurai,Tiruchy,Sirkali,Tamil Nadu,India,609106
Perunthottam,,Branch Post Office,Delivery,Tamilnadu,Nagapattinam,Mayiladuthurai,Tiruchy,Sirkali,Tamil Nadu,India,609106
Puduthurai,,Branch Post Office,Delivery,Tamilnadu,Nagapattinam,Mayiladuthurai,Tiruchy,Sirkali,Tamil Nadu,India,609106
Thennampattinam,,Branch Post Office,Delivery,Tamilnadu,Nagapattinam,Mayiladuthurai,Tiruchy,Sirkali,Tamil Nadu,India,609106
Tirunagari,,Branch Post Office,Delivery,Tamilnadu,Nagapattinam,Mayiladuthurai,Tiruchy,Sirkali,Tamil Nadu,India,609106
Kilaperumpallam,,Branch Post Office,Delivery,Tamilnadu,Nagapattinam,Mayiladuthurai,Tiruchy,Tharangambadi,Tamil Nadu,India,609107
Melaiyur TVG,,Sub Post Office,Delivery,Tamilnadu,Nagapattinam,Mayiladuthurai,Tiruchy,Tharangambadi,Tamil Nadu,India,609107
Melaperumpallam,,Branch Post Office,Delivery,Tamilnadu,Nagapattinam,Mayiladuthurai,Tiruchy,Tharangambadi,Tamil Nadu,India,609107
Natarajapillai Chavadi,,Branch Post Office,Delivery,Tamilnadu,Nagapattinam,Mayiladuthurai,Tiruchy,Sirkali,Tamil Nadu,India,609107
Talachangadu,,Branch Post Office,Delivery,Tamilnadu,Nagapattinam,Mayiladuthurai,Tiruchy,Tharangambadi,Tamil Nadu,India,609107
Erukkur,,Branch Post Office,Delivery,Tamilnadu,Nagapattinam,Mayiladuthurai,Tiruchy,Sirkali,Tamil Nadu,India,609108
Gopalasamudram,,Branch Post Office,Delivery,Tamilnadu,Nagapattinam,Mayiladuthurai,Tiruchy,Sirkali,Tamil Nadu,India,609108
Kunnam,,Branch Post Office,Delivery,Tamilnadu,Nagapattinam,Mayiladuthurai,Tiruchy,Sirkali,Tamil Nadu,India,609108
Perambur (AKC),,Branch Post Office,Delivery,Tamilnadu,Nagapattinam,Mayiladuthurai,Tiruchy,Sirkali,Tamil Nadu,India,609108
Puthur (SRK),,Sub Post Office,Delivery,Tamilnadu,Nagapattinam,Mayiladuthurai,Tiruchy,Sirkali,Tamil Nadu,India,609108
Sodiyakudi,,Branch Post Office,Delivery,Tamilnadu,Nagapattinam,Mayiladuthurai,Tiruchy,Sirkali,Tamil Nadu,India,609108
Tirumailadi,,Branch Post Office,Delivery,Tamilnadu,Nagapattinam,Mayiladuthurai,Tiruchy,Sirkali,Tamil Nadu,India,609108
Annamperumalkoil,,Branch Post Office,Delivery,Tamilnadu,Nagapattinam,Mayiladuthurai,Tiruchy,Sirkali,Tamil Nadu,India,609109
Karaimedu,,Branch Post Office,Delivery,Tamilnadu,Nagapattinam,Mayiladuthurai,Tiruchy,Sirkali,Tamil Nadu,India,609109
Kattiyaniruppu,,Branch Post Office,Delivery,Tamilnadu,Nagapattinam,Mayiladuthurai,Tiruchy,Sirkali,Tamil Nadu,India,609109
Sattanathapuram,,Sub Post Office,Delivery,Tamilnadu,Nagapattinam,Mayiladuthurai,Tiruchy,Sirkali,Tamil Nadu,India,609109
Sembadaniruppu,,Branch Post Office,Delivery,Tamilnadu,Nagapattinam,Mayiladuthurai,Tiruchy,Sirkali,Tamil Nadu,India,609109
Tiruvali,,Branch Post Office,Delivery,Tamilnadu,Nagapattinam,Mayiladuthurai,Tiruchy,Sirkali,Tamil Nadu,India,609109
Sirkali,,Head Post Office,Delivery,Tamilnadu,Nagapattinam,Mayiladuthurai,Tiruchy,Sirkali Tk,Tamil Nadu,India,609110
Arappakkam,,Branch Post Office,Delivery,Tamilnadu,Nagapattinam,Mayiladuthurai,Tiruchy,Sirkali,Tamil Nadu,India,609111
Koilthirukolakkal,,Branch Post Office,Non-Delivery,Tamilnadu,Nagapattinam,Mayiladuthurai,Tiruchy,Sirkali,Tamil Nadu,India,609111
Kovilpathu,,Branch Post Office,Delivery,Tamilnadu,Nagapattinam,Mayiladuthurai,Tiruchy,Sirkali,Tamil Nadu,India,609111
Sirkali East,,Branch Post Office,Non-Delivery,Tamilnadu,Nagapattinam,Mayiladuthurai,Tiruchy,Sirkali,Tamil Nadu,India,609111
Sirkali Thenpathi,,Sub Post Office,Delivery,Tamilnadu,Nagapattinam,Mayiladuthurai,Tiruchy,Sirkali,Tamil Nadu,India,609111
Sirkali West,,Branch Post Office,Non-Delivery,Tamilnadu,Nagapattinam,Mayiladuthurai,Tiruchy,Sirkali,Tamil Nadu,India,609111
Tittai (SRK),,Branch Post Office,Delivery,Tamilnadu,Nagapattinam,Mayiladuthurai,Tiruchy,Sirkali,Tamil Nadu,India,609111
Vilanthida Samudram,,Branch Post Office,Delivery,Tamilnadu,Nagapattinam,Mayiladuthurai,Tiruchy,Sirkali,Tamil Nadu,India,609111
Karkoil,,Branch Post Office,Delivery,Tamilnadu,Nagapattinam,Mayiladuthurai,Tiruchy,Sirkali,Tamil Nadu,India,609112
Mannipallam,,Branch Post Office,Delivery,Tamilnadu,Nagapattinam,Mayiladuthurai,Tiruchy,Sirkali,Tamil Nadu,India,609112
Seithur Srk,,Branch Post Office,Delivery,Tamilnadu,Nagapattinam,Mayiladuthurai,Tiruchy,Mayiladuthurai,Tamil Nadu,India,609112
Tirupungur,,Sub Post Office,Delivery,Tamilnadu,Nagapattinam,Mayiladuthurai,Tiruchy,Sirkali,Tamil Nadu,India,609112
Koolaiyar,,Branch Post Office,Delivery,Tamilnadu,Nagapattinam,Mayiladuthurai,Tiruchy,Sirkali,Tamil Nadu,India,609113
Tirumullaivasal,,Sub Post Office,Delivery,Tamilnadu,Nagapattinam,Mayiladuthurai,Tiruchy,Sirkali,Tamil Nadu,India,609113
Manigramam,,Branch Post Office,Delivery,Tamilnadu,Nagapattinam,Mayiladuthurai,Tiruchy,Sirkali,Tamil Nadu,India,609114
Radhanallur (TVG),,Branch Post Office,Delivery,Tamilnadu,Nagapattinam,Mayiladuthurai,Tiruchy,Sirkali,Tamil Nadu,India,609114
Tiruvengadu,,Sub Post Office,Delivery,Tamilnadu,Nagapattinam,Mayiladuthurai,Tiruchy,Sirkali,Tamil Nadu,India,609114
Edamanal,,Branch Post Office,Delivery,Tamilnadu,Nagapattinam,Mayiladuthurai,Tiruchy,Sirkali,Tamil Nadu,India,609115
Keeranallur,,Branch Post Office,Delivery,Tamilnadu,Nagapattinam,Mayiladuthurai,Tiruchy,Sirkali,Tamil Nadu,India,609115
Radhanallur  (SRK),,Branch Post Office,Delivery,Tamilnadu,Nagapattinam,Mayiladuthurai,Tiruchy,Sirkali,Tamil Nadu,India,609115
Varisapathu Vadagal,,Sub Post Office,Delivery,Tamilnadu,Nagapattinam,Mayiladuthurai,Tiruchy,Sirkali,Tamil Nadu,India,609115
Vettangudi,,Branch Post Office,Delivery,Tamilnadu,Nagapattinam,Mayiladuthurai,Tiruchy,Sirkali,Tamil Nadu,India,609115
Elathur,,Branch Post Office,Delivery,Tamilnadu,Nagapattinam,Mayiladuthurai,Tiruchy,Sirkali,Tamil Nadu,India,609116
Kilmathur,,Branch Post Office,Delivery,Tamilnadu,Nagapattinam,Mayiladuthurai,Tiruchy,Sirkali,Tamil Nadu,India,609116
Nemmeli(SRK),,Branch Post Office,Delivery,Tamilnadu,Nagapattinam,Mayiladuthurai,Tiruchy,Sirkali,Tamil Nadu,India,609116
Pattavilagam,,Branch Post Office,Delivery,Tamilnadu,Nagapattinam,Mayiladuthurai,Tiruchy,Sirkali,Tamil Nadu,India,609116
Valluvakudi,,Sub Post Office,Delivery,Tamilnadu,Nagapattinam,Mayiladuthurai,Tiruchy,Sirkali,Tamil Nadu,India,609116
Athukudi,,Branch Post Office,Delivery,Tamilnadu,Nagapattinam,Mayiladuthurai,Tiruchy,Mayiladuthurai,Tamil Nadu,India,609117
Idaikudi-vadapathy,,Branch Post Office,Non-Delivery,Tamilnadu,Nagapattinam,Mayiladuthurai,Tiruchy,Sirkali,Tamil Nadu,India,609117
Kondathur,,Branch Post Office,Delivery,Tamilnadu,Nagapattinam,Mayiladuthurai,Tiruchy,Sirkali,Tamil Nadu,India,609117
Pagasalai,,Branch Post Office,Delivery,Tamilnadu,Nagapattinam,Mayiladuthurai,Tiruchy,Sirkali,Tamil Nadu,India,609117
Punganur,,Branch Post Office,Delivery,Tamilnadu,Nagapattinam,Mayiladuthurai,Tiruchy,Sirkali,Tamil Nadu,India,609117
Vaithiswarankoil,,Sub Post Office,Delivery,Tamilnadu,Nagapattinam,Mayiladuthurai,Tiruchy,Sirkali,Tamil Nadu,India,609117
Vaithiswarankoil West,,Branch Post Office,Non-Delivery,Tamilnadu,Nagapattinam,Mayiladuthurai,Tiruchy,Sirkali,Tamil Nadu,India,609117
Alaveli,,Branch Post Office,Delivery,Tamilnadu,Nagapattinam,Mayiladuthurai,Tiruchy,Mayiladuthurai,Tamil Nadu,India,609118
Manakudi,,Branch Post Office,Delivery,Tamilnadu,Nagapattinam,Mayiladuthurai,Tiruchy,Mayiladuthurai,Tamil Nadu,India,609118
Molaiyur,,Branch Post Office,Delivery,Tamilnadu,Nagapattinam,Mayiladuthurai,Tiruchy,Mayiladuthurai,Tamil Nadu,India,609118
Solasakkaranallur,,Sub Post Office,Delivery,Tamilnadu,Nagapattinam,Mayiladuthurai,Tiruchy,Mayiladuthurai,Tamil Nadu,India,609118
Tirunandriyur,,Branch Post Office,Delivery,Tamilnadu,Nagapattinam,Mayiladuthurai,Tiruchy,Mayiladuthurai,Tamil Nadu,India,609118
Vallalagaram,,Branch Post Office,Delivery,Tamilnadu,Nagapattinam,Mayiladuthurai,Tiruchy,Mayiladuthurai,Tamil Nadu,India,609118
Ilanthope,,Sub Post Office,Delivery,Tamilnadu,Nagapattinam,Mayiladuthurai,Tiruchy,Mayiladuthurai,Tamil Nadu,India,609201
Talanayar Vsk,,Branch Post Office,Delivery,Tamilnadu,Nagapattinam,Mayiladuthurai,Tiruchy,Sirkali,Tamil Nadu,India,609201
Kiloy,,Branch Post Office,Delivery,Tamilnadu,Nagapattinam,Mayiladuthurai,Tiruchy,Mayiladuthurai,Tamil Nadu,India,609202
Manalmedu,,Sub Post Office,Delivery,Tamilnadu,Nagapattinam,Mayiladuthurai,Tiruchy,Mayiaduthurai,Tamil Nadu,India,609202
Manalmedu East,,Branch Post Office,Non-Delivery,Tamilnadu,Nagapattinam,Mayiladuthurai,Tiruchy,Mayiladuthurai,Tamil Nadu,India,609202
Mudikondanallur,,Branch Post Office,Delivery,Tamilnadu,Nagapattinam,Mayiladuthurai,Tiruchy,Mayiladuthurai,Tamil Nadu,India,609202
Arulmozhithevan,,Branch Post Office,Delivery,Tamilnadu,Nagapattinam,Mayiladuthurai,Tiruchy,Mayiladuthurai,Tamil Nadu,India,609203
Aruvapadi,,Branch Post Office,Delivery,Tamilnadu,Nagapattinam,Mayiladuthurai,Tiruchy,Mayiladuthurai,Tamil Nadu,India,609203
Kalukkanimuttam,,Branch Post Office,Delivery,Tamilnadu,Nagapattinam,Mayiladuthurai,Tiruchy,Mayiladuthurai,Tamil Nadu,India,609203
Kanganamputhur,,Branch Post Office,Delivery,Tamilnadu,Nagapattinam,Mayiladuthurai,Tiruchy,Mayiladuthurai,Tamil Nadu,India,609203
Korukkai,,Branch Post Office,Delivery,Tamilnadu,Nagapattinam,Mayiladuthurai,Tiruchy,Mayiladuthurai,Tamil Nadu,India,609203
Nidur,,Sub Post Office,Delivery,Tamilnadu,Nagapattinam,Mayiladuthurai,Tiruchy,Mayiladuthurai,Tamil Nadu,India,609203
Pandur,,Branch Post Office,Delivery,Tamilnadu,Nagapattinam,Mayiladuthurai,Tiruchy,Mayiladuthurai,Tamil Nadu,India,609203
Villiyanallur,,Branch Post Office,Delivery,Tamilnadu,Nagapattinam,Mayiladuthurai,Tiruchy,Mayiladuthurai,Tamil Nadu,India,609203
Athur,,Branch Post Office,Delivery,Tamilnadu,Nagapattinam,Kumbakonam,Tiruchy,Tirupanandal,Tamil Nadu,India,609204
Marathurai,,Branch Post Office,Delivery,Tamilnadu,Nagapattinam,Kumbakonam,Tiruchy,Tirupanandal,Tamil Nadu,India,609204
Tiruchitrambalam,,Branch Post Office,Delivery,Tamilnadu,Nagapattinam,Kumbakonam,Tiruchy,Tirupanandal,Tamil Nadu,India,609204
Tirumeniarkoil,,Sub Post Office,Delivery,Tamilnadu,Nagapattinam,Kumbakonam,Tiruchy,Mayiladuthurai,Tamil Nadu,India,609204
Pulavanur,,Branch Post Office,Delivery,Tamilnadu,Nagapattinam,Mayiladuthurai,Tiruchy,Mayiladuthurai,Tamil Nadu,India,609205
Siddamalli,,Branch Post Office,Delivery,Tamilnadu,Nagapattinam,Mayiladuthurai,Tiruchy,Sirkali,Tamil Nadu,India,609205
Tiruvalaputhur,,Sub Post Office,Delivery,Tamilnadu,Nagapattinam,Mayiladuthurai,Tiruchy,Mayiladuthurai,Tamil Nadu,India,609205
Akkur (Nagapattinam),,Sub Post Office,Delivery,Tamilnadu,Nagapattinam,Mayiladuthurai,Tiruchy,Tharangambadi,Tamil Nadu,India,609301
Kalamanallur,,Branch Post Office,Delivery,Tamilnadu,Nagapattinam,Mayiladuthurai,Tiruchy,Tarangambadi,Tamil Nadu,India,609301
Mamakudi,,Branch Post Office,Delivery,Tamilnadu,Nagapattinam,Mayiladuthurai,Tiruchy,Tharangambadi,Tamil Nadu,India,609301
Maruthampallam,,Branch Post Office,Delivery,Tamilnadu,Nagapattinam,Mayiladuthurai,Tiruchy,Tharangambadi,Tamil Nadu,India,609301
Mathur,,Branch Post Office,Delivery,Tamilnadu,Nagapattinam,Mayiladuthurai,Tiruchy,Tharangambadi,Tamil Nadu,India,609301
Umayalpuram,,Branch Post Office,Delivery,Tamilnadu,Nagapattinam,Mayiladuthurai,Tiruchy,Tharangambadi,Tamil Nadu,India,609301
Arangakudi,,Sub Post Office,Delivery,Tamilnadu,Nagapattinam,Mayiladuthurai,Tiruchy,Tharangambadi,Tamil Nadu,India,609302
Elayalur,,Branch Post Office,Delivery,Tamilnadu,Nagapattinam,Mayiladuthurai,Tiruchy,Tharangambadi,Tamil Nadu,India,609302
Muthur,,Branch Post Office,Delivery,Tamilnadu,Nagapattinam,Mayiladuthurai,Tiruchy,Tharangambadi,Tamil Nadu,India,609302
Ayappadi,,Sub Post Office,Delivery,Tamilnadu,Nagapattinam,Mayiladuthurai,Tiruchy,Tharangambadi,Tamil Nadu,India,609303
Kattuchery,,Branch Post Office,Delivery,Tamilnadu,Nagapattinam,Mayiladuthurai,Tiruchy,Tharangambadi,Tamil Nadu,India,609303
Kanjanagaram,,Branch Post Office,Delivery,Tamilnadu,Nagapattinam,Mayiladuthurai,Tiruchy,Tharangambadi,Tamil Nadu,India,609304
Karuvazhakarai,,Branch Post Office,Delivery,Tamilnadu,Nagapattinam,Mayiladuthurai,Tiruchy,Tharangambadi,Tamil Nadu,India,609304
Kidarankondan,,Branch Post Office,Delivery,Tamilnadu,Nagapattinam,Mayiladuthurai,Tiruchy,Tharangambadi,Tamil Nadu,India,609304
Kilaiyur,,Sub Post Office,Delivery,Tamilnadu,Nagapattinam,Mayiladuthurai,Tiruchy,Tharangambadi,Tamil Nadu,India,609304
Melapathi,,Branch Post Office,Delivery,Tamilnadu,Nagapattinam,Mayiladuthurai,Tiruchy,Tharangambadi,Tamil Nadu,India,609304
Mannampandal,,Sub Post Office,Delivery,Tamilnadu,Nagapattinam,Mayiladuthurai,Tiruchy,Mayiladuthurai,Tamil Nadu,India,609305
Nalladai,,Sub Post Office,Delivery,Tamilnadu,Nagapattinam,Mayiladuthurai,Tiruchy,Tharangambadi,Tamil Nadu,India,609306
Tiruvilayattam,,Branch Post Office,Delivery,Tamilnadu,Nagapattinam,Mayiladuthurai,Tiruchy,Tharangambadi,Tamil Nadu,India,609306
Velampudukudi,,Branch Post Office,Delivery,Tamilnadu,Nagapattinam,Mayiladuthurai,Tiruchy,Tharangambadi,Tamil Nadu,India,609306
Chandrapadi,,Branch Post Office,Delivery,Tamilnadu,Nagapattinam,Mayiladuthurai,Tiruchy,Tharangambadi,Tamil Nadu,India,609307
Erukkattanchery,,Branch Post Office,Delivery,Tamilnadu,Nagapattinam,Mayiladuthurai,Tiruchy,Tharangambadi,Tamil Nadu,India,609307
Kaliyappanallur,,Branch Post Office,Delivery,Tamilnadu,Nagapattinam,Mayiladuthurai,Tiruchy,Tharangambadi,Tamil Nadu,India,609307
Porayar,,Sub Post Office,Delivery,Tamilnadu,Nagapattinam,Mayiladuthurai,Tiruchy,Tharangambadi,Tamil Nadu,India,609307
Porayar Market,,Branch Post Office,Non-Delivery,Tamilnadu,Nagapattinam,Mayiladuthurai,Tiruchy,Tharangambadi,Tamil Nadu,India,609307
Porayar R.S.,,Branch Post Office,Non-Delivery,Tamilnadu,Nagapattinam,Mayiladuthurai,Tiruchy,Tharangambadi,Tamil Nadu,India,609307
Iluppur,,Branch Post Office,Delivery,Tamilnadu,Nagapattinam,Mayiladuthurai,Tiruchy,Tharangambadi,Tamil Nadu,India,609308
Nalluchery,,Branch Post Office,Delivery,Tamilnadu,Nagapattinam,Mayiladuthurai,Tiruchy,Tharangambadi,Tamil Nadu,India,609308
Sankaranpandal,,Sub Post Office,Delivery,Tamilnadu,Nagapattinam,Mayiladuthurai,Tiruchy,Tharangambadi,Tamil Nadu,India,609308
Arupathy,,Branch Post Office,Delivery,Tamilnadu,Nagapattinam,Mayiladuthurai,Tiruchy,Tharangambadi,Tamil Nadu,India,609309
Kalahasthinapuram,,Branch Post Office,Delivery,Tamilnadu,Nagapattinam,Mayiladuthurai,Tiruchy,Tharangambadi,Tamil Nadu,India,609309
Memathur,,Branch Post Office,Delivery,Tamilnadu,Nagapattinam,Mayiladuthurai,Tiruchy,Tharangambadi,Tamil Nadu,India,609309
Mudikondanallur,,Branch Post Office,Delivery,Tamilnadu,Nagapattinam,Mayiladuthurai,Tiruchy,Tharangambadi,Tamil Nadu,India,609309
Parasalur,,Branch Post Office,Delivery,Tamilnadu,Nagapattinam,Mayiladuthurai,Tiruchy,Tharangambadi,Tamil Nadu,India,609309
Sembanarkoil,,Sub Post Office,Delivery,Tamilnadu,Nagapattinam,Mayiladuthurai,Tiruchy,Tharangambadi,Tamil Nadu,India,609309
Tiruchempalli,,Branch Post Office,Delivery,Tamilnadu,Nagapattinam,Mayiladuthurai,Tiruchy,Tharangambadi,Tamil Nadu,India,609309
Sendamangalam,,Branch Post Office,Delivery,Tamilnadu,Nagapattinam,Mayiladuthurai,Tiruchy,Tharangambadi,Tamil Nadu,India,609310
Tillaiyadi,,Sub Post Office,Delivery,Tamilnadu,Nagapattinam,Mayiladuthurai,Tiruchy,Tharangambadi,Tamil Nadu,India,609310
Tiruvidaikali,,Branch Post Office,Delivery,Tamilnadu,Nagapattinam,Mayiladuthurai,Tiruchy,Tharangampadi,Tamil Nadu,India,609310
Tirucadaiyur,,Sub Post Office,Delivery,Tamilnadu,Nagapattinam,Mayiladuthurai,Tiruchy,Tharangambadi,Tamil Nadu,India,609311
Tirumeignanam,,Branch Post Office,Delivery,Tamilnadu,Nagapattinam,Mayiladuthurai,Tiruchy,Tharangambadi,Tamil Nadu,India,609311
Buthanur,,Branch Post Office,Delivery,Tamilnadu,Nagapattinam,Mayiladuthurai,Tiruchy,Tharangambadi,Tamil Nadu,India,609312
Eduthukatti,,Branch Post Office,Delivery,Tamilnadu,Nagapattinam,Mayiladuthurai,Tiruchy,Tharangambadi,Tamil Nadu,India,609312
Tirukkalachery,,Sub Post Office,Delivery,Tamilnadu,Nagapattinam,Mayiladuthurai,Tiruchy,Tharangambadi,Tamil Nadu,India,609312
Manickapangu,,Branch Post Office,Delivery,Tamilnadu,Nagapattinam,Mayiladuthurai,Tiruchy,Tharangambadi,Tamil Nadu,India,609313
Tarangambadi,,Sub Post Office,Delivery,Tamilnadu,Nagapattinam,Mayiladuthurai,Tiruchy,Tharangambadi,Tamil Nadu,India,609313
Kodangudi,,Branch Post Office,Delivery,Tamilnadu,Nagapattinam,Mayiladuthurai,Tiruchy,Mayiladuthurai,Tamil Nadu,India,609314
Vadakarai (Nagapattinam),,Sub Post Office,Delivery,Tamilnadu,Nagapattinam,Mayiladuthurai,Tiruchy,Tharangambadi,Tamil Nadu,India,609314
Elandangudi,,Sub Post Office,Delivery,Tamilnadu,Nagapattinam,Mayiladuthurai,Tiruchy,Mayiladuthurai,Tamil Nadu,India,609401
Valuvur,,Branch Post Office,Delivery,Tamilnadu,Nagapattinam,Mayiladuthurai,Tiruchy,Mayiladuthurai,Tamil Nadu,India,609401
Kiliyanur (Nagapattinam),,Sub Post Office,Delivery,Tamilnadu,Nagapattinam,Mayiladuthurai,Tiruchy,Tharangambadi,Tamil Nadu,India,609402
Perambur,,Branch Post Office,Delivery,Tamilnadu,Nagapattinam,Mayiladuthurai,Tiruchy,Tharangambadi,Tamil Nadu,India,609402
A. Kiliyanur,,Branch Post Office,Delivery,Tamilnadu,Nagapattinam,Mayiladuthurai,Tiruchy,Mayiladuthurai,Tamil Nadu,India,609403
Kaliyakudi,,Branch Post Office,Delivery,Tamilnadu,Tiruvarur,Mayiladuthurai,Tiruchy,Nannilam,Tamil Nadu,India,609403
Keeranur,,Branch Post Office,Delivery,Tamilnadu,Tiruvarur,Mayiladuthurai,Tiruchy,Nannilam,Tamil Nadu,India,609403
Kollumangudi,,Sub Post Office,Delivery,Tamilnadu,Tiruvarur,Mayiladuthurai,Tiruchy,Nannilam,Tamil Nadu,India,609403
Nedungulam,,Branch Post Office,Delivery,Tamilnadu,Tiruvarur,Mayiladuthurai,Tiruchy,Nannilam,Tamil Nadu,India,609403
Pavattakudi,,Branch Post Office,Delivery,Tamilnadu,Tiruvarur,Mayiladuthurai,Tiruchy,Nannilam,Tamil Nadu,India,609403
Pillur,,Branch Post Office,Delivery,Tamilnadu,Tiruvarur,Mayiladuthurai,Tiruchy,Nannilam,Tamil Nadu,India,609403
Sirupuliyur,,Branch Post Office,Delivery,Tamilnadu,Tiruvarur,Mayiladuthurai,Tiruchy,Nannilam,Tamil Nadu,India,609403
Manganallur,,Branch Post Office,Delivery,Tamilnadu,Nagapattinam,Mayiladuthurai,Tiruchy,Mayiladuthurai,Tamil Nadu,India,609404
Manganallur Bazaar,,Sub Post Office,Delivery,Tamilnadu,Nagapattinam,Mayiladuthurai,Tiruchy,Mayiladuthurai,Tamil Nadu,India,609404
Peruncheri,,Branch Post Office,Delivery,Tamilnadu,Nagapattinam,Mayiladuthurai,Tiruchy,Tharangambadi,Tamil Nadu,India,609404
Alathur,,Branch Post Office,Delivery,Tamilnadu,Tiruvarur,Mayiladuthurai,Tiruchy,Nannilam,Tamil Nadu,India,609405
Injikudi,,Branch Post Office,Non-Delivery,Tamilnadu,Tiruvarur,Mayiladuthurai,Tiruchy,Nannilam,Tamil Nadu,India,609405
Peralam,,Sub Post Office,Delivery,Tamilnadu,Tiruvarur,Mayiladuthurai,Tiruchy,Nannilam,Tamil Nadu,India,609405
Tirumeichur,,Branch Post Office,Delivery,Tamilnadu,Tiruvarur,Mayiladuthurai,Tiruchy,Nannilam,Tamil Nadu,India,609405
Eravancheri,,Sub Post Office,Delivery,Tamilnadu,Nagapattinam,Kumbakonam,Tiruchy,Mayiladuthurai,Tamil Nadu,India,609501
Kadalangudi,,Branch Post Office,Delivery,Tamilnadu,Tiruvarur,Kumbakonam,Tiruchy,Kodavasal,Tamil Nadu,India,609501
Kundalur,,Branch Post Office,Delivery,Tamilnadu,Tiruvarur,Kumbakonam,Tiruchy,Kodavasal,Tamil Nadu,India,609501
Pudukudi,,Branch Post Office,Delivery,Tamilnadu,Tiruvarur,Kumbakonam,Tiruchy,Kodavasal,Tamil Nadu,India,609501
Sarguneswarapuram,,Branch Post Office,Delivery,Tamilnadu,Tiruvarur,Kumbakonam,Tiruchy,Kodavasal,Tamil Nadu,India,609501
Tiruvizhimizhalai,,Branch Post Office,Delivery,Tamilnadu,Tiruvarur,Kumbakonam,Tiruchy,Kodavasal,Tamil Nadu,India,609501
Vilagam,,Branch Post Office,Delivery,Tamilnadu,Tiruvarur,Kumbakonam,Tiruchy,Kodavasal,Tamil Nadu,India,609501
Vishnupuram,,Branch Post Office,Delivery,Tamilnadu,Tiruvarur,Kumbakonam,Tiruchy,Kodavasal,Tamil Nadu,India,609501
Alangudi,,Branch Post Office,Delivery,Tamilnadu,Tiruvarur,Nagapattinam,Tiruchy,Nannilam,Tamil Nadu,India,609502
Mudikondan,,Sub Post Office,Delivery,Tamilnadu,Tiruvarur,Nagapattinam,Tiruchy,Nannilam,Tamil Nadu,India,609502
Agarathirumalam,,Branch Post Office,Delivery,Tamilnadu,Tiruvarur,Mayiladuthurai,Tiruchy,Nannilam,Tamil Nadu,India,609503
Ambal,,Branch Post Office,Delivery,Tamilnadu,Nagapattinam,Mayiladuthurai,Tiruchy,Nannilam,Tamil Nadu,India,609503
Koothanur,,Branch Post Office,Non-Delivery,Tamilnadu,Tiruvarur,Mayiladuthurai,Tiruchy,Nannilam,Tamil Nadu,India,609503
Manandakudi,,Branch Post Office,Delivery,Tamilnadu,Tiruvarur,Mayiladuthurai,Tiruchy,Nannilam,Tamil Nadu,India,609503
Maruduvancheri,,Branch Post Office,Delivery,Tamilnadu,Tiruvarur,Mayiladuthurai,Tiruchy,Nannilam,Tamil Nadu,India,609503
Punthottam,,Sub Post Office,Delivery,Tamilnadu,Tiruvarur,Mayiladuthurai,Tiruchy,Nannilam,Tamil Nadu,India,609503
Sarabojirajapuram,,Branch Post Office,Delivery,Tamilnadu,Tiruvarur,Mayiladuthurai,Tiruchy,Kodavasal,Tamil Nadu,India,609503
Sembiyanallur,,Branch Post Office,Delivery,Tamilnadu,Tiruvarur,Mayiladuthurai,Tiruchy,Nannilam,Tamil Nadu,India,609503
Panangudi,,Branch Post Office,Delivery,Tamilnadu,Tiruvarur,Nagapattinam,Tiruchy,Nannilam,Tamil Nadu,India,609504
Sannanallur,,Sub Post Office,Delivery,Tamilnadu,Nagapattinam,Nagapattinam,Tiruchy,Nagapattinam,Tamil Nadu,India,609504
Thuthukudi,,Branch Post Office,Delivery,Tamilnadu,Tiruvarur,Nagapattinam,Tiruchy,Nannilam,Tamil Nadu,India,609504
Ambagarathur,,Sub Post Office,Delivery,Tamilnadu,Karaikal,Nagapattinam,Tiruchy,Karaikal,Pondicherry,India,609601
Nallambal,,Branch Post Office,Delivery,Tamilnadu,Karaikal,Nagapattinam,Tiruchy,Thirunallar Commune Panchayat,Pondicherry,India,609601
Seithur,,Branch Post Office,Delivery,Tamilnadu,Karaikal,Nagapattinam,Tiruchy,Karaikal,Pondicherry,India,609601
Dharmapuram,,Branch Post Office,Non-Delivery,Tamilnadu,Karaikal,Nagapattinam,Tiruchy,,Pondicherry,India,609602
Karaikal,,Sub Post Office,Delivery,Tamilnadu,Karaikal,Nagapattinam,Tiruchy,,Pondicherry,India,609602
Karaikal Bazaar,,Sub Post Office,Non-Delivery,Tamilnadu,Karaikal,Nagapattinam,Tiruchy,,Pondicherry,India,609602
Karaikal South,,Sub Post Office,Non-Delivery,Tamilnadu,Karaikal,Nagapattinam,Tiruchy,,Pondicherry,India,609602
Madagadi,,Branch Post Office,Non-Delivery,Tamilnadu,Karaikal,Nagapattinam,Tiruchy,,Pondicherry,India,609602
Kurumbagaram,,Branch Post Office,Delivery,Tamilnadu,Karaikal,Nagapattinam,Tiruchy,Nedungadu Commune Panchayat,Pondicherry,India,609603
Melakasakudi,,Branch Post Office,Delivery,Tamilnadu,Karaikal,Nagapattinam,Tiruchy,Nedungadu Commune Panchayat,Pondicherry,India,609603
Nallathur,,Branch Post Office,Delivery,Tamilnadu,Karaikal,Nagapattinam,Tiruchy,Nedungadu Commune Panchayat,Pondicherry,India,609603
Nedungadu,,Sub Post Office,Delivery,Tamilnadu,Karaikal,Nagapattinam,Tiruchy,Karaikal,Pondicherry,India,609603
Tirukottaram,,Branch Post Office,Delivery,Tamilnadu,Tiruvarur,Nagapattinam,Tiruchy,Nannilam,Tamil Nadu,India,609603
Velangudi,,Branch Post Office,Delivery,Tamilnadu,Tiruvarur,Nagapattinam,Tiruchy,Nannilam,Tamil Nadu,India,609603
Akkaraivattam,,Branch Post Office,Delivery,Tamilnadu,Karaikal,Nagapattinam,Tiruchy,Neravy Commune Panchayat,Pondicherry,India,609604
Alathur,,Branch Post Office,Delivery,Tamilnadu,Nagapattinam,Nagapattinam,Tiruchy,Nagapattinam,Tamil Nadu,India,609604
Neravy,,Sub Post Office,Delivery,Tamilnadu,Karaikal,Nagapattinam,Tiruchy,Neravy Commune Panchayat,Pondicherry,India,609604
Karaikalmedu,,Branch Post Office,Non-Delivery,Tamilnadu,Karaikal,Nagapattinam,Tiruchy,,Pondicherry,India,609605
Karaikoilpathu,,Branch Post Office,Non-Delivery,Tamilnadu,Karaikal,Nagapattinam,Tiruchy,,Pondicherry,India,609605
Thalatheru,,Sub Post Office,Delivery,Tamilnadu,Karaikal,Nagapattinam,Tiruchy,,Pondicherry,India,609605
T.R.Pattinam South,,Branch Post Office,Non-Delivery,Tamilnadu,Karaikal,Nagapattinam,Tiruchy,Thirumalairayan Pattinam Commune Panchayat,Pondicherry,India,609606
Tirumalairayanpattinam,,Sub Post Office,Delivery,Tamilnadu,Karaikal,Nagapattinam,Tiruchy,Karaikal,Pondicherry,India,609606
Karukkangudi,,Branch Post Office,Delivery,Tamilnadu,Karaikal,Nagapattinam,Tiruchy,Thirunallar Commune Panchayat,Pondicherry,India,609607
Sellur,,Branch Post Office,Delivery,Tamilnadu,Karaikal,Nagapattinam,Tiruchy,Thirunallar Commune Panchayat,Pondicherry,India,609607
Surakudi,,Branch Post Office,Delivery,Tamilnadu,Karaikal,Nagapattinam,Tiruchy,Thirunallar Commune Panchayat,Pondicherry,India,609607
Tirunallar,,Sub Post Office,Delivery,Tamilnadu,Karaikal,Nagapattinam,Tiruchy,Karaikal,Pondicherry,India,609607
Vizhithiyur,,Branch Post Office,Delivery,Tamilnadu,Karaikal,Nagapattinam,Tiruchy,Neravy Commune Panchayat,Pondicherry,India,609607
Kollapuram,,Sub Post Office,Delivery,Tamilnadu,Tiruvarur,Nagapattinam,Tiruchy,Nannilam,Tamil Nadu,India,609608
Kurungulam,,Branch Post Office,Delivery,Tamilnadu,Tiruvarur,Nagapattinam,Tiruchy,Nannilam,Tamil Nadu,India,609608
Menangudi,,Branch Post Office,Delivery,Tamilnadu,Tiruvarur,Nagapattinam,Tiruchy,Nannilam,Tamil Nadu,India,609608
Ubayavedanthapuram,,Branch Post Office,Delivery,Tamilnadu,Tiruvarur,Nagapattinam,Tiruchy,Nannilam,Tamil Nadu,India,609608
Kottuchery,,Sub Post Office,Delivery,Tamilnadu,Karaikal,Nagapattinam,Tiruchy,Kottucherry Commune Panchayat,Pondicherry,India,609609
Tiruvettakudi,,Branch Post Office,Delivery,Tamilnadu,Karaikal,Nagapattinam,Tiruchy,Kottucherry Commune Panchayat,Pondicherry,India,609609
Varichikudi,,Branch Post Office,Delivery,Tamilnadu,Karaikal,Nagapattinam,Tiruchy,Kottucherry Commune Panchayat,Pondicherry,India,609609
G.Moolapalem,,Branch Post Office,Delivery,Andhra Pradesh,East Godavari,Kakinada,Visakhapatnam,Pondicherry,Andhra Pradesh,India,533464
Georgepeta,,Branch Post Office,Delivery,Andhra Pradesh,East Godavari,Kakinada,Visakhapatnam,Pondicherry,Andhra Pradesh,India,533464
Guthenadeevi,,Branch Post Office,Delivery,Andhra Pradesh,East Godavari,Kakinada,Visakhapatnam,Pondicherry,Andhra Pradesh,India,533464
Injaram,,Branch Post Office,Delivery,Andhra Pradesh,East Godavari,Kakinada,Visakhapatnam,Tallarevu,Andhra Pradesh,India,533464
Kapulapalem,,Branch Post Office,Delivery,Andhra Pradesh,East Godavari,Kakinada,Visakhapatnam,Thallarevu,Andhra Pradesh,India,533464
Kolanka,,Branch Post Office,Delivery,Andhra Pradesh,East Godavari,Kakinada,Visakhapatnam,Tallarevu,Andhra Pradesh,India,533464
Neelapalli,,Branch Post Office,Delivery,Andhra Pradesh,East Godavari,Kakinada,Visakhapatnam,Tallarevu,Andhra Pradesh,India,533464
Pallipalem,,Branch Post Office,Delivery,Andhra Pradesh,East Godavari,Kakinada,Visakhapatnam,Tallarevu,Andhra Pradesh,India,533464
Pillanka,,Branch Post Office,Delivery,Andhra Pradesh,East Godavari,Kakinada,Visakhapatnam,Tallarevu,Andhra Pradesh,India,533464
Uppangala,,Branch Post Office,Delivery,Andhra Pradesh,East Godavari,Kakinada,Visakhapatnam,Tallarevu,Andhra Pradesh,India,533464
Yanam,,Sub Post Office,Delivery,Andhra Pradesh,Pondicherry,Kakinada,Visakhapatnam,Pondicherry,Pondicherry,India,533464
Yedurulanka,,Branch Post Office,Delivery,Andhra Pradesh,East Godavari,Kakinada,Visakhapatnam,Tallarevu,Andhra Pradesh,India,533464
Mahe,,Sub Post Office,Delivery,Kerala,Kozhikode,Vadakara,Calicut,Vadakara,Kerala,India,673310
Naluthara,,Branch Post Office,Delivery,Kerala,Mahe,Vadakara,Calicut,Mahe Ut,Pondicherry,India,673310
Pallur,,Branch Post Office,Delivery,Kerala,Mahe,Vadakara,Calicut,Mahe Ut,Pondicherry,India,673310
Pandakkal,,Branch Post Office,Delivery,Kerala,Pondicherry,Vadakara,Calicut,Ut Of Pondichery,Pondicherry,India,673310
